<?xml version="1.0" encoding="UTF-8"?>
<kml xmlns="http://www.opengis.net/kml/2.2">
  <Document>
    <name>Arts District Route</name>
    <description/>
    <Style id="icon-1899-DB4436-nodesc-normal">
      <IconStyle>
        <color>ff3644db</color>
        <scale>1</scale>
        <Icon>
          <href>https://www.gstatic.com/mapspro/images/stock/503-wht-blank_maps.png</href>
        </Icon>
        <hotSpot x="32" xunits="pixels" y="64" yunits="insetPixels"/>
      </IconStyle>
      <LabelStyle>
        <scale>0</scale>
      </LabelStyle>
      <BalloonStyle>
        <text><![CDATA[<h3>$[name]</h3>]]></text>
      </BalloonStyle>
    </Style>
    <Style id="icon-1899-DB4436-nodesc-highlight">
      <IconStyle>
        <color>ff3644db</color>
        <scale>1</scale>
        <Icon>
          <href>https://www.gstatic.com/mapspro/images/stock/503-wht-blank_maps.png</href>
        </Icon>
        <hotSpot x="32" xunits="pixels" y="64" yunits="insetPixels"/>
      </IconStyle>
      <LabelStyle>
        <scale>1</scale>
      </LabelStyle>
      <BalloonStyle>
        <text><![CDATA[<h3>$[name]</h3>]]></text>
      </BalloonStyle>
    </Style>
    <StyleMap id="icon-1899-DB4436-nodesc">
      <Pair>
        <key>normal</key>
        <styleUrl>#icon-1899-DB4436-nodesc-normal</styleUrl>
      </Pair>
      <Pair>
        <key>highlight</key>
        <styleUrl>#icon-1899-DB4436-nodesc-highlight</styleUrl>
      </Pair>
    </StyleMap>
    <Style id="line-1267FF-5000-nodesc-normal">
      <LineStyle>
        <color>ffff6712</color>
        <width>5</width>
      </LineStyle>
      <BalloonStyle>
        <text><![CDATA[<h3>$[name]</h3>]]></text>
      </BalloonStyle>
    </Style>
    <Style id="line-1267FF-5000-nodesc-highlight">
      <LineStyle>
        <color>ffff6712</color>
        <width>7.5</width>
      </LineStyle>
      <BalloonStyle>
        <text><![CDATA[<h3>$[name]</h3>]]></text>
      </BalloonStyle>
    </Style>
    <StyleMap id="line-1267FF-5000-nodesc">
      <Pair>
        <key>normal</key>
        <styleUrl>#line-1267FF-5000-nodesc-normal</styleUrl>
      </Pair>
      <Pair>
        <key>highlight</key>
        <styleUrl>#line-1267FF-5000-nodesc-highlight</styleUrl>
      </Pair>
    </StyleMap>
    <Folder>
      <name>Untitled layer</name>
    </Folder>
    <Folder>
      <name>Directions from 2336 5th Ave S, St. Petersburg, FL 33712, USA to 579 27th St S, St. Petersburg, FL 33712, USA</name>
      <Placemark>
        <name>Directions from 2336 5th Ave S, St. Petersburg, FL 33712, USA to 579 27th St S, St. Petersburg, FL 33712, USA</name>
        <styleUrl>#line-1267FF-5000-nodesc</styleUrl>
        <LineString>
          <tessellate>1</tessellate>
          <coordinates>
            -82.66497,27.76631,0
            -82.66497,27.76632,0
            -82.66492,27.76635,0
            -82.66468,27.76635,0
            -82.66462,27.76629,0
            -82.66457,27.76629,0
            -82.66443,27.76629,0
            -82.66439,27.76629,0
            -82.66439,27.76634,0
            -82.66439,27.76642,0
            -82.66439,27.76645,0
            -82.66439,27.76648,0
            -82.66448,27.76648,0
            -82.6645,27.76648,0
            -82.66562,27.76648,0
            -82.66574,27.76648,0
            -82.66574,27.76642,0
            -82.66574,27.76641,0
            -82.66574,27.76638,0
            -82.66573,27.76617,0
            -82.66573,27.76615,0
            -82.66573,27.7661,0
            -82.66573,27.76602,0
            -82.66572,27.76573,0
            -82.66572,27.7657,0
            -82.66573,27.76562,0
            -82.66573,27.76555,0
            -82.66574,27.7655,0
            -82.66574,27.76539,0
            -82.66573,27.76491,0
            -82.66573,27.76483,0
            -82.66573,27.76466,0
            -82.66578,27.76462,0
            -82.66583,27.76459,0
            -82.66589,27.76454,0
            -82.666,27.76446,0
            -82.66604,27.76444,0
            -82.6666,27.76404,0
            -82.66684,27.76387,0
            -82.667,27.76375,0
            -82.66715,27.76364,0
            -82.66734,27.76352,0
            -82.66755,27.76339,0
            -82.66787,27.76321,0
            -82.66818,27.76308,0
            -82.66847,27.76298,0
            -82.66886,27.76287,0
            -82.66914,27.76282,0
            -82.66919,27.76281,0
            -82.66945,27.76278,0
            -82.66978,27.76277,0
            -82.67014,27.76276,0
            -82.67035,27.76276,0
            -82.67108,27.76276,0
            -82.67109,27.7629,0
            -82.67109,27.76294,0
            -82.67075,27.76294,0
            -82.67071,27.76294,0
            -82.6704,27.76294,0
            -82.67024,27.76294,0
            -82.67018,27.76294,0
            -82.67009,27.76294,0
            -82.67,27.76295,0
            -82.66989,27.76295,0
            -82.66965,27.76297,0
            -82.66948,27.76297,0
            -82.66931,27.763,0
            -82.66915,27.76305,0
            -82.66902,27.76308,0
            -82.66898,27.76309,0
            -82.66902,27.76308,0
            -82.66915,27.76305,0
            -82.66931,27.763,0
            -82.66948,27.76297,0
            -82.66965,27.76297,0
            -82.66989,27.76295,0
            -82.67,27.76295,0
            -82.67009,27.76294,0
            -82.67018,27.76294,0
            -82.67024,27.76294,0
            -82.6704,27.76294,0
            -82.67071,27.76294,0
            -82.67075,27.76294,0
            -82.67109,27.76294,0
            -82.67123,27.76291,0
            -82.67123,27.7629,0
            -82.67159,27.76289,0
            -82.67164,27.76289,0
            -82.67171,27.76289,0
            -82.67182,27.76288,0
            -82.67189,27.76288,0
            -82.67196,27.76288,0
            -82.67235,27.76288,0
            -82.67312,27.76288,0
            -82.67329,27.76288,0
            -82.67335,27.76288,0
            -82.67341,27.76288,0
            -82.67346,27.76288,0
            -82.67352,27.76288,0
            -82.67388,27.76289,0
            -82.67395,27.76289,0
            -82.67517,27.76289,0
            -82.67521,27.76289,0
            -82.67522,27.76294,0
            -82.67522,27.76297,0
            -82.67522,27.763,0
            -82.67522,27.7631,0
            -82.67522,27.76312,0
            -82.67522,27.76313,0
            -82.67522,27.76314,0
            -82.67522,27.76317,0
            -82.67523,27.76321,0
            -82.67523,27.76324,0
            -82.67524,27.76335,0
            -82.67524,27.76348,0
            -82.67525,27.76359,0
            -82.67512,27.76359,0
            -82.67489,27.76359,0
            -82.67388,27.76359,0
            -82.67253,27.76359,0
            -82.67244,27.7636,0
            -82.67153,27.7636,0
            -82.67132,27.7636,0
            -82.67123,27.7636,0
            -82.67109,27.7636,0
            -82.67109,27.76362,0
            -82.67109,27.7637,0
            -82.67109,27.76373,0
            -82.67109,27.76382,0
            -82.67109,27.76386,0
            -82.67109,27.76392,0
            -82.67109,27.76394,0
            -82.67109,27.764,0
            -82.67109,27.76419,0
            -82.6711,27.76425,0
            -82.67109,27.76433,0
            -82.67109,27.76437,0
            -82.67109,27.7644,0
            -82.6711,27.76458,0
            -82.6711,27.76461,0
            -82.6711,27.76469,0
            -82.67102,27.76469,0
            -82.67091,27.76469,0
            -82.6709,27.76469,0
            -82.67029,27.76469,0
            -82.67004,27.76469,0
          </coordinates>
        </LineString>
      </Placemark>
      <Placemark>
        <name>2336 5th Ave S, St. Petersburg, FL 33712, USA</name>
        <styleUrl>#icon-1899-DB4436-nodesc</styleUrl>
        <Point>
          <coordinates>
            -82.6649698,27.7663054,0
          </coordinates>
        </Point>
      </Placemark>
      <Placemark>
        <name>579 27th St S, St. Petersburg, FL 33712, USA</name>
        <styleUrl>#icon-1899-DB4436-nodesc</styleUrl>
        <Point>
          <coordinates>
            -82.6700435,27.7646903,0
          </coordinates>
        </Point>
      </Placemark>
    </Folder>
  </Document>
</kml>
