{
    "type": "FeatureCollection",
    "features": [
        {
            "type": "Feature",
            "properties": {},
            "geometry": {
                "type": "Point",
                "coordinates": [
                    -82.663532,
                    27.765451
                ]
            },
            "bbox": [
                -82.663532,
                27.765451,
                -82.663532,
                27.765451
            ]
        },
        {
            "type": "Feature",
            "properties": {},
            "geometry": {
                "type": "LineString",
                "coordinates": [
                    [
                        -82.663547,
                        27.765451
                    ],
                    [
                        -82.663973,
                        27.76474
                    ],
                    [
                        -82.664618,
                        27.764758
                    ],
                    [
                        -82.664618,
                        27.764758
                    ]
                ]
            },
            "bbox": [
                -82.664618,
                27.76474,
                -82.663547,
                27.765451
            ]
        },
        {
            "type": "Feature",
            "properties": {},
            "geometry": {
                "type": "Point",
                "coordinates": [
                    -82.664628,
                    27.764775
                ]
            },
            "bbox": [
                -82.664628,
                27.764775,
                -82.664628,
                27.764775
            ]
        },
        {
            "type": "Feature",
            "properties": {},
            "geometry": {
                "type": "LineString",
                "coordinates": [
                    [
                        -82.664645,
                        27.76478
                    ],
                    [
                        -82.664645,
                        27.764699
                    ],
                    [
                        -82.664443,
                        27.764699
                    ],
                    [
                        -82.664424,
                        27.763848
                    ],
                    [
                        -82.664537,
                        27.763852
                    ],
                    [
                        -82.664534,
                        27.763852
                    ]
                ]
            },
            "bbox": [
                -82.664645,
                27.763848,
                -82.664424,
                27.76478
            ]
        },
        {
            "type": "Feature",
            "properties": {},
            "geometry": {
                "type": "Point",
                "coordinates": [
                    -82.664543,
                    27.763857
                ]
            },
            "bbox": [
                -82.664543,
                27.763857,
                -82.664543,
                27.763857
            ]
        },
        {
            "type": "Feature",
            "properties": {},
            "geometry": {
                "type": "LineString",
                "coordinates": [
                    [
                        -82.664551,
                        27.763865
                    ],
                    [
                        -82.66551,
                        27.763857
                    ],
                    [
                        -82.66551,
                        27.763857
                    ]
                ]
            },
            "bbox": [
                -82.66551,
                27.763857,
                -82.664551,
                27.763865
            ]
        },
        {
            "type": "Feature",
            "properties": {},
            "geometry": {
                "type": "Point",
                "coordinates": [
                    -82.665527,
                    27.76387
                ]
            },
            "bbox": [
                -82.665527,
                27.76387,
                -82.665527,
                27.76387
            ]
        },
        {
            "type": "Feature",
            "properties": {},
            "geometry": {
                "type": "LineString",
                "coordinates": [
                    [
                        -82.665535,
                        27.76387
                    ],
                    [
                        -82.66569,
                        27.763867
                    ],
                    [
                        -82.665693,
                        27.764665
                    ],
                    [
                        -82.666135,
                        27.764366
                    ],
                    [
                        -82.666138,
                        27.764364
                    ]
                ]
            },
            "bbox": [
                -82.666138,
                27.763867,
                -82.665535,
                27.764665
            ]
        },
        {
            "type": "Feature",
            "properties": {},
            "geometry": {
                "type": "Point",
                "coordinates": [
                    -82.666149,
                    27.764366
                ]
            },
            "bbox": [
                -82.666149,
                27.764366,
                -82.666149,
                27.764366
            ]
        },
        {
            "type": "Feature",
            "properties": {},
            "geometry": {
                "type": "LineString",
                "coordinates": [
                    [
                        -82.666153,
                        27.764372
                    ],
                    [
                        -82.667209,
                        27.76361
                    ],
                    [
                        -82.668118,
                        27.763122
                    ],
                    [
                        -82.669096,
                        27.762834
                    ],
                    [
                        -82.674372,
                        27.762755
                    ],
                    [
                        -82.674372,
                        27.762755
                    ]
                ]
            },
            "bbox": [
                -82.674372,
                27.762755,
                -82.666153,
                27.764372
            ]
        },
        {
            "type": "Feature",
            "properties": {},
            "geometry": {
                "type": "Point",
                "coordinates": [
                    -82.674388,
                    27.762773
                ]
            },
            "bbox": [
                -82.674388,
                27.762773,
                -82.674388,
                27.762773
            ]
        },
        {
            "type": "Feature",
            "properties": {},
            "geometry": {
                "type": "LineString",
                "coordinates": [
                    [
                        -82.674393,
                        27.762778
                    ],
                    [
                        -82.675249,
                        27.76275
                    ],
                    [
                        -82.675254,
                        27.762857
                    ],
                    [
                        -82.674876,
                        27.762866
                    ],
                    [
                        -82.674871,
                        27.762866
                    ]
                ]
            },
            "bbox": [
                -82.675254,
                27.76275,
                -82.674393,
                27.762866
            ]
        },
        {
            "type": "Feature",
            "properties": {},
            "geometry": {
                "type": "Point",
                "coordinates": [
                    -82.674887,
                    27.762876
                ]
            },
            "bbox": [
                -82.674887,
                27.762876,
                -82.674887,
                27.762876
            ]
        },
        {
            "type": "Feature",
            "properties": {},
            "geometry": {
                "type": "LineString",
                "coordinates": [
                    [
                        -82.674912,
                        27.762894
                    ],
                    [
                        -82.671216,
                        27.762883
                    ],
                    [
                        -82.6711,
                        27.762942
                    ],
                    [
                        -82.67046,
                        27.762939
                    ],
                    [
                        -82.669734,
                        27.762946
                    ],
                    [
                        -82.668709,
                        27.763109
                    ],
                    [
                        -82.667643,
                        27.763467
                    ],
                    [
                        -82.666768,
                        27.764072
                    ]
                ]
            },
            "bbox": [
                -82.674912,
                27.762883,
                -82.666768,
                27.764072
            ]
        },
        {
            "type": "Feature",
            "properties": {},
            "geometry": {
                "type": "Point",
                "coordinates": [
                    -82.666734,
                    27.764116
                ]
            },
            "bbox": [
                -82.666734,
                27.764116,
                -82.666734,
                27.764116
            ]
        },
        {
            "type": "Feature",
            "properties": {},
            "geometry": {
                "type": "LineString",
                "coordinates": [
                    [
                        -82.666743,
                        27.764146
                    ],
                    [
                        -82.666826,
                        27.764227
                    ],
                    [
                        -82.668102,
                        27.763475
                    ],
                    [
                        -82.668102,
                        27.763475
                    ]
                ]
            },
            "bbox": [
                -82.668102,
                27.763475,
                -82.666743,
                27.764227
            ]
        },
        {
            "type": "Feature",
            "properties": {},
            "geometry": {
                "type": "Point",
                "coordinates": [
                    -82.668127,
                    27.763504
                ]
            },
            "bbox": [
                -82.668127,
                27.763504,
                -82.668127,
                27.763504
            ]
        },
        {
            "type": "Feature",
            "properties": {},
            "geometry": {
                "type": "LineString",
                "coordinates": [
                    [
                        -82.668143,
                        27.763497
                    ],
                    [
                        -82.668093,
                        27.763379
                    ],
                    [
                        -82.668835,
                        27.763165
                    ],
                    [
                        -82.669877,
                        27.763017
                    ],
                    [
                        -82.671078,
                        27.763002
                    ],
                    [
                        -82.671128,
                        27.763777
                    ],
                    [
                        -82.668844,
                        27.763799
                    ],
                    [
                        -82.668321,
                        27.763817
                    ],
                    [
                        -82.667913,
                        27.764002
                    ],
                    [
                        -82.667054,
                        27.764607
                    ],
                    [
                        -82.665628,
                        27.765684
                    ],
                    [
                        -82.66562,
                        27.765684
                    ]
                ]
            },
            "bbox": [
                -82.671128,
                27.763002,
                -82.66562,
                27.765684
            ]
        },
        {
            "type": "Feature",
            "properties": {},
            "geometry": {
                "type": "Point",
                "coordinates": [
                    -82.66567,
                    27.765713
                ]
            },
            "bbox": [
                -82.66567,
                27.765713,
                -82.66567,
                27.765713
            ]
        },
        {
            "type": "Feature",
            "properties": {},
            "geometry": {
                "type": "LineString",
                "coordinates": [
                    [
                        -82.665687,
                        27.765757
                    ],
                    [
                        -82.665678,
                        27.766473
                    ],
                    [
                        -82.665559,
                        27.766475
                    ],
                    [
                        -82.665559,
                        27.766477
                    ]
                ]
            },
            "bbox": [
                -82.665687,
                27.765757,
                -82.665559,
                27.766477
            ]
        },
        {
            "type": "Feature",
            "properties": {},
            "geometry": {
                "type": "Point",
                "coordinates": [
                    -82.665565,
                    27.766483
                ]
            },
            "bbox": [
                -82.665565,
                27.766483,
                -82.665565,
                27.766483
            ]
        },
        {
            "type": "Feature",
            "properties": {},
            "geometry": {
                "type": "LineString",
                "coordinates": [
                    [
                        -82.665567,
                        27.76648
                    ],
                    [
                        -82.665216,
                        27.766475
                    ],
                    [
                        -82.665216,
                        27.766475
                    ]
                ]
            },
            "bbox": [
                -82.665567,
                27.766475,
                -82.665216,
                27.76648
            ]
        },
        {
            "type": "Feature",
            "properties": {},
            "geometry": {
                "type": "Point",
                "coordinates": [
                    -82.665218,
                    27.766483
                ]
            },
            "bbox": [
                -82.665218,
                27.766483,
                -82.665218,
                27.766483
            ]
        },
        {
            "type": "Feature",
            "properties": {},
            "geometry": {
                "type": "LineString",
                "coordinates": [
                    [
                        -82.665216,
                        27.766481
                    ],
                    [
                        -82.665041,
                        27.766465
                    ],
                    [
                        -82.664857,
                        27.766465
                    ]
                ]
            },
            "bbox": [
                -82.665216,
                27.766465,
                -82.664857,
                27.766481
            ]
        },
        {
            "type": "Feature",
            "properties": {},
            "geometry": {
                "type": "Point",
                "coordinates": [
                    -82.66487,
                    27.766473
                ]
            },
            "bbox": [
                -82.66487,
                27.766473,
                -82.66487,
                27.766473
            ]
        },
        {
            "type": "Feature",
            "properties": {},
            "geometry": {
                "type": "LineString",
                "coordinates": [
                    [
                        -82.664857,
                        27.76647
                    ],
                    [
                        -82.664418,
                        27.766468
                    ],
                    [
                        -82.663394,
                        27.766467
                    ],
                    [
                        -82.663174,
                        27.766477
                    ],
                    [
                        -82.663108,
                        27.766427
                    ],
                    [
                        -82.663091,
                        27.766391
                    ],
                    [
                        -82.663091,
                        27.765744
                    ],
                    [
                        -82.663537,
                        27.765453
                    ]
                ]
            },
            "bbox": [
                -82.664857,
                27.765453,
                -82.663091,
                27.766477
            ]
        }
    ]
}