<?xml version="1.0" encoding="UTF-8"?>
<kml xmlns="http://www.opengis.net/kml/2.2">
  <Document>
    <name>central avenue </name>
    <description/>
    <Style id="icon-1899-DB4436-nodesc-normal">
      <IconStyle>
        <color>ff3644db</color>
        <scale>1</scale>
        <Icon>
          <href>https://www.gstatic.com/mapspro/images/stock/503-wht-blank_maps.png</href>
        </Icon>
        <hotSpot x="32" xunits="pixels" y="64" yunits="insetPixels"/>
      </IconStyle>
      <LabelStyle>
        <scale>0</scale>
      </LabelStyle>
      <BalloonStyle>
        <text><![CDATA[<h3>$[name]</h3>]]></text>
      </BalloonStyle>
    </Style>
    <Style id="icon-1899-DB4436-nodesc-highlight">
      <IconStyle>
        <color>ff3644db</color>
        <scale>1</scale>
        <Icon>
          <href>https://www.gstatic.com/mapspro/images/stock/503-wht-blank_maps.png</href>
        </Icon>
        <hotSpot x="32" xunits="pixels" y="64" yunits="insetPixels"/>
      </IconStyle>
      <LabelStyle>
        <scale>1</scale>
      </LabelStyle>
      <BalloonStyle>
        <text><![CDATA[<h3>$[name]</h3>]]></text>
      </BalloonStyle>
    </Style>
    <StyleMap id="icon-1899-DB4436-nodesc">
      <Pair>
        <key>normal</key>
        <styleUrl>#icon-1899-DB4436-nodesc-normal</styleUrl>
      </Pair>
      <Pair>
        <key>highlight</key>
        <styleUrl>#icon-1899-DB4436-nodesc-highlight</styleUrl>
      </Pair>
    </StyleMap>
    <Style id="line-1267FF-5000-nodesc-normal">
      <LineStyle>
        <color>ffff6712</color>
        <width>5</width>
      </LineStyle>
      <BalloonStyle>
        <text><![CDATA[<h3>$[name]</h3>]]></text>
      </BalloonStyle>
    </Style>
    <Style id="line-1267FF-5000-nodesc-highlight">
      <LineStyle>
        <color>ffff6712</color>
        <width>7.5</width>
      </LineStyle>
      <BalloonStyle>
        <text><![CDATA[<h3>$[name]</h3>]]></text>
      </BalloonStyle>
    </Style>
    <StyleMap id="line-1267FF-5000-nodesc">
      <Pair>
        <key>normal</key>
        <styleUrl>#line-1267FF-5000-nodesc-normal</styleUrl>
      </Pair>
      <Pair>
        <key>highlight</key>
        <styleUrl>#line-1267FF-5000-nodesc-highlight</styleUrl>
      </Pair>
    </StyleMap>
    <Folder>
      <name>Untitled layer</name>
    </Folder>
    <Folder>
      <name>Directions from 17 21st St N, St. Petersburg, FL 33713, USA to 2340 Central Ave 2nd Floor, St. Petersburg, FL 33712, USA</name>
      <Placemark>
        <name>Directions from 17 21st St N, St. Petersburg, FL 33713, USA to 2340 Central Ave 2nd Floor, St. Petersburg, FL 33712, USA</name>
        <styleUrl>#line-1267FF-5000-nodesc</styleUrl>
        <LineString>
          <tessellate>1</tessellate>
          <coordinates>
            -82.66164,27.77129,0
            -82.66164,27.77115,0
            -82.66176,27.77115,0
            -82.66179,27.77115,0
            -82.66197,27.77115,0
            -82.66201,27.77115,0
            -82.66209,27.77115,0
            -82.66211,27.77115,0
            -82.66212,27.77115,0
            -82.66218,27.77115,0
            -82.66225,27.77115,0
            -82.66234,27.77115,0
            -82.66253,27.77114,0
            -82.66255,27.77114,0
            -82.66271,27.77114,0
            -82.66277,27.77114,0
            -82.66291,27.77114,0
            -82.66294,27.77114,0
            -82.66313,27.77116,0
            -82.66323,27.77116,0
            -82.66332,27.77116,0
            -82.6635,27.77115,0
            -82.66386,27.77114,0
            -82.66405,27.77118,0
            -82.66416,27.77118,0
            -82.66417,27.77118,0
            -82.66428,27.77117,0
            -82.66434,27.77117,0
            -82.66436,27.77117,0
            -82.6645,27.77117,0
            -82.66458,27.77117,0
            -82.66465,27.77117,0
            -82.66479,27.77115,0
            -82.66485,27.77115,0
            -82.66543,27.77115,0
            -82.6655,27.77115,0
            -82.66567,27.7711,0
            -82.66575,27.7711,0
            -82.66586,27.77107,0
            -82.66592,27.77107,0
            -82.66594,27.77107,0
            -82.66609,27.77112,0
            -82.66677,27.77112,0
            -82.66692,27.77107,0
            -82.66703,27.77107,0
            -82.66709,27.77107,0
            -82.6672,27.77108,0
            -82.66726,27.77108,0
            -82.66731,27.77108,0
            -82.66747,27.77113,0
            -82.66757,27.77113,0
            -82.66769,27.77114,0
            -82.66772,27.77114,0
            -82.66819,27.77113,0
            -82.66834,27.77111,0
            -82.66842,27.77111,0
            -82.66847,27.77111,0
            -82.66847,27.77113,0
            -82.66847,27.77115,0
            -82.66849,27.77115,0
            -82.66859,27.77115,0
            -82.66861,27.77115,0
            -82.66861,27.77113,0
            -82.66861,27.77108,0
            -82.66865,27.77108,0
            -82.66869,27.77108,0
            -82.66885,27.77113,0
            -82.66894,27.77115,0
            -82.66957,27.77114,0
            -82.66982,27.77114,0
            -82.66982,27.7711,0
            -82.66981,27.77093,0
            -82.66981,27.77089,0
            -82.66981,27.77066,0
            -82.66981,27.77058,0
            -82.66997,27.77058,0
            -82.67065,27.77058,0
            -82.67069,27.77058,0
            -82.67118,27.77057,0
            -82.67118,27.77063,0
            -82.67118,27.77066,0
            -82.67118,27.77069,0
            -82.67118,27.77085,0
            -82.67118,27.77086,0
            -82.67118,27.77091,0
            -82.6711,27.77091,0
            -82.67102,27.77091,0
            -82.67088,27.77089,0
            -82.67076,27.77089,0
            -82.67071,27.77089,0
            -82.67004,27.77089,0
            -82.66997,27.77089,0
            -82.66995,27.77089,0
            -82.66984,27.77089,0
            -82.66981,27.77089,0
            -82.66957,27.7709,0
            -82.66894,27.7709,0
            -82.6688,27.77097,0
            -82.6687,27.77096,0
            -82.66865,27.77096,0
            -82.66859,27.77096,0
            -82.66859,27.77092,0
            -82.66859,27.77091,0
            -82.66859,27.7709,0
            -82.66858,27.7709,0
            -82.66849,27.7709,0
            -82.66847,27.7709,0
            -82.66847,27.77091,0
            -82.66847,27.77092,0
            -82.66847,27.77095,0
            -82.66842,27.77094,0
            -82.66834,27.77094,0
            -82.66818,27.77092,0
            -82.66786,27.77092,0
            -82.66763,27.77093,0
            -82.66759,27.77093,0
            -82.66747,27.77093,0
            -82.66731,27.77098,0
            -82.66726,27.77098,0
            -82.66719,27.77098,0
            -82.66709,27.771,0
            -82.66703,27.771,0
            -82.66692,27.771,0
            -82.66676,27.77095,0
            -82.6661,27.77096,0
            -82.66594,27.77101,0
            -82.66592,27.77101,0
            -82.66586,27.77101,0
            -82.66575,27.77098,0
            -82.66567,27.77098,0
            -82.66547,27.77095,0
            -82.66543,27.77095,0
          </coordinates>
        </LineString>
      </Placemark>
      <Placemark>
        <name>17 21st St N, St. Petersburg, FL 33713, USA</name>
        <styleUrl>#icon-1899-DB4436-nodesc</styleUrl>
        <Point>
          <coordinates>
            -82.6616358,27.7712893,0
          </coordinates>
        </Point>
      </Placemark>
      <Placemark>
        <name>2340 Central Ave 2nd Floor, St. Petersburg, FL 33712, USA</name>
        <styleUrl>#icon-1899-DB4436-nodesc</styleUrl>
        <Point>
          <coordinates>
            -82.665433,27.7709515,0
          </coordinates>
        </Point>
      </Placemark>
    </Folder>
  </Document>
</kml>
