{
    "type": "FeatureCollection",
    "features": [
        {
            "type": "Feature",
            "properties": {},
            "geometry": {
                "type": "Point",
                "coordinates": [
                    -82.661564,
                    27.771341
                ]
            },
            "bbox": [
                -82.661564,
                27.771341,
                -82.661564,
                27.771341
            ]
        },
        {
            "type": "Feature",
            "properties": {},
            "geometry": {
                "type": "LineString",
                "coordinates": [
                    [
                        -82.66157,
                        27.771349
                    ],
                    [
                        -82.661555,
                        27.771184
                    ],
                    [
                        -82.662908,
                        27.771153
                    ],
                    [
                        -82.662972,
                        27.771188
                    ],
                    [
                        -82.663,
                        27.771185
                    ]
                ]
            },
            "bbox": [
                -82.663,
                27.771153,
                -82.661555,
                27.771349
            ]
        },
        {
            "type": "Feature",
            "properties": {},
            "geometry": {
                "type": "Point",
                "coordinates": [
                    -82.663006,
                    27.771191
                ]
            },
            "bbox": [
                -82.663006,
                27.771191,
                -82.663006,
                27.771191
            ]
        },
        {
            "type": "Feature",
            "properties": {},
            "geometry": {
                "type": "LineString",
                "coordinates": [
                    [
                        -82.663012,
                        27.771194
                    ],
                    [
                        -82.66356,
                        27.771175
                    ]
                ]
            },
            "bbox": [
                -82.66356,
                27.771175,
                -82.663012,
                27.771194
            ]
        },
        {
            "type": "Feature",
            "properties": {},
            "geometry": {
                "type": "Point",
                "coordinates": [
                    -82.66357,
                    27.77118
                ]
            },
            "bbox": [
                -82.66357,
                27.77118,
                -82.66357,
                27.77118
            ]
        },
        {
            "type": "Feature",
            "properties": {},
            "geometry": {
                "type": "LineString",
                "coordinates": [
                    [
                        -82.663579,
                        27.771188
                    ],
                    [
                        -82.665391,
                        27.77116
                    ],
                    [
                        -82.665681,
                        27.771154
                    ],
                    [
                        -82.665714,
                        27.771173
                    ],
                    [
                        -82.66587,
                        27.771167
                    ],
                    [
                        -82.666104,
                        27.771167
                    ]
                ]
            },
            "bbox": [
                -82.666104,
                27.771154,
                -82.663579,
                27.771188
            ]
        },
        {
            "type": "Feature",
            "properties": {},
            "geometry": {
                "type": "Point",
                "coordinates": [
                    -82.666115,
                    27.771173
                ]
            },
            "bbox": [
                -82.666115,
                27.771173,
                -82.666115,
                27.771173
            ]
        },
        {
            "type": "Feature",
            "properties": {},
            "geometry": {
                "type": "LineString",
                "coordinates": [
                    [
                        -82.666126,
                        27.77118
                    ],
                    [
                        -82.666841,
                        27.771157
                    ],
                    [
                        -82.666889,
                        27.771128
                    ],
                    [
                        -82.666926,
                        27.771095
                    ],
                    [
                        -82.667041,
                        27.771088
                    ],
                    [
                        -82.667101,
                        27.771121
                    ],
                    [
                        -82.667108,
                        27.771154
                    ],
                    [
                        -82.667205,
                        27.771157
                    ],
                    [
                        -82.667216,
                        27.771128
                    ],
                    [
                        -82.667249,
                        27.771092
                    ],
                    [
                        -82.667367,
                        27.771081
                    ],
                    [
                        -82.667427,
                        27.771111
                    ],
                    [
                        -82.667427,
                        27.771147
                    ],
                    [
                        -82.668623,
                        27.771147
                    ],
                    [
                        -82.669438,
                        27.77115
                    ],
                    [
                        -82.66943,
                        27.77115
                    ]
                ]
            },
            "bbox": [
                -82.669438,
                27.771081,
                -82.666126,
                27.77118
            ]
        },
        {
            "type": "Feature",
            "properties": {},
            "geometry": {
                "type": "Point",
                "coordinates": [
                    -82.669438,
                    27.771157
                ]
            },
            "bbox": [
                -82.669438,
                27.771157,
                -82.669438,
                27.771157
            ]
        },
        {
            "type": "Feature",
            "properties": {},
            "geometry": {
                "type": "LineString",
                "coordinates": [
                    [
                        -82.669447,
                        27.771158
                    ],
                    [
                        -82.669846,
                        27.771145
                    ],
                    [
                        -82.672674,
                        27.771135
                    ],
                    [
                        -82.673918,
                        27.771135
                    ]
                ]
            },
            "bbox": [
                -82.673918,
                27.771135,
                -82.669447,
                27.771158
            ]
        },
        {
            "type": "Feature",
            "properties": {},
            "geometry": {
                "type": "Point",
                "coordinates": [
                    -82.673944,
                    27.771142
                ]
            },
            "bbox": [
                -82.673944,
                27.771142,
                -82.673944,
                27.771142
            ]
        },
        {
            "type": "Feature",
            "properties": {},
            "geometry": {
                "type": "LineString",
                "coordinates": [
                    [
                        -82.673944,
                        27.771142
                    ],
                    [
                        -82.673914,
                        27.770993
                    ],
                    [
                        -82.673914,
                        27.770669
                    ]
                ]
            },
            "bbox": [
                -82.673944,
                27.770669,
                -82.673914,
                27.771142
            ]
        },
        {
            "type": "Feature",
            "properties": {},
            "geometry": {
                "type": "Point",
                "coordinates": [
                    -82.673911,
                    27.770666
                ]
            },
            "bbox": [
                -82.673911,
                27.770666,
                -82.673911,
                27.770666
            ]
        },
        {
            "type": "Feature",
            "properties": {},
            "geometry": {
                "type": "LineString",
                "coordinates": [
                    [
                        -82.673916,
                        27.770675
                    ],
                    [
                        -82.673905,
                        27.770568
                    ],
                    [
                        -82.670513,
                        27.770608
                    ]
                ]
            },
            "bbox": [
                -82.673916,
                27.770568,
                -82.670513,
                27.770675
            ]
        },
        {
            "type": "Feature",
            "properties": {},
            "geometry": {
                "type": "Point",
                "coordinates": [
                    -82.67052,
                    27.770614
                ]
            },
            "bbox": [
                -82.67052,
                27.770614,
                -82.67052,
                27.770614
            ]
        },
        {
            "type": "Feature",
            "properties": {},
            "geometry": {
                "type": "LineString",
                "coordinates": [
                    [
                        -82.670531,
                        27.77062
                    ],
                    [
                        -82.669953,
                        27.770611
                    ],
                    [
                        -82.669953,
                        27.770899
                    ],
                    [
                        -82.669496,
                        27.770896
                    ],
                    [
                        -82.66719,
                        27.770914
                    ],
                    [
                        -82.665794,
                        27.770915
                    ],
                    [
                        -82.66574,
                        27.770911
                    ],
                    [
                        -82.665693,
                        27.77094
                    ],
                    [
                        -82.665551,
                        27.770921
                    ],
                    [
                        -82.665438,
                        27.770921
                    ]
                ]
            },
            "bbox": [
                -82.670531,
                27.770611,
                -82.665438,
                27.77094
            ]
        },
        {
            "type": "Feature",
            "properties": {},
            "geometry": {
                "type": "Point",
                "coordinates": [
                    -82.665438,
                    27.770921
                ]
            },
            "bbox": [
                -82.665438,
                27.770921,
                -82.665438,
                27.770921
            ]
        },
        {
            "type": "Feature",
            "properties": {},
            "geometry": {
                "type": "LineString",
                "coordinates": [
                    [
                        -82.665442,
                        27.77093
                    ],
                    [
                        -82.66455,
                        27.77094
                    ],
                    [
                        -82.663079,
                        27.770937
                    ],
                    [
                        -82.661633,
                        27.770934
                    ],
                    [
                        -82.661553,
                        27.77094
                    ],
                    [
                        -82.66156,
                        27.771343
                    ]
                ]
            },
            "bbox": [
                -82.665442,
                27.77093,
                -82.661553,
                27.771343
            ]
        }
    ]
}