<?xml version="1.0" encoding="UTF-8"?>
<kml xmlns="http://www.opengis.net/kml/2.2">
  <Document>
    <name>Untitled map</name>
    <description/>
    <Style id="icon-1899-DB4436-nodesc-normal">
      <IconStyle>
        <color>ff3644db</color>
        <scale>1</scale>
        <Icon>
          <href>https://www.gstatic.com/mapspro/images/stock/503-wht-blank_maps.png</href>
        </Icon>
        <hotSpot x="32" xunits="pixels" y="64" yunits="insetPixels"/>
      </IconStyle>
      <LabelStyle>
        <scale>0</scale>
      </LabelStyle>
      <BalloonStyle>
        <text><![CDATA[<h3>$[name]</h3>]]></text>
      </BalloonStyle>
    </Style>
    <Style id="icon-1899-DB4436-nodesc-highlight">
      <IconStyle>
        <color>ff3644db</color>
        <scale>1</scale>
        <Icon>
          <href>https://www.gstatic.com/mapspro/images/stock/503-wht-blank_maps.png</href>
        </Icon>
        <hotSpot x="32" xunits="pixels" y="64" yunits="insetPixels"/>
      </IconStyle>
      <LabelStyle>
        <scale>1</scale>
      </LabelStyle>
      <BalloonStyle>
        <text><![CDATA[<h3>$[name]</h3>]]></text>
      </BalloonStyle>
    </Style>
    <StyleMap id="icon-1899-DB4436-nodesc">
      <Pair>
        <key>normal</key>
        <styleUrl>#icon-1899-DB4436-nodesc-normal</styleUrl>
      </Pair>
      <Pair>
        <key>highlight</key>
        <styleUrl>#icon-1899-DB4436-nodesc-highlight</styleUrl>
      </Pair>
    </StyleMap>
    <Style id="line-1267FF-5000-nodesc-normal">
      <LineStyle>
        <color>ffff6712</color>
        <width>5</width>
      </LineStyle>
      <BalloonStyle>
        <text><![CDATA[<h3>$[name]</h3>]]></text>
      </BalloonStyle>
    </Style>
    <Style id="line-1267FF-5000-nodesc-highlight">
      <LineStyle>
        <color>ffff6712</color>
        <width>7.5</width>
      </LineStyle>
      <BalloonStyle>
        <text><![CDATA[<h3>$[name]</h3>]]></text>
      </BalloonStyle>
    </Style>
    <StyleMap id="line-1267FF-5000-nodesc">
      <Pair>
        <key>normal</key>
        <styleUrl>#line-1267FF-5000-nodesc-normal</styleUrl>
      </Pair>
      <Pair>
        <key>highlight</key>
        <styleUrl>#line-1267FF-5000-nodesc-highlight</styleUrl>
      </Pair>
    </StyleMap>
    <Folder>
      <name>Chna bike tour</name>
      <Placemark>
        <name>Chna bike tour</name>
        <styleUrl>#line-1267FF-5000-nodesc</styleUrl>
        <LineString>
          <tessellate>1</tessellate>
          <coordinates>
            -82.6389,27.79212,0
            -82.63903,27.79212,0
            -82.63912,27.79212,0
            -82.63918,27.79212,0
            -82.63924,27.79212,0
            -82.63939,27.79212,0
            -82.63947,27.79212,0
            -82.63957,27.79211,0
            -82.6396,27.79211,0
            -82.63963,27.79211,0
            -82.63966,27.79211,0
            -82.63997,27.79211,0
            -82.64009,27.79211,0
            -82.64021,27.79211,0
            -82.64048,27.79211,0
            -82.64059,27.79211,0
            -82.64069,27.79211,0
            -82.64072,27.79211,0
            -82.64121,27.79211,0
            -82.64141,27.79211,0
            -82.64162,27.79211,0
            -82.64199,27.79211,0
            -82.64203,27.79211,0
            -82.64212,27.7921,0
            -82.64258,27.7921,0
            -82.64263,27.79214,0
            -82.64263,27.79207,0
            -82.64263,27.79177,0
            -82.64263,27.7917,0
            -82.64263,27.79164,0
            -82.64263,27.79137,0
            -82.64263,27.79131,0
            -82.64263,27.79092,0
            -82.64263,27.79086,0
            -82.64263,27.79064,0
            -82.64263,27.79059,0
            -82.64264,27.79051,0
            -82.64264,27.79047,0
            -82.64263,27.79046,0
            -82.64262,27.79043,0
            -82.64262,27.79041,0
            -82.64259,27.79033,0
            -82.64257,27.79029,0
            -82.64256,27.79024,0
            -82.64256,27.7902,0
            -82.64255,27.79016,0
            -82.64255,27.79014,0
            -82.64255,27.79011,0
            -82.64254,27.78978,0
            -82.64254,27.78976,0
            -82.64254,27.7897,0
            -82.64254,27.78962,0
            -82.64253,27.78918,0
            -82.64253,27.78895,0
            -82.64253,27.78886,0
            -82.64253,27.78879,0
            -82.64253,27.78852,0
            -82.64253,27.78847,0
            -82.64253,27.78803,0
            -82.64253,27.78796,0
            -82.64253,27.78791,0
            -82.64253,27.7878,0
            -82.64253,27.78779,0
            -82.64253,27.78774,0
            -82.64253,27.7877,0
            -82.64254,27.78766,0
            -82.64256,27.7876,0
            -82.64257,27.78754,0
            -82.64259,27.78747,0
            -82.64261,27.78741,0
            -82.64262,27.78737,0
            -82.64267,27.78725,0
            -82.64269,27.78719,0
            -82.6427,27.78717,0
            -82.64273,27.78712,0
            -82.64276,27.78706,0
            -82.6428,27.78699,0
            -82.64281,27.78698,0
            -82.64301,27.78668,0
            -82.64304,27.78664,0
            -82.64309,27.78656,0
            -82.64313,27.78649,0
            -82.64315,27.78646,0
            -82.64317,27.78641,0
            -82.64318,27.78636,0
            -82.6432,27.78628,0
            -82.64321,27.78625,0
            -82.64321,27.78624,0
            -82.64322,27.78623,0
            -82.64322,27.7862,0
            -82.64323,27.78616,0
            -82.64323,27.78607,0
            -82.64323,27.78601,0
            -82.64321,27.78592,0
            -82.6432,27.78586,0
            -82.6432,27.78583,0
            -82.64318,27.78578,0
            -82.64317,27.78572,0
            -82.64316,27.7857,0
            -82.64314,27.78567,0
            -82.64312,27.78565,0
            -82.64309,27.78559,0
            -82.64303,27.78549,0
            -82.64301,27.78546,0
            -82.64299,27.78542,0
            -82.64296,27.78536,0
            -82.64295,27.78532,0
            -82.64293,27.78526,0
            -82.64292,27.78521,0
            -82.64292,27.78512,0
            -82.64294,27.78503,0
            -82.64295,27.785,0
            -82.64299,27.78492,0
            -82.64304,27.78484,0
            -82.64305,27.78484,0
            -82.64306,27.78482,0
            -82.64315,27.78467,0
            -82.64326,27.7845,0
            -82.64333,27.78438,0
            -82.64339,27.78429,0
            -82.64345,27.78419,0
            -82.64352,27.78407,0
            -82.64354,27.78403,0
            -82.64356,27.784,0
            -82.64359,27.78393,0
            -82.64361,27.78382,0
            -82.64361,27.78374,0
            -82.64362,27.78366,0
            -82.64362,27.78358,0
            -82.64362,27.78312,0
            -82.64362,27.78306,0
            -82.64361,27.7828,0
            -82.64312,27.78295,0
            -82.64303,27.78297,0
            -82.64295,27.783,0
            -82.64286,27.78302,0
            -82.6428,27.78303,0
            -82.64277,27.78304,0
            -82.64271,27.78305,0
            -82.64268,27.78305,0
            -82.64262,27.78306,0
            -82.64259,27.78307,0
            -82.64253,27.78307,0
            -82.64232,27.78308,0
            -82.64222,27.78308,0
            -82.64213,27.78308,0
            -82.64189,27.78308,0
            -82.64184,27.78308,0
            -82.64184,27.78299,0
            -82.64184,27.78235,0
            -82.64184,27.78176,0
            -82.64185,27.7813,0
            -82.64185,27.78119,0
            -82.64182,27.78119,0
            -82.64181,27.7812,0
            -82.64169,27.7812,0
            -82.6416,27.7812,0
            -82.6416,27.78111,0
            -82.6416,27.78106,0
            -82.6416,27.78105,0
            -82.6416,27.78031,0
            -82.64159,27.77949,0
            -82.64159,27.77941,0
            -82.64159,27.77915,0
            -82.64159,27.77908,0
            -82.64159,27.77899,0
            -82.64159,27.77874,0
            -82.64159,27.77866,0
            -82.64109,27.77866,0
            -82.641,27.77866,0
            -82.64067,27.77867,0
            -82.64059,27.77867,0
            -82.64049,27.77867,0
            -82.64038,27.77866,0
            -82.64035,27.77866,0
            -82.64032,27.77865,0
            -82.64029,27.77865,0
            -82.64027,27.77864,0
            -82.6401,27.77859,0
            -82.64006,27.77857,0
            -82.64003,27.77856,0
            -82.63999,27.77855,0
            -82.63994,27.77853,0
            -82.63989,27.77852,0
            -82.63977,27.77851,0
            -82.6397,27.77852,0
            -82.63964,27.77852,0
            -82.63958,27.77853,0
            -82.63958,27.77845,0
            -82.63958,27.77844,0
            -82.63958,27.77767,0
            -82.63958,27.77756,0
            -82.63966,27.77757,0
            -82.63978,27.77757,0
            -82.63984,27.77757,0
            -82.63993,27.77757,0
            -82.64004,27.77757,0
            -82.64019,27.77757,0
            -82.64019,27.77747,0
            -82.64019,27.77744,0
            -82.64019,27.77739,0
            -82.64019,27.77733,0
            -82.64019,27.77718,0
            -82.64019,27.77707,0
            -82.63983,27.77708,0
            -82.63937,27.77708,0
            -82.63932,27.77708,0
            -82.63924,27.77708,0
            -82.63872,27.77708,0
            -82.63871,27.7768,0
            -82.63871,27.77679,0
            -82.63871,27.77678,0
            -82.6387,27.77678,0
            -82.63871,27.77678,0
            -82.63871,27.77679,0
            -82.63871,27.7768,0
            -82.63872,27.77708,0
            -82.63859,27.77709,0
            -82.63853,27.77709,0
            -82.638,27.77709,0
            -82.63779,27.77709,0
            -82.63778,27.77709,0
            -82.63768,27.77709,0
            -82.63762,27.77709,0
            -82.63725,27.77709,0
            -82.63711,27.77709,0
            -82.63701,27.7771,0
            -82.63692,27.7771,0
            -82.63689,27.7771,0
            -82.6367,27.7771,0
            -82.63669,27.7771,0
            -82.63669,27.7772,0
            -82.63669,27.77728,0
            -82.63669,27.7772,0
            -82.63669,27.7771,0
            -82.6364,27.7771,0
            -82.63631,27.7771,0
            -82.63599,27.7771,0
            -82.63596,27.7771,0
            -82.63578,27.7771,0
            -82.63558,27.7771,0
            -82.63558,27.77681,0
            -82.63558,27.77655,0
            -82.63558,27.77639,0
            -82.63558,27.77589,0
            -82.63558,27.77584,0
            -82.63558,27.77576,0
            -82.63558,27.77568,0
            -82.63559,27.77559,0
            -82.6356,27.7754,0
            -82.6356,27.77511,0
            -82.63559,27.77504,0
            -82.63559,27.77495,0
            -82.63558,27.77476,0
            -82.63558,27.7746,0
            -82.63557,27.77452,0
            -82.63557,27.77444,0
            -82.63557,27.77435,0
            -82.63557,27.77432,0
            -82.63557,27.77424,0
            -82.63569,27.77424,0
            -82.63591,27.77424,0
            -82.63597,27.77424,0
            -82.63611,27.77424,0
            -82.63621,27.77424,0
            -82.63624,27.77424,0
            -82.63642,27.77424,0
            -82.63642,27.77415,0
            -82.63642,27.77414,0
            -82.63642,27.77375,0
            -82.63641,27.77353,0
            -82.63666,27.77353,0
            -82.6371,27.77352,0
            -82.63728,27.77352,0
            -82.63726,27.7734,0
            -82.63726,27.77336,0
            -82.63726,27.77331,0
            -82.63733,27.77319,0
            -82.63737,27.77312,0
            -82.63744,27.77299,0
            -82.63748,27.77292,0
            -82.63755,27.77281,0
            -82.63759,27.77276,0
            -82.6376,27.77275,0
            -82.63762,27.77273,0
            -82.63761,27.77272,0
            -82.6376,27.77271,0
            -82.63762,27.77269,0
            -82.63764,27.77266,0
            -82.63766,27.77262,0
            -82.63767,27.77261,0
            -82.63768,27.7726,0
            -82.63768,27.77257,0
            -82.63767,27.77256,0
            -82.63766,27.77253,0
            -82.63767,27.77253,0
            -82.63769,27.77252,0
            -82.63772,27.77245,0
            -82.63773,27.77242,0
            -82.63773,27.7724,0
            -82.63774,27.7724,0
            -82.63774,27.77239,0
            -82.63776,27.77238,0
            -82.63777,27.77237,0
            -82.63778,27.77237,0
            -82.63779,27.77237,0
            -82.6378,27.77237,0
            -82.63781,27.77237,0
            -82.63782,27.77237,0
            -82.63782,27.77236,0
            -82.63783,27.77235,0
            -82.63784,27.77232,0
            -82.63786,27.77228,0
            -82.63789,27.77223,0
            -82.63791,27.7722,0
            -82.63792,27.77217,0
            -82.63795,27.77206,0
            -82.63812,27.77206,0
            -82.6383,27.77206,0
            -82.63835,27.77206,0
            -82.63845,27.77206,0
            -82.6385,27.77206,0
            -82.63869,27.77207,0
            -82.63895,27.77207,0
            -82.63897,27.77207,0
            -82.63949,27.77207,0
            -82.63954,27.77207,0
            -82.63969,27.77207,0
            -82.63986,27.77208,0
            -82.63992,27.77208,0
            -82.64001,27.77208,0
            -82.64019,27.77207,0
            -82.64035,27.77207,0
            -82.64039,27.77207,0
            -82.64044,27.77207,0
            -82.64047,27.77207,0
            -82.6405,27.77207,0
            -82.64072,27.77206,0
            -82.64075,27.77206,0
            -82.64078,27.77206,0
            -82.64086,27.77206,0
            -82.64097,27.77206,0
            -82.64174,27.77206,0
            -82.6424,27.77206,0
            -82.64264,27.77206,0
            -82.64263,27.77168,0
            -82.64263,27.77162,0
            -82.64286,27.77163,0
            -82.64305,27.77163,0
            -82.64328,27.77164,0
            -82.64349,27.77164,0
            -82.64392,27.77163,0
            -82.64393,27.77205,0
            -82.64393,27.77231,0
            -82.64393,27.77237,0
            -82.64349,27.77237,0
            -82.6435,27.77242,0
            -82.64351,27.77251,0
            -82.64351,27.77255,0
            -82.64352,27.7726,0
            -82.64356,27.77259,0
            -82.64357,27.77259,0
            -82.64361,27.77258,0
            -82.64366,27.77257,0
            -82.64368,27.77257,0
            -82.64378,27.77256,0
            -82.64384,27.77255,0
            -82.64389,27.77255,0
            -82.64393,27.77255,0
            -82.64402,27.77255,0
            -82.64417,27.77255,0
            -82.64426,27.77254,0
            -82.64462,27.77254,0
            -82.64465,27.77254,0
            -82.64468,27.77254,0
            -82.64483,27.77254,0
            -82.64499,27.77254,0
            -82.64505,27.77254,0
            -82.6451,27.77254,0
            -82.64575,27.77254,0
            -82.64626,27.77254,0
            -82.64639,27.77253,0
            -82.64666,27.77253,0
            -82.64689,27.77253,0
            -82.6469,27.77253,0
            -82.64695,27.77253,0
            -82.64703,27.77253,0
            -82.64709,27.77253,0
            -82.64712,27.77253,0
            -82.64718,27.77253,0
            -82.64718,27.77243,0
            -82.64718,27.77213,0
            -82.64718,27.77202,0
            -82.64768,27.77202,0
            -82.64799,27.77202,0
            -82.64814,27.77202,0
            -82.6484,27.77202,0
            -82.64863,27.77202,0
            -82.64881,27.77202,0
            -82.64929,27.77201,0
            -82.64957,27.77201,0
            -82.64958,27.77201,0
            -82.64961,27.77201,0
            -82.64977,27.77201,0
            -82.64977,27.77214,0
            -82.64976,27.77238,0
            -82.64976,27.77252,0
            -82.64982,27.77252,0
            -82.64994,27.77252,0
            -82.65003,27.77251,0
            -82.65005,27.77251,0
            -82.65012,27.77251,0
            -82.65021,27.77251,0
            -82.6503,27.77251,0
            -82.65039,27.77251,0
            -82.65048,27.77251,0
            -82.6507,27.77251,0
            -82.6508,27.77251,0
            -82.65089,27.77251,0
            -82.65104,27.77251,0
            -82.65113,27.77251,0
            -82.65129,27.77251,0
            -82.65176,27.7725,0
            -82.65176,27.7724,0
            -82.65176,27.77217,0
            -82.65176,27.77216,0
            -82.65176,27.77214,0
            -82.65176,27.77211,0
            -82.65176,27.77201,0
            -82.65176,27.77194,0
            -82.65175,27.77181,0
            -82.65175,27.7716,0
            -82.65175,27.77148,0
            -82.65175,27.77134,0
            -82.65175,27.77131,0
            -82.65175,27.77126,0
            -82.65175,27.77113,0
            -82.65192,27.77112,0
            -82.65208,27.77112,0
            -82.65221,27.77112,0
            -82.65238,27.77112,0
            -82.6525,27.77112,0
            -82.65269,27.77112,0
            -82.65289,27.77111,0
            -82.65296,27.77111,0
            -82.65304,27.77111,0
            -82.65333,27.77111,0
            -82.65353,27.77111,0
            -82.65377,27.77111,0
            -82.65406,27.7711,0
            -82.65418,27.7711,0
            -82.65431,27.7711,0
            -82.65446,27.7711,0
            -82.65449,27.7711,0
            -82.65462,27.7711,0
            -82.65484,27.77109,0
            -82.65501,27.77109,0
            -82.65502,27.77109,0
            -82.65504,27.77109,0
            -82.65534,27.77109,0
            -82.65553,27.77108,0
            -82.65608,27.77109,0
            -82.6561,27.77109,0
            -82.65617,27.77109,0
            -82.65632,27.77109,0
            -82.65632,27.77095,0
            -82.65632,27.77073,0
            -82.65632,27.77065,0
            -82.65631,27.7706,0
            -82.65631,27.77057,0
            -82.65631,27.77044,0
            -82.65631,27.77038,0
            -82.65631,27.77036,0
            -82.65631,27.77035,0
            -82.65631,27.77033,0
            -82.65631,27.77032,0
            -82.65631,27.7702,0
            -82.65632,27.77007,0
            -82.65632,27.76983,0
            -82.65632,27.76976,0
            -82.65631,27.7693,0
            -82.65636,27.7693,0
            -82.65671,27.7693,0
            -82.65691,27.76931,0
            -82.65711,27.76931,0
            -82.6573,27.76931,0
            -82.6575,27.76931,0
            -82.65766,27.76932,0
            -82.6577,27.76932,0
            -82.65776,27.76932,0
            -82.65781,27.76933,0
            -82.65784,27.76933,0
            -82.65785,27.76934,0
            -82.6579,27.76934,0
            -82.65802,27.76935,0
            -82.65804,27.76935,0
            -82.65807,27.76934,0
            -82.65822,27.76933,0
            -82.65824,27.76933,0
            -82.65831,27.76932,0
            -82.65838,27.76931,0
            -82.6584,27.76931,0
            -82.65845,27.7693,0
            -82.65851,27.76928,0
            -82.65868,27.76924,0
            -82.65891,27.76917,0
            -82.65916,27.76908,0
            -82.65928,27.76904,0
            -82.6594,27.76899,0
            -82.65947,27.76896,0
            -82.65963,27.76889,0
            -82.65965,27.76889,0
            -82.65969,27.76887,0
            -82.65975,27.76884,0
            -82.65981,27.76882,0
            -82.65987,27.76878,0
            -82.65993,27.76875,0
            -82.65997,27.76873,0
            -82.66023,27.76856,0
            -82.66027,27.76854,0
            -82.66031,27.76851,0
            -82.66041,27.76843,0
            -82.6605,27.76836,0
            -82.66054,27.76834,0
            -82.66058,27.76831,0
            -82.66096,27.76804,0
            -82.66099,27.76802,0
            -82.66112,27.76793,0
            -82.66131,27.76779,0
            -82.66153,27.7676,0
            -82.6616,27.76755,0
            -82.6616,27.76754,0
            -82.66177,27.76739,0
            -82.66193,27.76728,0
            -82.66228,27.76703,0
            -82.66235,27.76698,0
            -82.66252,27.76687,0
            -82.66258,27.76684,0
            -82.66263,27.76681,0
            -82.66267,27.7668,0
            -82.66276,27.76675,0
            -82.66285,27.76669,0
            -82.66291,27.76663,0
            -82.66302,27.76654,0
            -82.66318,27.76645,0
            -82.66332,27.76636,0
            -82.66344,27.76627,0
            -82.6636,27.76616,0
            -82.66381,27.76601,0
            -82.66436,27.76562,0
            -82.66512,27.76509,0
            -82.66529,27.76497,0
            -82.66573,27.76466,0
            -82.66578,27.76462,0
            -82.66583,27.76459,0
            -82.66589,27.76454,0
            -82.666,27.76446,0
            -82.66604,27.76444,0
            -82.6666,27.76404,0
            -82.66684,27.76387,0
            -82.667,27.76375,0
            -82.66715,27.76364,0
            -82.66734,27.76352,0
            -82.66755,27.76339,0
            -82.66787,27.76321,0
            -82.66818,27.76308,0
            -82.66847,27.76298,0
            -82.66886,27.76287,0
            -82.66914,27.76282,0
            -82.66919,27.76281,0
            -82.66945,27.76278,0
            -82.66978,27.76277,0
            -82.67014,27.76276,0
            -82.67035,27.76276,0
            -82.67116,27.76276,0
            -82.67197,27.76275,0
            -82.67217,27.76275,0
            -82.67224,27.76275,0
            -82.67258,27.76275,0
            -82.67299,27.76275,0
            -82.67319,27.76276,0
            -82.67442,27.76276,0
            -82.67526,27.76275,0
            -82.67526,27.76276,0
            -82.67526,27.76277,0
            -82.67526,27.76281,0
            -82.67526,27.76284,0
            -82.67527,27.76289,0
            -82.67528,27.76294,0
            -82.67528,27.76297,0
            -82.67528,27.763,0
            -82.67528,27.7631,0
            -82.67528,27.76312,0
            -82.67528,27.76313,0
            -82.67528,27.76317,0
            -82.67529,27.7632,0
            -82.6753,27.76329,0
            -82.67531,27.76332,0
            -82.67531,27.76334,0
            -82.67531,27.76348,0
            -82.67531,27.76359,0
            -82.67512,27.76359,0
            -82.67489,27.76359,0
            -82.67388,27.76359,0
            -82.67388,27.76324,0
            -82.67388,27.76289,0
            -82.67352,27.76288,0
            -82.67346,27.76288,0
            -82.67341,27.76288,0
            -82.67335,27.76288,0
            -82.67329,27.76288,0
            -82.67312,27.76288,0
            -82.67235,27.76288,0
            -82.67196,27.76288,0
            -82.67189,27.76288,0
            -82.67182,27.76288,0
            -82.67171,27.76289,0
            -82.67164,27.76289,0
            -82.67159,27.76289,0
            -82.67116,27.7629,0
            -82.67116,27.76294,0
            -82.67075,27.76294,0
            -82.67071,27.76294,0
            -82.6704,27.76294,0
            -82.67024,27.76294,0
            -82.67018,27.76294,0
            -82.67009,27.76294,0
            -82.67,27.76295,0
            -82.66989,27.76295,0
            -82.66965,27.76297,0
            -82.66948,27.76297,0
            -82.66931,27.763,0
            -82.66915,27.76305,0
            -82.66902,27.76308,0
            -82.66898,27.76309,0
            -82.66892,27.76311,0
            -82.66898,27.76309,0
            -82.66902,27.76308,0
            -82.66915,27.76305,0
            -82.66931,27.763,0
            -82.66948,27.76297,0
            -82.66965,27.76297,0
            -82.66989,27.76295,0
            -82.67,27.76295,0
            -82.67009,27.76294,0
            -82.67018,27.76294,0
            -82.67024,27.76294,0
            -82.6704,27.76294,0
            -82.67071,27.76294,0
            -82.67075,27.76294,0
            -82.67116,27.76294,0
            -82.67116,27.7629,0
            -82.67116,27.76276,0
            -82.67035,27.76276,0
            -82.67014,27.76276,0
            -82.66978,27.76277,0
            -82.66945,27.76278,0
            -82.66919,27.76281,0
            -82.66914,27.76282,0
            -82.66886,27.76287,0
            -82.66847,27.76298,0
            -82.66818,27.76308,0
            -82.66791,27.7632,0
          </coordinates>
        </LineString>
      </Placemark>
      <Placemark>
        <name>2116 4th St N, St. Petersburg, FL 33704, USA</name>
        <styleUrl>#icon-1899-DB4436-nodesc</styleUrl>
        <Point>
          <coordinates>
            -82.6389042,27.7921152,0
          </coordinates>
        </Point>
      </Placemark>
      <Placemark>
        <name>445 5th St N, St. Petersburg, FL 33701, USA</name>
        <styleUrl>#icon-1899-DB4436-nodesc</styleUrl>
        <Point>
          <coordinates>
            -82.6401908,27.7774659,0
          </coordinates>
        </Point>
      </Placemark>
      <Placemark>
        <name>400 4th St N, St. Petersburg, FL 33701, USA</name>
        <styleUrl>#icon-1899-DB4436-nodesc</styleUrl>
        <Point>
          <coordinates>
            -82.6387013,27.7767778,0
          </coordinates>
        </Point>
      </Placemark>
      <Placemark>
        <name>226 5th Ave N, St. Petersburg, FL 33701, USA</name>
        <styleUrl>#icon-1899-DB4436-nodesc</styleUrl>
        <Point>
          <coordinates>
            -82.636693,27.7772777,0
          </coordinates>
        </Point>
      </Placemark>
      <Placemark>
        <name>649 Central Ave, St. Petersburg, FL 33701, USA</name>
        <styleUrl>#icon-1899-DB4436-nodesc</styleUrl>
        <Point>
          <coordinates>
            -82.6426347,27.7716765,0
          </coordinates>
        </Point>
      </Placemark>
      <Placemark>
        <name>694 Arlington Ave N, St. Petersburg, FL 33701, USA</name>
        <styleUrl>#icon-1899-DB4436-nodesc</styleUrl>
        <Point>
          <coordinates>
            -82.6435099,27.7725079,0
          </coordinates>
        </Point>
      </Placemark>
      <Placemark>
        <name>1101 Arlington Ave N, St. Petersburg, FL 33705, USA</name>
        <styleUrl>#icon-1899-DB4436-nodesc</styleUrl>
        <Point>
          <coordinates>
            -82.6500548,27.7725147,0
          </coordinates>
        </Point>
      </Placemark>
      <Placemark>
        <name>2534 Terminal Dr S, St. Petersburg, FL 33712, USA</name>
        <styleUrl>#icon-1899-DB4436-nodesc</styleUrl>
        <Point>
          <coordinates>
            -82.6679052,27.7631966,0
          </coordinates>
        </Point>
      </Placemark>
    </Folder>
  </Document>
</kml>
