{
    "type": "FeatureCollection",
    "features": [
        {
            "type": "Feature",
            "properties": {},
            "geometry": {
                "type": "Point",
                "coordinates": [
                    -82.639014,
                    27.791965
                ]
            },
            "bbox": [
                -82.639014,
                27.791965,
                -82.639014,
                27.791965
            ]
        },
        {
            "type": "Feature",
            "properties": {},
            "geometry": {
                "type": "LineString",
                "coordinates": [
                    [
                        -82.639023,
                        27.79197
                    ],
                    [
                        -82.639179,
                        27.79197
                    ],
                    [
                        -82.639271,
                        27.792038
                    ],
                    [
                        -82.639911,
                        27.792042
                    ],
                    [
                        -82.640047,
                        27.792046
                    ],
                    [
                        -82.640423,
                        27.792023
                    ],
                    [
                        -82.641056,
                        27.792023
                    ],
                    [
                        -82.641419,
                        27.79203
                    ],
                    [
                        -82.641521,
                        27.792028
                    ],
                    [
                        -82.641592,
                        27.792028
                    ],
                    [
                        -82.64234,
                        27.792019
                    ],
                    [
                        -82.64258,
                        27.792023
                    ],
                    [
                        -82.642613,
                        27.792019
                    ],
                    [
                        -82.642613,
                        27.791186
                    ],
                    [
                        -82.642608,
                        27.790479
                    ],
                    [
                        -82.642594,
                        27.790352
                    ],
                    [
                        -82.642554,
                        27.790265
                    ],
                    [
                        -82.642527,
                        27.790082
                    ],
                    [
                        -82.642514,
                        27.789864
                    ],
                    [
                        -82.642523,
                        27.789278
                    ],
                    [
                        -82.642518,
                        27.78775
                    ],
                    [
                        -82.642581,
                        27.787485
                    ],
                    [
                        -82.642738,
                        27.787093
                    ],
                    [
                        -82.643004,
                        27.786667
                    ],
                    [
                        -82.643251,
                        27.786231
                    ],
                    [
                        -82.643278,
                        27.785985
                    ],
                    [
                        -82.643193,
                        27.785783
                    ],
                    [
                        -82.643081,
                        27.785609
                    ],
                    [
                        -82.642932,
                        27.785337
                    ],
                    [
                        -82.642914,
                        27.785175
                    ],
                    [
                        -82.643048,
                        27.78481
                    ],
                    [
                        -82.643272,
                        27.78443
                    ],
                    [
                        -82.643532,
                        27.783998
                    ],
                    [
                        -82.643622,
                        27.783764
                    ],
                    [
                        -82.643608,
                        27.78332
                    ],
                    [
                        -82.643613,
                        27.780375
                    ],
                    [
                        -82.643631,
                        27.779436
                    ],
                    [
                        -82.6434,
                        27.779409
                    ],
                    [
                        -82.643012,
                        27.779409
                    ],
                    [
                        -82.642737,
                        27.779429
                    ],
                    [
                        -82.642506,
                        27.779475
                    ],
                    [
                        -82.641649,
                        27.779468
                    ],
                    [
                        -82.641603,
                        27.77947
                    ],
                    [
                        -82.641591,
                        27.777789
                    ],
                    [
                        -82.641591,
                        27.777654
                    ],
                    [
                        -82.641578,
                        27.777639
                    ],
                    [
                        -82.641546,
                        27.777635
                    ],
                    [
                        -82.641509,
                        27.777632
                    ],
                    [
                        -82.641507,
                        27.777465
                    ],
                    [
                        -82.640923,
                        27.777459
                    ],
                    [
                        -82.640241,
                        27.777454
                    ],
                    [
                        -82.640238,
                        27.77696
                    ],
                    [
                        -82.639832,
                        27.777048
                    ],
                    [
                        -82.639705,
                        27.777072
                    ],
                    [
                        -82.638803,
                        27.777064
                    ],
                    [
                        -82.638763,
                        27.777029
                    ],
                    [
                        -82.638766,
                        27.776795
                    ],
                    [
                        -82.638766,
                        27.776795
                    ]
                ]
            },
            "bbox": [
                -82.643631,
                27.776795,
                -82.638763,
                27.792046
            ]
        },
        {
            "type": "Feature",
            "properties": {},
            "geometry": {
                "type": "Point",
                "coordinates": [
                    -82.638776,
                    27.776795
                ]
            },
            "bbox": [
                -82.638776,
                27.776795,
                -82.638776,
                27.776795
            ]
        },
        {
            "type": "Feature",
            "properties": {},
            "geometry": {
                "type": "LineString",
                "coordinates": [
                    [
                        -82.638775,
                        27.776797
                    ],
                    [
                        -82.638713,
                        27.776794
                    ],
                    [
                        -82.638712,
                        27.777077
                    ]
                ]
            },
            "bbox": [
                -82.638775,
                27.776794,
                -82.638712,
                27.777077
            ]
        },
        {
            "type": "Feature",
            "properties": {},
            "geometry": {
                "type": "Point",
                "coordinates": [
                    -82.638716,
                    27.777067
                ]
            },
            "bbox": [
                -82.638716,
                27.777067,
                -82.638716,
                27.777067
            ]
        },
        {
            "type": "Feature",
            "properties": {},
            "geometry": {
                "type": "LineString",
                "coordinates": [
                    [
                        -82.63872,
                        27.777073
                    ],
                    [
                        -82.636888,
                        27.777099
                    ],
                    [
                        -82.636838,
                        27.777308
                    ],
                    [
                        -82.636838,
                        27.777308
                    ]
                ]
            },
            "bbox": [
                -82.63872,
                27.777073,
                -82.636838,
                27.777308
            ]
        },
        {
            "type": "Feature",
            "properties": {},
            "geometry": {
                "type": "Point",
                "coordinates": [
                    -82.636847,
                    27.777309
                ]
            },
            "bbox": [
                -82.636847,
                27.777309,
                -82.636847,
                27.777309
            ]
        },
        {
            "type": "Feature",
            "properties": {},
            "geometry": {
                "type": "LineString",
                "coordinates": [
                    [
                        -82.636844,
                        27.777314
                    ],
                    [
                        -82.636841,
                        27.77748
                    ],
                    [
                        -82.635621,
                        27.777495
                    ],
                    [
                        -82.635624,
                        27.776959
                    ],
                    [
                        -82.635642,
                        27.775123
                    ],
                    [
                        -82.635652,
                        27.774227
                    ],
                    [
                        -82.635682,
                        27.77364
                    ],
                    [
                        -82.636255,
                        27.773634
                    ],
                    [
                        -82.636255,
                        27.773634
                    ]
                ]
            },
            "bbox": [
                -82.636844,
                27.773634,
                -82.635621,
                27.777495
            ]
        },
        {
            "type": "Feature",
            "properties": {},
            "geometry": {
                "type": "Point",
                "coordinates": [
                    -82.636265,
                    27.773643
                ]
            },
            "bbox": [
                -82.636265,
                27.773643,
                -82.636265,
                27.773643
            ]
        },
        {
            "type": "Feature",
            "properties": {},
            "geometry": {
                "type": "LineString",
                "coordinates": [
                    [
                        -82.636294,
                        27.773649
                    ],
                    [
                        -82.636382,
                        27.773652
                    ],
                    [
                        -82.636396,
                        27.773982
                    ],
                    [
                        -82.636396,
                        27.773982
                    ]
                ]
            },
            "bbox": [
                -82.636396,
                27.773649,
                -82.636294,
                27.773982
            ]
        },
        {
            "type": "Feature",
            "properties": {},
            "geometry": {
                "type": "Point",
                "coordinates": [
                    -82.636402,
                    27.773985
                ]
            },
            "bbox": [
                -82.636402,
                27.773985,
                -82.636402,
                27.773985
            ]
        },
        {
            "type": "Feature",
            "properties": {},
            "geometry": {
                "type": "LineString",
                "coordinates": [
                    [
                        -82.636419,
                        27.773991
                    ],
                    [
                        -82.636538,
                        27.773988
                    ],
                    [
                        -82.636413,
                        27.773622
                    ],
                    [
                        -82.637184,
                        27.773619
                    ],
                    [
                        -82.638918,
                        27.773544
                    ],
                    [
                        -82.640058,
                        27.773532
                    ],
                    [
                        -82.640803,
                        27.773538
                    ],
                    [
                        -82.641071,
                        27.773472
                    ],
                    [
                        -82.641474,
                        27.773188
                    ],
                    [
                        -82.641672,
                        27.773046
                    ],
                    [
                        -82.641818,
                        27.772959
                    ],
                    [
                        -82.641784,
                        27.772432
                    ],
                    [
                        -82.641808,
                        27.771635
                    ],
                    [
                        -82.642295,
                        27.771629
                    ]
                ]
            },
            "bbox": [
                -82.642295,
                27.771629,
                -82.636413,
                27.773991
            ]
        },
        {
            "type": "Feature",
            "properties": {},
            "geometry": {
                "type": "Point",
                "coordinates": [
                    -82.642302,
                    27.771644
                ]
            },
            "bbox": [
                -82.642302,
                27.771644,
                -82.642302,
                27.771644
            ]
        },
        {
            "type": "Feature",
            "properties": {},
            "geometry": {
                "type": "LineString",
                "coordinates": [
                    [
                        -82.642319,
                        27.77165
                    ],
                    [
                        -82.642427,
                        27.771788
                    ],
                    [
                        -82.642424,
                        27.771785
                    ]
                ]
            },
            "bbox": [
                -82.642427,
                27.77165,
                -82.642319,
                27.771788
            ]
        },
        {
            "type": "Feature",
            "properties": {},
            "geometry": {
                "type": "LineString",
                "coordinates": [
                    [
                        -82.642461,
                        27.771799
                    ],
                    [
                        -82.642458,
                        27.771799
                    ]
                ]
            },
            "bbox": [
                -82.642461,
                27.771799,
                -82.642458,
                27.771799
            ]
        },
        {
            "type": "Feature",
            "properties": {},
            "geometry": {
                "type": "Point",
                "coordinates": [
                    -82.642451,
                    27.771811
                ]
            },
            "bbox": [
                -82.642451,
                27.771811,
                -82.642451,
                27.771811
            ]
        },
        {
            "type": "Feature",
            "properties": {},
            "geometry": {
                "type": "LineString",
                "coordinates": [
                    [
                        -82.642458,
                        27.771817
                    ],
                    [
                        -82.642614,
                        27.771623
                    ],
                    [
                        -82.642614,
                        27.771623
                    ]
                ]
            },
            "bbox": [
                -82.642614,
                27.771623,
                -82.642458,
                27.771817
            ]
        },
        {
            "type": "Feature",
            "properties": {},
            "geometry": {
                "type": "Point",
                "coordinates": [
                    -82.642624,
                    27.771632
                ]
            },
            "bbox": [
                -82.642624,
                27.771632,
                -82.642624,
                27.771632
            ]
        },
        {
            "type": "Feature",
            "properties": {},
            "geometry": {
                "type": "LineString",
                "coordinates": [
                    [
                        -82.64263,
                        27.771641
                    ],
                    [
                        -82.643138,
                        27.771626
                    ],
                    [
                        -82.643138,
                        27.771626
                    ]
                ]
            },
            "bbox": [
                -82.643138,
                27.771626,
                -82.64263,
                27.771641
            ]
        },
        {
            "type": "Feature",
            "properties": {},
            "geometry": {
                "type": "Point",
                "coordinates": [
                    -82.643169,
                    27.771641
                ]
            },
            "bbox": [
                -82.643169,
                27.771641,
                -82.643169,
                27.771641
            ]
        },
        {
            "type": "Feature",
            "properties": {},
            "geometry": {
                "type": "LineString",
                "coordinates": [
                    [
                        -82.643172,
                        27.771647
                    ],
                    [
                        -82.643653,
                        27.77165
                    ]
                ]
            },
            "bbox": [
                -82.643653,
                27.771647,
                -82.643172,
                27.77165
            ]
        },
        {
            "type": "Feature",
            "properties": {},
            "geometry": {
                "type": "Point",
                "coordinates": [
                    -82.643643,
                    27.771656
                ]
            },
            "bbox": [
                -82.643643,
                27.771656,
                -82.643643,
                27.771656
            ]
        },
        {
            "type": "Feature",
            "properties": {},
            "geometry": {
                "type": "LineString",
                "coordinates": [
                    [
                        -82.643653,
                        27.771656
                    ],
                    [
                        -82.643825,
                        27.771656
                    ],
                    [
                        -82.643825,
                        27.771656
                    ]
                ]
            },
            "bbox": [
                -82.643825,
                27.771656,
                -82.643653,
                27.771656
            ]
        },
        {
            "type": "Feature",
            "properties": {},
            "geometry": {
                "type": "Point",
                "coordinates": [
                    -82.643849,
                    27.771665
                ]
            },
            "bbox": [
                -82.643849,
                27.771665,
                -82.643849,
                27.771665
            ]
        },
        {
            "type": "Feature",
            "properties": {},
            "geometry": {
                "type": "LineString",
                "coordinates": [
                    [
                        -82.643853,
                        27.771662
                    ],
                    [
                        -82.64411,
                        27.771665
                    ],
                    [
                        -82.64411,
                        27.771665
                    ]
                ]
            },
            "bbox": [
                -82.64411,
                27.771662,
                -82.643853,
                27.771665
            ]
        },
        {
            "type": "Feature",
            "properties": {},
            "geometry": {
                "type": "Point",
                "coordinates": [
                    -82.64412,
                    27.771671
                ]
            },
            "bbox": [
                -82.64412,
                27.771671,
                -82.64412,
                27.771671
            ]
        },
        {
            "type": "Feature",
            "properties": {},
            "geometry": {
                "type": "LineString",
                "coordinates": [
                    [
                        -82.64413,
                        27.771671
                    ],
                    [
                        -82.644523,
                        27.771641
                    ]
                ]
            },
            "bbox": [
                -82.644523,
                27.771641,
                -82.64413,
                27.771671
            ]
        },
        {
            "type": "Feature",
            "properties": {},
            "geometry": {
                "type": "Point",
                "coordinates": [
                    -82.64454,
                    27.771644
                ]
            },
            "bbox": [
                -82.64454,
                27.771644,
                -82.64454,
                27.771644
            ]
        },
        {
            "type": "Feature",
            "properties": {},
            "geometry": {
                "type": "LineString",
                "coordinates": [
                    [
                        -82.644563,
                        27.771654
                    ],
                    [
                        -82.644807,
                        27.771634
                    ],
                    [
                        -82.644812,
                        27.771194
                    ],
                    [
                        -82.645884,
                        27.771169
                    ],
                    [
                        -82.649556,
                        27.771134
                    ],
                    [
                        -82.649625,
                        27.771163
                    ],
                    [
                        -82.649671,
                        27.771207
                    ],
                    [
                        -82.649772,
                        27.771244
                    ],
                    [
                        -82.64986,
                        27.771203
                    ],
                    [
                        -82.649864,
                        27.771167
                    ],
                    [
                        -82.649892,
                        27.771126
                    ],
                    [
                        -82.650117,
                        27.771142
                    ],
                    [
                        -82.651411,
                        27.771134
                    ],
                    [
                        -82.653938,
                        27.771105
                    ],
                    [
                        -82.654319,
                        27.771119
                    ],
                    [
                        -82.654329,
                        27.771571
                    ],
                    [
                        -82.654531,
                        27.7716
                    ],
                    [
                        -82.654531,
                        27.7716
                    ]
                ]
            },
            "bbox": [
                -82.654531,
                27.771105,
                -82.644563,
                27.771654
            ]
        },
        {
            "type": "Feature",
            "properties": {},
            "geometry": {
                "type": "Point",
                "coordinates": [
                    -82.654554,
                    27.771616
                ]
            },
            "bbox": [
                -82.654554,
                27.771616,
                -82.654554,
                27.771616
            ]
        },
        {
            "type": "Feature",
            "properties": {},
            "geometry": {
                "type": "LineString",
                "coordinates": [
                    [
                        -82.6546,
                        27.771616
                    ],
                    [
                        -82.654738,
                        27.77153
                    ],
                    [
                        -82.654729,
                        27.771213
                    ],
                    [
                        -82.654987,
                        27.771213
                    ],
                    [
                        -82.654987,
                        27.771213
                    ]
                ]
            },
            "bbox": [
                -82.654987,
                27.771213,
                -82.6546,
                27.771616
            ]
        },
        {
            "type": "Feature",
            "properties": {},
            "geometry": {
                "type": "Point",
                "coordinates": [
                    -82.65501,
                    27.771229
                ]
            },
            "bbox": [
                -82.65501,
                27.771229,
                -82.65501,
                27.771229
            ]
        },
        {
            "type": "Feature",
            "properties": {},
            "geometry": {
                "type": "LineString",
                "coordinates": [
                    [
                        -82.655028,
                        27.771213
                    ],
                    [
                        -82.655047,
                        27.771115
                    ],
                    [
                        -82.656322,
                        27.771103
                    ],
                    [
                        -82.656317,
                        27.769347
                    ],
                    [
                        -82.657785,
                        27.769294
                    ],
                    [
                        -82.658467,
                        27.769253
                    ],
                    [
                        -82.658978,
                        27.769168
                    ],
                    [
                        -82.659594,
                        27.768907
                    ],
                    [
                        -82.660805,
                        27.76815
                    ],
                    [
                        -82.660805,
                        27.768142
                    ]
                ]
            },
            "bbox": [
                -82.660805,
                27.768142,
                -82.655028,
                27.771213
            ]
        },
        {
            "type": "Feature",
            "properties": {},
            "geometry": {
                "type": "Point",
                "coordinates": [
                    -82.660823,
                    27.768167
                ]
            },
            "bbox": [
                -82.660823,
                27.768167,
                -82.660823,
                27.768167
            ]
        },
        {
            "type": "Feature",
            "properties": {},
            "geometry": {
                "type": "LineString",
                "coordinates": [
                    [
                        -82.660833,
                        27.76815
                    ],
                    [
                        -82.662108,
                        27.767161
                    ],
                    [
                        -82.662485,
                        27.766871
                    ],
                    [
                        -82.662984,
                        27.766618
                    ],
                    [
                        -82.663904,
                        27.765938
                    ],
                    [
                        -82.664701,
                        27.76538
                    ],
                    [
                        -82.6654,
                        27.764875
                    ],
                    [
                        -82.665778,
                        27.764586
                    ],
                    [
                        -82.666551,
                        27.764044
                    ],
                    [
                        -82.667122,
                        27.763637
                    ],
                    [
                        -82.667748,
                        27.763278
                    ],
                    [
                        -82.668318,
                        27.763046
                    ],
                    [
                        -82.669073,
                        27.762834
                    ],
                    [
                        -82.670086,
                        27.762769
                    ],
                    [
                        -82.671352,
                        27.762757
                    ],
                    [
                        -82.673584,
                        27.762737
                    ],
                    [
                        -82.674914,
                        27.762749
                    ],
                    [
                        -82.675301,
                        27.762741
                    ],
                    [
                        -82.675296,
                        27.762895
                    ],
                    [
                        -82.673967,
                        27.762943
                    ],
                    [
                        -82.673999,
                        27.770587
                    ]
                ]
            },
            "bbox": [
                -82.675301,
                27.762737,
                -82.660833,
                27.770587
            ]
        },
        {
            "type": "Feature",
            "properties": {},
            "geometry": {
                "type": "Point",
                "coordinates": [
                    -82.674026,
                    27.770607
                ]
            },
            "bbox": [
                -82.674026,
                27.770607,
                -82.674026,
                27.770607
            ]
        },
        {
            "type": "Feature",
            "properties": {},
            "geometry": {
                "type": "LineString",
                "coordinates": [
                    [
                        -82.674019,
                        27.770613
                    ],
                    [
                        -82.673883,
                        27.770556
                    ],
                    [
                        -82.670331,
                        27.770579
                    ],
                    [
                        -82.670331,
                        27.770579
                    ]
                ]
            },
            "bbox": [
                -82.674019,
                27.770556,
                -82.670331,
                27.770613
            ]
        },
        {
            "type": "Feature",
            "properties": {},
            "geometry": {
                "type": "Point",
                "coordinates": [
                    -82.670357,
                    27.770596
                ]
            },
            "bbox": [
                -82.670357,
                27.770596,
                -82.670357,
                27.770596
            ]
        },
        {
            "type": "Feature",
            "properties": {},
            "geometry": {
                "type": "LineString",
                "coordinates": [
                    [
                        -82.67037,
                        27.77059
                    ],
                    [
                        -82.669904,
                        27.770576
                    ],
                    [
                        -82.669897,
                        27.771035
                    ],
                    [
                        -82.669897,
                        27.77114
                    ],
                    [
                        -82.66943,
                        27.771146
                    ]
                ]
            },
            "bbox": [
                -82.67037,
                27.770576,
                -82.66943,
                27.771146
            ]
        },
        {
            "type": "Feature",
            "properties": {},
            "geometry": {
                "type": "Point",
                "coordinates": [
                    -82.669447,
                    27.771158
                ]
            },
            "bbox": [
                -82.669447,
                27.771158,
                -82.669447,
                27.771158
            ]
        },
        {
            "type": "Feature",
            "properties": {},
            "geometry": {
                "type": "LineString",
                "coordinates": [
                    [
                        -82.669458,
                        27.771155
                    ],
                    [
                        -82.66939,
                        27.771038
                    ],
                    [
                        -82.666756,
                        27.77105
                    ],
                    [
                        -82.666257,
                        27.771052
                    ],
                    [
                        -82.666133,
                        27.771053
                    ],
                    [
                        -82.666135,
                        27.77122
                    ]
                ]
            },
            "bbox": [
                -82.669458,
                27.771038,
                -82.666133,
                27.77122
            ]
        },
        {
            "type": "Feature",
            "properties": {},
            "geometry": {
                "type": "Point",
                "coordinates": [
                    -82.666144,
                    27.771221
                ]
            },
            "bbox": [
                -82.666144,
                27.771221,
                -82.666144,
                27.771221
            ]
        },
        {
            "type": "Feature",
            "properties": {},
            "geometry": {
                "type": "LineString",
                "coordinates": [
                    [
                        -82.666152,
                        27.771225
                    ],
                    [
                        -82.665972,
                        27.77106
                    ],
                    [
                        -82.665695,
                        27.771055
                    ],
                    [
                        -82.665689,
                        27.770944
                    ],
                    [
                        -82.665468,
                        27.770918
                    ]
                ]
            },
            "bbox": [
                -82.666152,
                27.770918,
                -82.665468,
                27.771225
            ]
        },
        {
            "type": "Feature",
            "properties": {},
            "geometry": {
                "type": "Point",
                "coordinates": [
                    -82.66547,
                    27.770923
                ]
            },
            "bbox": [
                -82.66547,
                27.770923,
                -82.66547,
                27.770923
            ]
        },
        {
            "type": "Feature",
            "properties": {},
            "geometry": {
                "type": "LineString",
                "coordinates": [
                    [
                        -82.665474,
                        27.770932
                    ],
                    [
                        -82.665202,
                        27.771033
                    ],
                    [
                        -82.663798,
                        27.771055
                    ],
                    [
                        -82.663587,
                        27.771055
                    ],
                    [
                        -82.663527,
                        27.771235
                    ],
                    [
                        -82.663531,
                        27.771235
                    ]
                ]
            },
            "bbox": [
                -82.665474,
                27.770932,
                -82.663527,
                27.771235
            ]
        },
        {
            "type": "Feature",
            "properties": {},
            "geometry": {
                "type": "Point",
                "coordinates": [
                    -82.663531,
                    27.77124
                ]
            },
            "bbox": [
                -82.663531,
                27.77124,
                -82.663531,
                27.77124
            ]
        },
        {
            "type": "Feature",
            "properties": {},
            "geometry": {
                "type": "LineString",
                "coordinates": [
                    [
                        -82.663533,
                        27.771247
                    ],
                    [
                        -82.663455,
                        27.771067
                    ],
                    [
                        -82.659773,
                        27.771095
                    ],
                    [
                        -82.657836,
                        27.771096
                    ],
                    [
                        -82.656359,
                        27.771108
                    ],
                    [
                        -82.649888,
                        27.771113
                    ],
                    [
                        -82.649816,
                        27.771043
                    ],
                    [
                        -82.649748,
                        27.771037
                    ],
                    [
                        -82.64968,
                        27.771065
                    ],
                    [
                        -82.649647,
                        27.771135
                    ],
                    [
                        -82.649651,
                        27.771224
                    ],
                    [
                        -82.64973,
                        27.771233
                    ],
                    [
                        -82.649759,
                        27.771335
                    ],
                    [
                        -82.649738,
                        27.772473
                    ],
                    [
                        -82.649587,
                        27.772504
                    ],
                    [
                        -82.649551,
                        27.772961
                    ],
                    [
                        -82.648929,
                        27.773016
                    ],
                    [
                        -82.648937,
                        27.773873
                    ],
                    [
                        -82.64771,
                        27.773921
                    ],
                    [
                        -82.647693,
                        27.774377
                    ]
                ]
            },
            "bbox": [
                -82.663533,
                27.771037,
                -82.647693,
                27.774377
            ]
        },
        {
            "type": "Feature",
            "properties": {},
            "geometry": {
                "type": "Point",
                "coordinates": [
                    -82.647728,
                    27.7744
                ]
            },
            "bbox": [
                -82.647728,
                27.7744,
                -82.647728,
                27.7744
            ]
        },
        {
            "type": "Feature",
            "properties": {},
            "geometry": {
                "type": "LineString",
                "coordinates": [
                    [
                        -82.647746,
                        27.774385
                    ],
                    [
                        -82.647693,
                        27.775148
                    ],
                    [
                        -82.647386,
                        27.775143
                    ],
                    [
                        -82.647318,
                        27.77494
                    ],
                    [
                        -82.647161,
                        27.774568
                    ],
                    [
                        -82.647147,
                        27.774568
                    ]
                ]
            },
            "bbox": [
                -82.647746,
                27.774385,
                -82.647147,
                27.775148
            ]
        },
        {
            "type": "Feature",
            "properties": {},
            "geometry": {
                "type": "Point",
                "coordinates": [
                    -82.647161,
                    27.774581
                ]
            },
            "bbox": [
                -82.647161,
                27.774581,
                -82.647161,
                27.774581
            ]
        },
        {
            "type": "Feature",
            "properties": {},
            "geometry": {
                "type": "LineString",
                "coordinates": [
                    [
                        -82.647177,
                        27.774593
                    ],
                    [
                        -82.647177,
                        27.776331
                    ],
                    [
                        -82.647137,
                        27.776358
                    ],
                    [
                        -82.646891,
                        27.776362
                    ],
                    [
                        -82.646826,
                        27.776327
                    ],
                    [
                        -82.646555,
                        27.77642
                    ],
                    [
                        -82.646535,
                        27.777697
                    ]
                ]
            },
            "bbox": [
                -82.647177,
                27.774593,
                -82.646535,
                27.777697
            ]
        },
        {
            "type": "Feature",
            "properties": {},
            "geometry": {
                "type": "Point",
                "coordinates": [
                    -82.646539,
                    27.777697
                ]
            },
            "bbox": [
                -82.646539,
                27.777697,
                -82.646539,
                27.777697
            ]
        },
        {
            "type": "Feature",
            "properties": {},
            "geometry": {
                "type": "LineString",
                "coordinates": [
                    [
                        -82.646538,
                        27.777703
                    ],
                    [
                        -82.646596,
                        27.783542
                    ],
                    [
                        -82.646699,
                        27.792654
                    ],
                    [
                        -82.646627,
                        27.795491
                    ],
                    [
                        -82.646684,
                        27.799454
                    ],
                    [
                        -82.646916,
                        27.799633
                    ]
                ]
            },
            "bbox": [
                -82.646916,
                27.777703,
                -82.646538,
                27.799633
            ]
        }
    ]
}