<?xml version="1.0" encoding="utf-8" standalone="yes"?>
<kml xmlns="http://www.opengis.net/kml/2.2">
  <Document>
    <name><![CDATA[Central Avenue]]></name>
    <visibility>1</visibility>
    <open>1</open>
    <Snippet><![CDATA[created using <a href="https://www.gpsvisualizer.com/?ref=ge&time=20260315070947">GPS Visualizer</a>]]></Snippet>
    <Folder id="Tracks">
      <name>Tracks</name>
      <visibility>1</visibility>
      <open>0</open>
      <Placemark>
        <name><![CDATA[Central Avenue]]></name>
        <description><![CDATA[<a target="_blank" href="https://www.strava.com/routes/3468243854499817650">https://www.strava.com/routes/3468243854499817650</a>]]></description>
        <Style>
          <LineStyle>
            <color>ff0000e6</color>
            <width>4</width>
          </LineStyle>
        </Style>
        <LineString>
          <tessellate>1</tessellate>
          <altitudeMode>clampToGround</altitudeMode>
          <coordinates>-82.66157,27.77134,13.5 -82.66157,27.77117,13.46 -82.662245,27.771160002,14.03 -82.66292,27.77115,14.4 -82.66298,27.77118,14.4 -82.66308,27.77118,14.47 -82.66358,27.77116,14.58 -82.66359,27.77116,14.58 -82.664423333,27.771156672,14.73 -82.665256667,27.771153338,14.89 -82.66609,27.77115,15.2 -82.6661,27.77115,15.19 -82.66687,27.77115,15.29 -82.66695,27.77108,15.27 -82.66702,27.77108,15.27 -82.66703,27.77103,15.34 -82.66718,27.77103,15.38 -82.66729,27.77103,15.38 -82.66729,27.77107,15.31 -82.6674,27.77107,15.31 -82.66745,27.7711,15.31 -82.66745,27.77114,15.31 -82.66766,27.77115,15.43 -82.668545,27.771145003,15.51 -82.66943,27.77114,15.97 -82.66944,27.77114,15.98 -82.670336,27.771136012,16.03 -82.671232,27.771132017,15.77 -82.672128,27.771128017,15.72 -82.673024,27.771124012,15.36 -82.67392,27.77112,14.88 -82.67392,27.771,14.9 -82.67407,27.771,14.79 -82.67407,27.77088,14.75 -82.67399,27.77088,14.76 -82.67399,27.77067,14.25 -82.67399,27.77088,14.76 -82.673136667,27.770880005,15.44 -82.672283333,27.770880005,15.72 -82.67143,27.77088,15.76 -82.67128,27.77089,15.76 -82.67128,27.77057,15.94 -82.67075,27.77057,15.96 -82.67076,27.77057,15.96 -82.6701,27.77058,15.99 -82.67011,27.77058,15.99 -82.66989,27.77058,16 -82.6699,27.77089,15.87 -82.6689075,27.770895011,15.63 -82.667915,27.770900014,15.42 -82.6669225,27.770905011,15.32 -82.66593,27.77091,15.1 -82.66575,27.77091,15.12 -82.66568,27.77093,15.12 -82.66547,27.77093,15.26 -82.66454,27.77092,14.74 -82.66451,27.77091,14.72 -82.66428,27.77092,14.66 -82.663406667,27.770923339,14.61 -82.662533333,27.770926672,14.13 -82.66166,27.77093,13.47 -82.66165,27.77062,13.42 -82.66077,27.77062,13.5 -82.66078,27.77062,13.5 -82.66052,27.77063,13.39 </coordinates>
        </LineString>
      </Placemark>
    </Folder>
  </Document>
</kml>
