<?xml version='1.0' encoding='UTF-8'?>
<gpx version="1.1" creator="https://www.komoot.de" xmlns="http://www.topografix.com/GPX/1/1" xmlns:xsi="http://www.w3.org/2001/XMLSchema-instance" xsi:schemaLocation="http://www.topografix.com/GPX/1/1 http://www.topografix.com/GPX/1/1/gpx.xsd">
  <metadata>
    <name>Downtown North</name>
    <author>
      <link href="https://www.komoot.de">
        <text>komoot</text>
        <type>text/html</type>
      </link>
    </author>
  </metadata>
  <wpt lat="27.771676" lon="-82.644015">
    <name>St. Petersburg Street Art Murals</name>
    <sym>Flag, Blue</sym>
  </wpt>
  <trk>
    <name>Downtown North</name>
    <trkseg>
      <trkpt lat="27.776769" lon="-82.638803">
        <ele>12.094486</ele>
        <time>2026-03-18T12:06:13.298Z</time>
      </trkpt>
      <trkpt lat="27.776768" lon="-82.638709">
        <ele>12.094486</ele>
        <time>2026-03-18T12:06:21.666Z</time>
      </trkpt>
      <trkpt lat="27.776992" lon="-82.638714">
        <ele>12.094486</ele>
        <time>2026-03-18T12:06:44.032Z</time>
      </trkpt>
      <trkpt lat="27.777087" lon="-82.638716">
        <ele>12.094486</ele>
        <time>2026-03-18T12:06:53.573Z</time>
      </trkpt>
      <trkpt lat="27.777086" lon="-82.638817">
        <ele>12.094486</ele>
        <time>2026-03-18T12:07:02.531Z</time>
      </trkpt>
      <trkpt lat="27.777087" lon="-82.638716">
        <ele>12.094486</ele>
        <time>2026-03-18T12:07:11.481Z</time>
      </trkpt>
      <trkpt lat="27.777088" lon="-82.638532">
        <ele>12.094486</ele>
        <time>2026-03-18T12:07:27.773Z</time>
      </trkpt>
      <trkpt lat="27.777090" lon="-82.638024">
        <ele>12.018693</ele>
        <time>2026-03-18T12:08:12.808Z</time>
      </trkpt>
      <trkpt lat="27.777091" lon="-82.637794">
        <ele>11.966217</ele>
        <time>2026-03-18T12:08:33.267Z</time>
      </trkpt>
      <trkpt lat="27.777092" lon="-82.637696">
        <ele>11.943856</ele>
        <time>2026-03-18T12:08:41.901Z</time>
      </trkpt>
      <trkpt lat="27.777095" lon="-82.637130">
        <ele>11.814717</ele>
        <time>2026-03-18T12:09:32.274Z</time>
      </trkpt>
      <trkpt lat="27.777096" lon="-82.636883">
        <ele>11.758361</ele>
        <time>2026-03-18T12:09:54.259Z</time>
      </trkpt>
      <trkpt lat="27.777095" lon="-82.637130">
        <ele>11.702006</ele>
        <time>2026-03-18T12:10:16.236Z</time>
      </trkpt>
      <trkpt lat="27.776811" lon="-82.637125">
        <ele>11.626468</ele>
        <time>2026-03-18T12:10:44.899Z</time>
      </trkpt>
      <trkpt lat="27.776499" lon="-82.637123">
        <ele>11.449110</ele>
        <time>2026-03-18T12:11:16.569Z</time>
      </trkpt>
      <trkpt lat="27.776499" lon="-82.637062">
        <ele>11.418430</ele>
        <time>2026-03-18T12:11:21.986Z</time>
      </trkpt>
      <trkpt lat="27.776499" lon="-82.636997">
        <ele>11.385738</ele>
        <time>2026-03-18T12:11:27.838Z</time>
      </trkpt>
      <trkpt lat="27.776435" lon="-82.636998">
        <ele>11.349354</ele>
        <time>2026-03-18T12:11:34.355Z</time>
      </trkpt>
      <trkpt lat="27.776383" lon="-82.636998">
        <ele>11.319795</ele>
        <time>2026-03-18T12:11:39.606Z</time>
      </trkpt>
      <trkpt lat="27.776321" lon="-82.636998">
        <ele>11.284551</ele>
        <time>2026-03-18T12:11:45.960Z</time>
      </trkpt>
      <trkpt lat="27.776260" lon="-82.636994">
        <ele>11.249818</ele>
        <time>2026-03-18T12:11:52.163Z</time>
      </trkpt>
      <trkpt lat="27.775668" lon="-82.636991">
        <ele>10.913294</ele>
        <time>2026-03-18T12:12:51.946Z</time>
      </trkpt>
      <trkpt lat="27.775063" lon="-82.636987">
        <ele>10.556337</ele>
        <time>2026-03-18T12:13:53.220Z</time>
      </trkpt>
      <trkpt lat="27.774956" lon="-82.636987">
        <ele>10.475099</ele>
        <time>2026-03-18T12:14:04.034Z</time>
      </trkpt>
      <trkpt lat="27.774840" lon="-82.636987">
        <ele>10.387027</ele>
        <time>2026-03-18T12:14:15.772Z</time>
      </trkpt>
      <trkpt lat="27.774230" lon="-82.636978">
        <ele>9.923855</ele>
        <time>2026-03-18T12:15:17.898Z</time>
      </trkpt>
      <trkpt lat="27.773634" lon="-82.636969">
        <ele>9.471312</ele>
        <time>2026-03-18T12:16:18.750Z</time>
      </trkpt>
      <trkpt lat="27.773636" lon="-82.636406">
        <ele>9.297748</ele>
        <time>2026-03-18T12:17:09.512Z</time>
      </trkpt>
      <trkpt lat="27.773637" lon="-82.636166">
        <ele>9.357163</ele>
        <time>2026-03-18T12:17:31.030Z</time>
      </trkpt>
      <trkpt lat="27.773636" lon="-82.636406">
        <ele>9.416578</ele>
        <time>2026-03-18T12:17:52.322Z</time>
      </trkpt>
      <trkpt lat="27.773634" lon="-82.636969">
        <ele>9.555954</ele>
        <time>2026-03-18T12:18:42.893Z</time>
      </trkpt>
      <trkpt lat="27.773612" lon="-82.637000">
        <ele>9.565792</ele>
        <time>2026-03-18T12:18:46.382Z</time>
      </trkpt>
      <trkpt lat="27.773595" lon="-82.636983">
        <ele>9.572143</ele>
        <time>2026-03-18T12:18:48.650Z</time>
      </trkpt>
      <trkpt lat="27.773529" lon="-82.636980">
        <ele>9.590625</ele>
        <time>2026-03-18T12:18:55.503Z</time>
      </trkpt>
      <trkpt lat="27.773467" lon="-82.636979">
        <ele>9.607973</ele>
        <time>2026-03-18T12:19:01.869Z</time>
      </trkpt>
      <trkpt lat="27.773432" lon="-82.636988">
        <ele>9.618016</ele>
        <time>2026-03-18T12:19:05.543Z</time>
      </trkpt>
      <trkpt lat="27.773407" lon="-82.637028">
        <ele>9.630140</ele>
        <time>2026-03-18T12:19:09.974Z</time>
      </trkpt>
      <trkpt lat="27.773408" lon="-82.637104">
        <ele>9.648957</ele>
        <time>2026-03-18T12:19:16.928Z</time>
      </trkpt>
      <trkpt lat="27.773409" lon="-82.637241">
        <ele>9.682873</ele>
        <time>2026-03-18T12:19:29.564Z</time>
      </trkpt>
      <trkpt lat="27.773391" lon="-82.638138">
        <ele>10.308968</ele>
        <time>2026-03-18T12:20:52.391Z</time>
      </trkpt>
      <trkpt lat="27.773392" lon="-82.638362">
        <ele>10.505223</ele>
        <time>2026-03-18T12:21:13.290Z</time>
      </trkpt>
      <trkpt lat="27.773391" lon="-82.638453">
        <ele>10.584957</ele>
        <time>2026-03-18T12:21:21.765Z</time>
      </trkpt>
      <trkpt lat="27.773391" lon="-82.638494">
        <ele>10.620879</ele>
        <time>2026-03-18T12:21:25.619Z</time>
      </trkpt>
      <trkpt lat="27.773390" lon="-82.638625">
        <ele>10.735656</ele>
        <time>2026-03-18T12:21:37.713Z</time>
      </trkpt>
      <trkpt lat="27.773385" lon="-82.639260">
        <ele>11.292020</ele>
        <time>2026-03-18T12:22:35.686Z</time>
      </trkpt>
      <trkpt lat="27.773384" lon="-82.639425">
        <ele>11.436585</ele>
        <time>2026-03-18T12:22:50.540Z</time>
      </trkpt>
      <trkpt lat="27.773380" lon="-82.640067">
        <ele>11.628509</ele>
        <time>2026-03-18T12:23:48.157Z</time>
      </trkpt>
      <trkpt lat="27.773376" lon="-82.640199">
        <ele>11.653409</ele>
        <time>2026-03-18T12:23:59.850Z</time>
      </trkpt>
      <trkpt lat="27.773372" lon="-82.640331">
        <ele>11.678309</ele>
        <time>2026-03-18T12:24:11.573Z</time>
      </trkpt>
      <trkpt lat="27.773367" lon="-82.640804">
        <ele>11.767486</ele>
        <time>2026-03-18T12:24:53.493Z</time>
      </trkpt>
      <trkpt lat="27.773339" lon="-82.640977">
        <ele>11.800642</ele>
        <time>2026-03-18T12:25:09.145Z</time>
      </trkpt>
      <trkpt lat="27.772966" lon="-82.641529">
        <ele>11.961088</ele>
        <time>2026-03-18T12:26:10.985Z</time>
      </trkpt>
      <trkpt lat="27.772940" lon="-82.641574">
        <ele>11.985164</ele>
        <time>2026-03-18T12:26:15.920Z</time>
      </trkpt>
      <trkpt lat="27.772875" lon="-82.641745">
        <ele>12.068538</ele>
        <time>2026-03-18T12:26:32.864Z</time>
      </trkpt>
      <trkpt lat="27.772826" lon="-82.641866">
        <ele>12.128151</ele>
        <time>2026-03-18T12:26:44.876Z</time>
      </trkpt>
      <trkpt lat="27.772695" lon="-82.641867">
        <ele>12.194478</ele>
        <time>2026-03-18T12:26:58.333Z</time>
      </trkpt>
      <trkpt lat="27.772537" lon="-82.641867">
        <ele>12.274474</ele>
        <time>2026-03-18T12:27:14.504Z</time>
      </trkpt>
      <trkpt lat="27.772181" lon="-82.641868">
        <ele>12.454718</ele>
        <time>2026-03-18T12:27:50.957Z</time>
      </trkpt>
      <trkpt lat="27.772143" lon="-82.641867">
        <ele>12.473963</ele>
        <time>2026-03-18T12:27:54.805Z</time>
      </trkpt>
      <trkpt lat="27.772061" lon="-82.641862">
        <ele>12.515540</ele>
        <time>2026-03-18T12:28:03.239Z</time>
      </trkpt>
      <trkpt lat="27.771975" lon="-82.641859">
        <ele>12.559103</ele>
        <time>2026-03-18T12:28:12.064Z</time>
      </trkpt>
      <trkpt lat="27.771958" lon="-82.641857">
        <ele>12.567756</ele>
        <time>2026-03-18T12:28:13.785Z</time>
      </trkpt>
      <trkpt lat="27.771633" lon="-82.641854">
        <ele>12.732310</ele>
        <time>2026-03-18T12:28:46.885Z</time>
      </trkpt>
      <trkpt lat="27.771633" lon="-82.641924">
        <ele>12.763669</ele>
        <time>2026-03-18T12:28:53.240Z</time>
      </trkpt>
      <trkpt lat="27.771633" lon="-82.642403">
        <ele>12.850098</ele>
        <time>2026-03-18T12:29:36.310Z</time>
      </trkpt>
      <trkpt lat="27.771633" lon="-82.642646">
        <ele>12.870352</ele>
        <time>2026-03-18T12:29:57.965Z</time>
      </trkpt>
      <trkpt lat="27.771633" lon="-82.642848">
        <ele>12.887189</ele>
        <time>2026-03-18T12:30:15.892Z</time>
      </trkpt>
      <trkpt lat="27.771633" lon="-82.643050">
        <ele>12.904026</ele>
        <time>2026-03-18T12:30:33.843Z</time>
      </trkpt>
      <trkpt lat="27.771630" lon="-82.643316">
        <ele>12.926199</ele>
        <time>2026-03-18T12:30:57.487Z</time>
      </trkpt>
      <trkpt lat="27.771626" lon="-82.643664">
        <ele>12.955208</ele>
        <time>2026-03-18T12:31:28.317Z</time>
      </trkpt>
      <trkpt lat="27.771624" lon="-82.643847">
        <ele>12.970462</ele>
        <time>2026-03-18T12:31:44.609Z</time>
      </trkpt>
      <trkpt lat="27.771623" lon="-82.643926">
        <ele>12.977047</ele>
        <time>2026-03-18T12:31:51.637Z</time>
      </trkpt>
      <trkpt lat="27.771623" lon="-82.643995">
        <ele>12.982798</ele>
        <time>2026-03-18T12:31:57.725Z</time>
      </trkpt>
      <trkpt lat="27.771676" lon="-82.643996">
        <ele>12.987792</ele>
        <time>2026-03-18T12:32:03.073Z</time>
      </trkpt>
      <trkpt lat="27.771927" lon="-82.644001">
        <ele>12.808210</ele>
        <time>2026-03-18T12:32:28.230Z</time>
      </trkpt>
      <trkpt lat="27.771931" lon="-82.643928">
        <ele>12.755870</ele>
        <time>2026-03-18T12:32:34.721Z</time>
      </trkpt>
      <trkpt lat="27.772051" lon="-82.643929">
        <ele>12.658814</ele>
        <time>2026-03-18T12:32:46.801Z</time>
      </trkpt>
      <trkpt lat="27.772163" lon="-82.643930">
        <ele>12.568228</ele>
        <time>2026-03-18T12:32:58.180Z</time>
      </trkpt>
      <trkpt lat="27.772164" lon="-82.643859">
        <ele>12.517413</ele>
        <time>2026-03-18T12:33:04.528Z</time>
      </trkpt>
      <trkpt lat="27.772165" lon="-82.643499">
        <ele>12.259792</ele>
        <time>2026-03-18T12:33:36.996Z</time>
      </trkpt>
      <trkpt lat="27.772337" lon="-82.643498">
        <ele>12.120680</ele>
        <time>2026-03-18T12:33:54.565Z</time>
      </trkpt>
      <trkpt lat="27.772371" lon="-82.643498">
        <ele>12.093182</ele>
        <time>2026-03-18T12:33:58.097Z</time>
      </trkpt>
      <trkpt lat="27.772456" lon="-82.643498">
        <ele>12.024436</ele>
        <time>2026-03-18T12:34:06.768Z</time>
      </trkpt>
      <trkpt lat="27.772556" lon="-82.643498">
        <ele>11.943558</ele>
        <time>2026-03-18T12:34:17.071Z</time>
      </trkpt>
      <trkpt lat="27.772571" lon="-82.643458">
        <ele>11.912469</ele>
        <time>2026-03-18T12:34:20.943Z</time>
      </trkpt>
      <trkpt lat="27.772691" lon="-82.643200">
        <ele>11.703887</ele>
        <time>2026-03-18T12:34:47.461Z</time>
      </trkpt>
      <trkpt lat="27.772768" lon="-82.643036">
        <ele>11.571028</ele>
        <time>2026-03-18T12:35:04.381Z</time>
      </trkpt>
      <trkpt lat="27.772801" lon="-82.643060">
        <ele>11.539290</ele>
        <time>2026-03-18T12:35:08.475Z</time>
      </trkpt>
      <trkpt lat="27.772818" lon="-82.643023">
        <ele>11.526324</ele>
        <time>2026-03-18T12:35:12.323Z</time>
      </trkpt>
      <trkpt lat="27.772851" lon="-82.643059">
        <ele>11.513220</ele>
        <time>2026-03-18T12:35:17.059Z</time>
      </trkpt>
      <trkpt lat="27.773016" lon="-82.643248">
        <ele>11.446100</ele>
        <time>2026-03-18T12:35:41.172Z</time>
      </trkpt>
      <trkpt lat="27.773071" lon="-82.643310">
        <ele>11.423906</ele>
        <time>2026-03-18T12:35:49.123Z</time>
      </trkpt>
      <trkpt lat="27.773352" lon="-82.643455">
        <ele>11.335650</ele>
        <time>2026-03-18T12:36:20.735Z</time>
      </trkpt>
      <trkpt lat="27.773385" lon="-82.643471">
        <ele>11.325391</ele>
        <time>2026-03-18T12:36:24.401Z</time>
      </trkpt>
      <trkpt lat="27.773421" lon="-82.643483">
        <ele>11.314668</ele>
        <time>2026-03-18T12:36:28.219Z</time>
      </trkpt>
      <trkpt lat="27.773478" lon="-82.643513">
        <ele>11.296703</ele>
        <time>2026-03-18T12:36:34.606Z</time>
      </trkpt>
      <trkpt lat="27.773542" lon="-82.643544">
        <ele>11.276809</ele>
        <time>2026-03-18T12:36:41.556Z</time>
      </trkpt>
      <trkpt lat="27.773923" lon="-82.643697">
        <ele>11.161288</ele>
        <time>2026-03-18T12:37:22.513Z</time>
      </trkpt>
      <trkpt lat="27.774186" lon="-82.643780">
        <ele>11.083273</ele>
        <time>2026-03-18T12:37:50.319Z</time>
      </trkpt>
      <trkpt lat="27.774381" lon="-82.643811">
        <ele>11.027012</ele>
        <time>2026-03-18T12:38:10.436Z</time>
      </trkpt>
      <trkpt lat="27.774453" lon="-82.643829">
        <ele>11.054564</ele>
        <time>2026-03-18T12:38:17.937Z</time>
      </trkpt>
      <trkpt lat="27.774452" lon="-82.644406">
        <ele>11.360135</ele>
        <time>2026-03-18T12:39:10.411Z</time>
      </trkpt>
      <trkpt lat="27.774452" lon="-82.644595">
        <ele>11.460226</ele>
        <time>2026-03-18T12:39:27.611Z</time>
      </trkpt>
      <trkpt lat="27.774452" lon="-82.644746">
        <ele>11.540193</ele>
        <time>2026-03-18T12:39:41.258Z</time>
      </trkpt>
      <trkpt lat="27.774825" lon="-82.644752">
        <ele>11.763473</ele>
        <time>2026-03-18T12:40:19.356Z</time>
      </trkpt>
      <trkpt lat="27.775226" lon="-82.644755">
        <ele>12.003494</ele>
        <time>2026-03-18T12:41:00.470Z</time>
      </trkpt>
      <trkpt lat="27.775227" lon="-82.644826">
        <ele>12.041099</ele>
        <time>2026-03-18T12:41:06.831Z</time>
      </trkpt>
      <trkpt lat="27.775229" lon="-82.644935">
        <ele>12.098384</ele>
        <time>2026-03-18T12:41:16.550Z</time>
      </trkpt>
      <trkpt lat="27.775295" lon="-82.644925">
        <ele>12.109051</ele>
        <time>2026-03-18T12:41:23.259Z</time>
      </trkpt>
      <trkpt lat="27.775293" lon="-82.645262">
        <ele>12.156815</ele>
        <time>2026-03-18T12:41:53.580Z</time>
      </trkpt>
      <trkpt lat="27.775289" lon="-82.645864">
        <ele>12.242138</ele>
        <time>2026-03-18T12:42:47.798Z</time>
      </trkpt>
      <trkpt lat="27.775286" lon="-82.646326">
        <ele>12.307619</ele>
        <time>2026-03-18T12:43:28.778Z</time>
      </trkpt>
      <trkpt lat="27.775289" lon="-82.645864">
        <ele>12.373100</ele>
        <time>2026-03-18T12:44:09.752Z</time>
      </trkpt>
      <trkpt lat="27.775293" lon="-82.645262">
        <ele>12.013248</ele>
        <time>2026-03-18T12:45:03.451Z</time>
      </trkpt>
      <trkpt lat="27.775295" lon="-82.644925">
        <ele>11.766046</ele>
        <time>2026-03-18T12:45:33.868Z</time>
      </trkpt>
      <trkpt lat="27.775295" lon="-82.644822">
        <ele>11.690493</ele>
        <time>2026-03-18T12:45:43.308Z</time>
      </trkpt>
      <trkpt lat="27.775296" lon="-82.644693">
        <ele>11.595865</ele>
        <time>2026-03-18T12:45:55.015Z</time>
      </trkpt>
      <trkpt lat="27.775296" lon="-82.644641">
        <ele>11.557722</ele>
        <time>2026-03-18T12:45:59.682Z</time>
      </trkpt>
      <trkpt lat="27.775297" lon="-82.644472">
        <ele>11.433755</ele>
        <time>2026-03-18T12:46:15.071Z</time>
      </trkpt>
      <trkpt lat="27.775297" lon="-82.644419">
        <ele>11.394878</ele>
        <time>2026-03-18T12:46:19.978Z</time>
      </trkpt>
      <trkpt lat="27.775302" lon="-82.643529">
        <ele>10.862500</ele>
        <time>2026-03-18T12:47:40.284Z</time>
      </trkpt>
      <trkpt lat="27.775365" lon="-82.643477">
        <ele>10.848697</ele>
        <time>2026-03-18T12:47:48.318Z</time>
      </trkpt>
      <trkpt lat="27.775364" lon="-82.643410">
        <ele>10.838206</ele>
        <time>2026-03-18T12:47:54.359Z</time>
      </trkpt>
      <trkpt lat="27.775363" lon="-82.643364">
        <ele>10.831003</ele>
        <time>2026-03-18T12:47:58.520Z</time>
      </trkpt>
      <trkpt lat="27.775483" lon="-82.642564">
        <ele>10.703975</ele>
        <time>2026-03-18T12:49:11.223Z</time>
      </trkpt>
      <trkpt lat="27.775510" lon="-82.642360">
        <ele>10.671683</ele>
        <time>2026-03-18T12:49:29.661Z</time>
      </trkpt>
      <trkpt lat="27.775528" lon="-82.642191">
        <ele>10.645035</ele>
        <time>2026-03-18T12:49:45.078Z</time>
      </trkpt>
      <trkpt lat="27.776112" lon="-82.642193">
        <ele>10.681975</ele>
        <time>2026-03-18T12:50:44.917Z</time>
      </trkpt>
      <trkpt lat="27.776270" lon="-82.642181">
        <ele>10.765497</ele>
        <time>2026-03-18T12:51:01.276Z</time>
      </trkpt>
      <trkpt lat="27.776265" lon="-82.641033">
        <ele>11.301228</ele>
        <time>2026-03-18T12:52:45.493Z</time>
      </trkpt>
      <trkpt lat="27.776268" lon="-82.640353">
        <ele>11.525602</ele>
        <time>2026-03-18T12:53:46.045Z</time>
      </trkpt>
      <trkpt lat="27.776257" lon="-82.640238">
        <ele>11.525602</ele>
        <time>2026-03-18T12:53:56.392Z</time>
      </trkpt>
      <trkpt lat="27.776234" lon="-82.640202">
        <ele>11.525602</ele>
        <time>2026-03-18T12:54:00.303Z</time>
      </trkpt>
      <trkpt lat="27.776248" lon="-82.640114">
        <ele>11.525602</ele>
        <time>2026-03-18T12:54:08.214Z</time>
      </trkpt>
      <trkpt lat="27.776252" lon="-82.639988">
        <ele>11.525602</ele>
        <time>2026-03-18T12:54:19.406Z</time>
      </trkpt>
      <trkpt lat="27.776252" lon="-82.639168">
        <ele>11.525602</ele>
        <time>2026-03-18T12:55:32.560Z</time>
      </trkpt>
      <trkpt lat="27.776381" lon="-82.639172">
        <ele>11.525602</ele>
        <time>2026-03-18T12:55:45.562Z</time>
      </trkpt>
      <trkpt lat="27.776381" lon="-82.639009">
        <ele>11.525602</ele>
        <time>2026-03-18T12:56:00.201Z</time>
      </trkpt>
      <trkpt lat="27.776381" lon="-82.638799">
        <ele>11.525602</ele>
        <time>2026-03-18T12:56:18.976Z</time>
      </trkpt>
      <trkpt lat="27.776769" lon="-82.638803">
        <ele>11.525602</ele>
        <time>2026-03-18T12:56:58.096Z</time>
      </trkpt>
    </trkseg>
  </trk>
</gpx>