{
    "type": "FeatureCollection",
    "features": [
        {
            "type": "Feature",
            "properties": {},
            "geometry": {
                "type": "Point",
                "coordinates": [
                    -82.63879,
                    27.776706
                ]
            },
            "bbox": [
                -82.63879,
                27.776706,
                -82.63879,
                27.776706
            ]
        },
        {
            "type": "Feature",
            "properties": {},
            "geometry": {
                "type": "LineString",
                "coordinates": [
                    [
                        -82.638801,
                        27.776712
                    ],
                    [
                        -82.63896,
                        27.777074
                    ]
                ]
            },
            "bbox": [
                -82.63896,
                27.776712,
                -82.638801,
                27.777074
            ]
        },
        {
            "type": "Feature",
            "properties": {},
            "geometry": {
                "type": "Point",
                "coordinates": [
                    -82.638971,
                    27.777083
                ]
            },
            "bbox": [
                -82.638971,
                27.777083,
                -82.638971,
                27.777083
            ]
        },
        {
            "type": "Feature",
            "properties": {},
            "geometry": {
                "type": "LineString",
                "coordinates": [
                    [
                        -82.638964,
                        27.777096
                    ],
                    [
                        -82.636829,
                        27.777106
                    ],
                    [
                        -82.636833,
                        27.77732
                    ]
                ]
            },
            "bbox": [
                -82.638964,
                27.777096,
                -82.636829,
                27.77732
            ]
        },
        {
            "type": "Feature",
            "properties": {},
            "geometry": {
                "type": "Point",
                "coordinates": [
                    -82.636847,
                    27.777339
                ]
            },
            "bbox": [
                -82.636847,
                27.777339,
                -82.636847,
                27.777339
            ]
        },
        {
            "type": "Feature",
            "properties": {},
            "geometry": {
                "type": "LineString",
                "coordinates": [
                    [
                        -82.636861,
                        27.777364
                    ],
                    [
                        -82.636876,
                        27.777486
                    ],
                    [
                        -82.635655,
                        27.777489
                    ],
                    [
                        -82.635651,
                        27.776559
                    ],
                    [
                        -82.635726,
                        27.776505
                    ],
                    [
                        -82.635717,
                        27.775059
                    ],
                    [
                        -82.635687,
                        27.773653
                    ],
                    [
                        -82.636199,
                        27.773637
                    ],
                    [
                        -82.636193,
                        27.773637
                    ]
                ]
            },
            "bbox": [
                -82.636876,
                27.773637,
                -82.635651,
                27.777489
            ]
        },
        {
            "type": "Feature",
            "properties": {},
            "geometry": {
                "type": "Point",
                "coordinates": [
                    -82.636235,
                    27.773642
                ]
            },
            "bbox": [
                -82.636235,
                27.773642,
                -82.636235,
                27.773642
            ]
        },
        {
            "type": "Feature",
            "properties": {},
            "geometry": {
                "type": "LineString",
                "coordinates": [
                    [
                        -82.636301,
                        27.773647
                    ],
                    [
                        -82.636386,
                        27.773647
                    ],
                    [
                        -82.636392,
                        27.773972
                    ],
                    [
                        -82.636596,
                        27.773977
                    ]
                ]
            },
            "bbox": [
                -82.636596,
                27.773647,
                -82.636301,
                27.773977
            ]
        },
        {
            "type": "Feature",
            "properties": {},
            "geometry": {
                "type": "Point",
                "coordinates": [
                    -82.636638,
                    27.773993
                ]
            },
            "bbox": [
                -82.636638,
                27.773993,
                -82.636638,
                27.773993
            ]
        },
        {
            "type": "Feature",
            "properties": {},
            "geometry": {
                "type": "LineString",
                "coordinates": [
                    [
                        -82.636657,
                        27.773967
                    ],
                    [
                        -82.636663,
                        27.773631
                    ],
                    [
                        -82.636956,
                        27.773642
                    ],
                    [
                        -82.636997,
                        27.773612
                    ],
                    [
                        -82.637026,
                        27.773634
                    ],
                    [
                        -82.637126,
                        27.773638
                    ],
                    [
                        -82.641027,
                        27.773605
                    ],
                    [
                        -82.641813,
                        27.773038
                    ],
                    [
                        -82.641884,
                        27.773008
                    ],
                    [
                        -82.641995,
                        27.772975
                    ],
                    [
                        -82.641875,
                        27.772833
                    ],
                    [
                        -82.641871,
                        27.772144
                    ],
                    [
                        -82.641871,
                        27.771628
                    ],
                    [
                        -82.64226,
                        27.771632
                    ]
                ]
            },
            "bbox": [
                -82.64226,
                27.771628,
                -82.636657,
                27.773967
            ]
        },
        {
            "type": "Feature",
            "properties": {},
            "geometry": {
                "type": "Point",
                "coordinates": [
                    -82.642297,
                    27.771639
                ]
            },
            "bbox": [
                -82.642297,
                27.771639,
                -82.642297,
                27.771639
            ]
        },
        {
            "type": "Feature",
            "properties": {},
            "geometry": {
                "type": "LineString",
                "coordinates": [
                    [
                        -82.642338,
                        27.771646
                    ],
                    [
                        -82.6425,
                        27.771786
                    ],
                    [
                        -82.6425,
                        27.771786
                    ]
                ]
            },
            "bbox": [
                -82.6425,
                27.771646,
                -82.642338,
                27.771786
            ]
        },
        {
            "type": "Feature",
            "properties": {},
            "geometry": {
                "type": "Point",
                "coordinates": [
                    -82.642529,
                    27.771804
                ]
            },
            "bbox": [
                -82.642529,
                27.771804,
                -82.642529,
                27.771804
            ]
        },
        {
            "type": "Feature",
            "properties": {},
            "geometry": {
                "type": "LineString",
                "coordinates": [
                    [
                        -82.642566,
                        27.771804
                    ],
                    [
                        -82.642636,
                        27.771672
                    ],
                    [
                        -82.642636,
                        27.771668
                    ]
                ]
            },
            "bbox": [
                -82.642636,
                27.771668,
                -82.642566,
                27.771804
            ]
        },
        {
            "type": "Feature",
            "properties": {},
            "geometry": {
                "type": "Point",
                "coordinates": [
                    -82.642661,
                    27.771672
                ]
            },
            "bbox": [
                -82.642661,
                27.771672,
                -82.642661,
                27.771672
            ]
        },
        {
            "type": "Feature",
            "properties": {},
            "geometry": {
                "type": "LineString",
                "coordinates": [
                    [
                        -82.642702,
                        27.771665
                    ],
                    [
                        -82.643182,
                        27.771628
                    ],
                    [
                        -82.643182,
                        27.771628
                    ]
                ]
            },
            "bbox": [
                -82.643182,
                27.771628,
                -82.642702,
                27.771665
            ]
        },
        {
            "type": "Feature",
            "properties": {},
            "geometry": {
                "type": "Point",
                "coordinates": [
                    -82.643215,
                    27.771639
                ]
            },
            "bbox": [
                -82.643215,
                27.771639,
                -82.643215,
                27.771639
            ]
        },
        {
            "type": "Feature",
            "properties": {},
            "geometry": {
                "type": "LineString",
                "coordinates": [
                    [
                        -82.643265,
                        27.771646
                    ],
                    [
                        -82.643675,
                        27.771639
                    ],
                    [
                        -82.643675,
                        27.771639
                    ]
                ]
            },
            "bbox": [
                -82.643675,
                27.771639,
                -82.643265,
                27.771646
            ]
        },
        {
            "type": "Feature",
            "properties": {},
            "geometry": {
                "type": "Point",
                "coordinates": [
                    -82.643695,
                    27.77165
                ]
            },
            "bbox": [
                -82.643695,
                27.77165,
                -82.643695,
                27.77165
            ]
        },
        {
            "type": "Feature",
            "properties": {},
            "geometry": {
                "type": "LineString",
                "coordinates": [
                    [
                        -82.643733,
                        27.771661
                    ],
                    [
                        -82.643869,
                        27.771661
                    ],
                    [
                        -82.643869,
                        27.771661
                    ]
                ]
            },
            "bbox": [
                -82.643869,
                27.771661,
                -82.643733,
                27.771661
            ]
        },
        {
            "type": "Feature",
            "properties": {},
            "geometry": {
                "type": "Point",
                "coordinates": [
                    -82.643886,
                    27.771676
                ]
            },
            "bbox": [
                -82.643886,
                27.771676,
                -82.643886,
                27.771676
            ]
        },
        {
            "type": "Feature",
            "properties": {},
            "geometry": {
                "type": "LineString",
                "coordinates": [
                    [
                        -82.643918,
                        27.77168
                    ],
                    [
                        -82.644084,
                        27.77168
                    ],
                    [
                        -82.644084,
                        27.77168
                    ]
                ]
            },
            "bbox": [
                -82.644084,
                27.77168,
                -82.643918,
                27.77168
            ]
        },
        {
            "type": "Feature",
            "properties": {},
            "geometry": {
                "type": "Point",
                "coordinates": [
                    -82.644096,
                    27.77168
                ]
            },
            "bbox": [
                -82.644096,
                27.77168,
                -82.644096,
                27.77168
            ]
        },
        {
            "type": "Feature",
            "properties": {},
            "geometry": {
                "type": "LineString",
                "coordinates": [
                    [
                        -82.644133,
                        27.771676
                    ],
                    [
                        -82.644526,
                        27.771629
                    ],
                    [
                        -82.644526,
                        27.771632
                    ]
                ]
            },
            "bbox": [
                -82.644526,
                27.771629,
                -82.644133,
                27.771676
            ]
        },
        {
            "type": "Feature",
            "properties": {},
            "geometry": {
                "type": "Point",
                "coordinates": [
                    -82.644559,
                    27.771636
                ]
            },
            "bbox": [
                -82.644559,
                27.771636,
                -82.644559,
                27.771636
            ]
        },
        {
            "type": "Feature",
            "properties": {},
            "geometry": {
                "type": "LineString",
                "coordinates": [
                    [
                        -82.644584,
                        27.77164
                    ],
                    [
                        -82.644692,
                        27.77164
                    ],
                    [
                        -82.644692,
                        27.771936
                    ],
                    [
                        -82.644737,
                        27.772449
                    ],
                    [
                        -82.644671,
                        27.772467
                    ],
                    [
                        -82.643827,
                        27.772467
                    ],
                    [
                        -82.643695,
                        27.772482
                    ],
                    [
                        -82.643562,
                        27.772533
                    ],
                    [
                        -82.643558,
                        27.772537
                    ]
                ]
            },
            "bbox": [
                -82.644737,
                27.77164,
                -82.643558,
                27.772537
            ]
        },
        {
            "type": "Feature",
            "properties": {},
            "geometry": {
                "type": "Point",
                "coordinates": [
                    -82.64355,
                    27.772544
                ]
            },
            "bbox": [
                -82.64355,
                27.772544,
                -82.64355,
                27.772544
            ]
        },
        {
            "type": "Feature",
            "properties": {},
            "geometry": {
                "type": "LineString",
                "coordinates": [
                    [
                        -82.643538,
                        27.772559
                    ],
                    [
                        -82.642996,
                        27.772789
                    ],
                    [
                        -82.643186,
                        27.772954
                    ],
                    [
                        -82.643426,
                        27.773269
                    ],
                    [
                        -82.643567,
                        27.773602
                    ],
                    [
                        -82.643794,
                        27.774228
                    ],
                    [
                        -82.64384,
                        27.774565
                    ],
                    [
                        -82.643806,
                        27.774806
                    ],
                    [
                        -82.643732,
                        27.77504
                    ],
                    [
                        -82.643624,
                        27.775198
                    ],
                    [
                        -82.643674,
                        27.775242
                    ],
                    [
                        -82.644336,
                        27.775245
                    ],
                    [
                        -82.64465,
                        27.775245
                    ],
                    [
                        -82.64465,
                        27.775245
                    ]
                ]
            },
            "bbox": [
                -82.64465,
                27.772559,
                -82.642996,
                27.775245
            ]
        },
        {
            "type": "Feature",
            "properties": {},
            "geometry": {
                "type": "Point",
                "coordinates": [
                    -82.644688,
                    27.775256
                ]
            },
            "bbox": [
                -82.644688,
                27.775256,
                -82.644688,
                27.775256
            ]
        },
        {
            "type": "Feature",
            "properties": {},
            "geometry": {
                "type": "LineString",
                "coordinates": [
                    [
                        -82.644696,
                        27.77526
                    ],
                    [
                        -82.644696,
                        27.775351
                    ],
                    [
                        -82.644439,
                        27.775362
                    ],
                    [
                        -82.643389,
                        27.775366
                    ],
                    [
                        -82.643074,
                        27.775421
                    ],
                    [
                        -82.642338,
                        27.775516
                    ],
                    [
                        -82.641974,
                        27.775538
                    ],
                    [
                        -82.641725,
                        27.775527
                    ],
                    [
                        -82.641423,
                        27.775458
                    ],
                    [
                        -82.641059,
                        27.775296
                    ],
                    [
                        -82.64096,
                        27.775282
                    ],
                    [
                        -82.640894,
                        27.775256
                    ],
                    [
                        -82.640162,
                        27.77526
                    ],
                    [
                        -82.639819,
                        27.775139
                    ],
                    [
                        -82.639831,
                        27.775231
                    ],
                    [
                        -82.639856,
                        27.775396
                    ],
                    [
                        -82.639897,
                        27.775579
                    ],
                    [
                        -82.639727,
                        27.775644
                    ],
                    [
                        -82.639823,
                        27.775901
                    ],
                    [
                        -82.639889,
                        27.776054
                    ],
                    [
                        -82.640058,
                        27.776384
                    ],
                    [
                        -82.640112,
                        27.776475
                    ],
                    [
                        -82.638995,
                        27.776475
                    ],
                    [
                        -82.63883,
                        27.776475
                    ],
                    [
                        -82.638788,
                        27.776702
                    ],
                    [
                        -82.638788,
                        27.776702
                    ]
                ]
            },
            "bbox": [
                -82.644696,
                27.775139,
                -82.638788,
                27.776702
            ]
        }
    ]
}