<?xml version="1.0" encoding="UTF-8"?>
<kml xmlns="http://www.opengis.net/kml/2.2">
  <Document>
    <name>Methodist Town</name>
    <description/>
    <Style id="icon-1899-DB4436-nodesc-normal">
      <IconStyle>
        <color>ff3644db</color>
        <scale>1</scale>
        <Icon>
          <href>https://www.gstatic.com/mapspro/images/stock/503-wht-blank_maps.png</href>
        </Icon>
        <hotSpot x="32" xunits="pixels" y="64" yunits="insetPixels"/>
      </IconStyle>
      <LabelStyle>
        <scale>0</scale>
      </LabelStyle>
      <BalloonStyle>
        <text><![CDATA[<h3>$[name]</h3>]]></text>
      </BalloonStyle>
    </Style>
    <Style id="icon-1899-DB4436-nodesc-highlight">
      <IconStyle>
        <color>ff3644db</color>
        <scale>1</scale>
        <Icon>
          <href>https://www.gstatic.com/mapspro/images/stock/503-wht-blank_maps.png</href>
        </Icon>
        <hotSpot x="32" xunits="pixels" y="64" yunits="insetPixels"/>
      </IconStyle>
      <LabelStyle>
        <scale>1</scale>
      </LabelStyle>
      <BalloonStyle>
        <text><![CDATA[<h3>$[name]</h3>]]></text>
      </BalloonStyle>
    </Style>
    <StyleMap id="icon-1899-DB4436-nodesc">
      <Pair>
        <key>normal</key>
        <styleUrl>#icon-1899-DB4436-nodesc-normal</styleUrl>
      </Pair>
      <Pair>
        <key>highlight</key>
        <styleUrl>#icon-1899-DB4436-nodesc-highlight</styleUrl>
      </Pair>
    </StyleMap>
    <Style id="line-000000-1200-nodesc-normal">
      <LineStyle>
        <color>ff000000</color>
        <width>1.2</width>
      </LineStyle>
      <BalloonStyle>
        <text><![CDATA[<h3>$[name]</h3>]]></text>
      </BalloonStyle>
    </Style>
    <Style id="line-000000-1200-nodesc-highlight">
      <LineStyle>
        <color>ff000000</color>
        <width>1.8</width>
      </LineStyle>
      <BalloonStyle>
        <text><![CDATA[<h3>$[name]</h3>]]></text>
      </BalloonStyle>
    </Style>
    <StyleMap id="line-000000-1200-nodesc">
      <Pair>
        <key>normal</key>
        <styleUrl>#line-000000-1200-nodesc-normal</styleUrl>
      </Pair>
      <Pair>
        <key>highlight</key>
        <styleUrl>#line-000000-1200-nodesc-highlight</styleUrl>
      </Pair>
    </StyleMap>
    <Style id="line-1267FF-5000-nodesc-normal">
      <LineStyle>
        <color>ffff6712</color>
        <width>5</width>
      </LineStyle>
      <BalloonStyle>
        <text><![CDATA[<h3>$[name]</h3>]]></text>
      </BalloonStyle>
    </Style>
    <Style id="line-1267FF-5000-nodesc-highlight">
      <LineStyle>
        <color>ffff6712</color>
        <width>7.5</width>
      </LineStyle>
      <BalloonStyle>
        <text><![CDATA[<h3>$[name]</h3>]]></text>
      </BalloonStyle>
    </Style>
    <StyleMap id="line-1267FF-5000-nodesc">
      <Pair>
        <key>normal</key>
        <styleUrl>#line-1267FF-5000-nodesc-normal</styleUrl>
      </Pair>
      <Pair>
        <key>highlight</key>
        <styleUrl>#line-1267FF-5000-nodesc-highlight</styleUrl>
      </Pair>
    </StyleMap>
    <Folder>
      <name>Untitled layer</name>
      <Placemark>
        <name>Line 1</name>
        <styleUrl>#line-000000-1200-nodesc</styleUrl>
        <LineString>
          <tessellate>1</tessellate>
          <coordinates>
            -82.6466317,27.7755063,0
            -82.6448507,27.7756677,0
            -82.6454472,27.7743342,0
            -82.6454794,27.7760239,0
          </coordinates>
        </LineString>
      </Placemark>
      <Placemark>
        <name>Clean Methodist Town line</name>
        <styleUrl>#line-000000-1200-nodesc</styleUrl>
        <LineString>
          <tessellate>1</tessellate>
          <coordinates>
            -82.6467665,27.7722673,0
            -82.6467772,27.7724287,0
            -82.6470347,27.7724192,0
            -82.6470454,27.7722294,0
            -82.6470562,27.7721344,0
            -82.6476892,27.772087,0
            -82.648172,27.772106,0
            -82.6481505,27.7719256,0
            -82.6512297,27.7719351,0
            -82.6512082,27.7721249,0
            -82.6507147,27.772106,0
            -82.6508112,27.7725047,0
            -82.6498671,27.7724857,0
            -82.6498456,27.7729983,0
            -82.647142,27.7729888,0
            -82.6472064,27.7746216,0
            -82.6472171,27.7748494,0
            -82.6469444,27.7748279,0
            -82.6465743,27.7748754,0
            -82.6465743,27.7752243,0
            -82.6463785,27.7752243,0
          </coordinates>
        </LineString>
      </Placemark>
    </Folder>
    <Folder>
      <name>Directions from 913 1st Ave N, St. Petersburg, FL 33705, USA to 850 3rd Ave N, St. Petersburg, FL 33705, USA</name>
      <Placemark>
        <name>Directions from 913 1st Ave N, St. Petersburg, FL 33705, USA to 850 3rd Ave N, St. Petersburg, FL 33705, USA</name>
        <styleUrl>#line-1267FF-5000-nodesc</styleUrl>
        <LineString>
          <tessellate>1</tessellate>
          <coordinates>
            -82.64676,27.77228,0
            -82.64676,27.77239,0
            -82.64676,27.7724,0
            -82.64676,27.77253,0
            -82.64689,27.77253,0
            -82.6469,27.77253,0
            -82.64695,27.77253,0
            -82.64703,27.77253,0
            -82.64709,27.77253,0
            -82.64712,27.77253,0
            -82.64718,27.77253,0
            -82.64718,27.77243,0
            -82.64718,27.77213,0
            -82.64718,27.7721,0
            -82.64768,27.7721,0
            -82.64769,27.77213,0
            -82.64769,27.77242,0
            -82.64769,27.77253,0
            -82.64799,27.77253,0
            -82.64805,27.77253,0
            -82.64813,27.77253,0
            -82.64814,27.77209,0
            -82.64814,27.77193,0
            -82.6484,27.77193,0
            -82.64865,27.77193,0
            -82.64879,27.77193,0
            -82.64929,27.77192,0
            -82.64952,27.77192,0
            -82.64967,27.77195,0
            -82.64982,27.77193,0
            -82.64992,27.77193,0
            -82.65006,27.77193,0
            -82.6501,27.77193,0
            -82.6502,27.77193,0
            -82.65024,27.77193,0
            -82.65061,27.77193,0
            -82.65072,27.77192,0
            -82.65077,27.77192,0
            -82.65083,27.77192,0
            -82.65101,27.77192,0
            -82.65121,27.77191,0
            -82.65121,27.77211,0
            -82.65098,27.77212,0
            -82.65083,27.77209,0
            -82.65077,27.77209,0
            -82.65073,27.77209,0
            -82.65075,27.77213,0
            -82.65079,27.77218,0
            -82.6508,27.7722,0
            -82.6508,27.77223,0
            -82.65077,27.77232,0
            -82.65077,27.77236,0
            -82.65078,27.77241,0
            -82.6508,27.77251,0
            -82.65089,27.77251,0
            -82.65104,27.77251,0
            -82.65113,27.77251,0
            -82.65113,27.77297,0
            -82.6511,27.77297,0
            -82.65087,27.77297,0
            -82.65084,27.77297,0
            -82.65078,27.77297,0
            -82.65056,27.77298,0
            -82.65024,27.77298,0
            -82.65021,27.77299,0
            -82.65013,27.77292,0
            -82.65013,27.7729,0
            -82.65012,27.77259,0
            -82.65012,27.77251,0
            -82.65003,27.77251,0
            -82.64994,27.77252,0
            -82.64982,27.77252,0
            -82.64976,27.77252,0
            -82.64976,27.77238,0
            -82.64977,27.77214,0
            -82.64977,27.7721,0
            -82.64992,27.7721,0
            -82.65006,27.7721,0
            -82.65015,27.7721,0
            -82.65014,27.77214,0
            -82.65013,27.77241,0
            -82.65012,27.77251,0
            -82.65003,27.77251,0
            -82.64994,27.77252,0
            -82.64982,27.77252,0
            -82.64976,27.77252,0
            -82.64954,27.77252,0
            -82.64861,27.77252,0
            -82.64813,27.77253,0
            -82.64815,27.77279,0
            -82.64783,27.77279,0
            -82.64737,27.7728,0
            -82.64717,27.7728,0
            -82.64703,27.77281,0
            -82.64702,27.77286,0
            -82.647,27.77296,0
            -82.64699,27.773,0
            -82.64681,27.773,0
            -82.64676,27.773,0
            -82.64676,27.77314,0
            -82.6468,27.77314,0
            -82.64717,27.77314,0
            -82.64717,27.77317,0
            -82.64717,27.77337,0
            -82.64717,27.77352,0
            -82.64717,27.77353,0
            -82.64718,27.77385,0
            -82.64718,27.77388,0
            -82.64718,27.77393,0
            -82.64724,27.77393,0
            -82.64757,27.77393,0
            -82.64769,27.77392,0
            -82.64769,27.77381,0
            -82.64769,27.77376,0
            -82.64769,27.7737,0
            -82.64775,27.7737,0
            -82.64778,27.7737,0
            -82.64788,27.77371,0
            -82.64791,27.77371,0
            -82.64794,27.77372,0
            -82.64793,27.77374,0
            -82.6479,27.77384,0
            -82.64788,27.77392,0
            -82.64785,27.77392,0
            -82.64782,27.77392,0
            -82.64779,27.77392,0
            -82.64769,27.77392,0
            -82.64757,27.77393,0
            -82.64724,27.77393,0
            -82.64718,27.77393,0
            -82.64718,27.77398,0
            -82.64718,27.77401,0
            -82.64719,27.77479,0
            -82.64719,27.77484,0
            -82.64716,27.77484,0
            -82.6471,27.77483,0
            -82.6469,27.77483,0
            -82.64681,27.77487,0
            -82.64678,27.77487,0
            -82.64657,27.77487,0
            -82.64657,27.7749,0
            -82.64657,27.77499,0
            -82.64655,27.77512,0
            -82.64658,27.77522,0
            -82.64639,27.77523,0
          </coordinates>
        </LineString>
      </Placemark>
      <Placemark>
        <name>913 1st Ave N, St. Petersburg, FL 33705, USA</name>
        <styleUrl>#icon-1899-DB4436-nodesc</styleUrl>
        <Point>
          <coordinates>
            -82.6467568,27.77228,0
          </coordinates>
        </Point>
      </Placemark>
      <Placemark>
        <name>850 3rd Ave N, St. Petersburg, FL 33705, USA</name>
        <styleUrl>#icon-1899-DB4436-nodesc</styleUrl>
        <Point>
          <coordinates>
            -82.6463862,27.7752258,0
          </coordinates>
        </Point>
      </Placemark>
    </Folder>
  </Document>
</kml>
