{
    "type": "FeatureCollection",
    "features": [
        {
            "type": "Feature",
            "properties": {},
            "geometry": {
                "type": "Point",
                "coordinates": [
                    -82.647678,
                    27.774442
                ]
            },
            "bbox": [
                -82.647678,
                27.774442,
                -82.647678,
                27.774442
            ]
        },
        {
            "type": "Feature",
            "properties": {},
            "geometry": {
                "type": "LineString",
                "coordinates": [
                    [
                        -82.647673,
                        27.774445
                    ],
                    [
                        -82.647627,
                        27.773969
                    ],
                    [
                        -82.647179,
                        27.773969
                    ],
                    [
                        -82.647129,
                        27.77414
                    ],
                    [
                        -82.647129,
                        27.77414
                    ]
                ]
            },
            "bbox": [
                -82.647673,
                27.773969,
                -82.647129,
                27.774445
            ]
        },
        {
            "type": "Feature",
            "properties": {},
            "geometry": {
                "type": "Point",
                "coordinates": [
                    -82.647132,
                    27.774148
                ]
            },
            "bbox": [
                -82.647132,
                27.774148,
                -82.647132,
                27.774148
            ]
        },
        {
            "type": "Feature",
            "properties": {},
            "geometry": {
                "type": "LineString",
                "coordinates": [
                    [
                        -82.647141,
                        27.774155
                    ],
                    [
                        -82.647179,
                        27.774469
                    ],
                    [
                        -82.646985,
                        27.774466
                    ],
                    [
                        -82.646985,
                        27.774466
                    ],
                    [
                        -82.646985,
                        27.774466
                    ]
                ]
            },
            "bbox": [
                -82.647179,
                27.774155,
                -82.646985,
                27.774469
            ]
        },
        {
            "type": "Feature",
            "properties": {},
            "geometry": {
                "type": "Point",
                "coordinates": [
                    -82.646983,
                    27.774477
                ]
            },
            "bbox": [
                -82.646983,
                27.774477,
                -82.646983,
                27.774477
            ]
        },
        {
            "type": "Feature",
            "properties": {},
            "geometry": {
                "type": "LineString",
                "coordinates": [
                    [
                        -82.646985,
                        27.774482
                    ],
                    [
                        -82.646988,
                        27.774609
                    ]
                ]
            },
            "bbox": [
                -82.646988,
                27.774482,
                -82.646985,
                27.774609
            ]
        },
        {
            "type": "Feature",
            "properties": {},
            "geometry": {
                "type": "Point",
                "coordinates": [
                    -82.646988,
                    27.774614
                ]
            },
            "bbox": [
                -82.646988,
                27.774614,
                -82.646988,
                27.774614
            ]
        },
        {
            "type": "Feature",
            "properties": {},
            "geometry": {
                "type": "LineString",
                "coordinates": [
                    [
                        -82.646994,
                        27.774614
                    ],
                    [
                        -82.647182,
                        27.774572
                    ],
                    [
                        -82.647182,
                        27.774572
                    ]
                ]
            },
            "bbox": [
                -82.647182,
                27.774572,
                -82.646994,
                27.774614
            ]
        },
        {
            "type": "Feature",
            "properties": {},
            "geometry": {
                "type": "Point",
                "coordinates": [
                    -82.64719,
                    27.774578
                ]
            },
            "bbox": [
                -82.64719,
                27.774578,
                -82.64719,
                27.774578
            ]
        },
        {
            "type": "Feature",
            "properties": {},
            "geometry": {
                "type": "LineString",
                "coordinates": [
                    [
                        -82.647199,
                        27.774578
                    ],
                    [
                        -82.647182,
                        27.775124
                    ],
                    [
                        -82.646583,
                        27.775132
                    ],
                    [
                        -82.646585,
                        27.775246
                    ],
                    [
                        -82.645773,
                        27.775253
                    ],
                    [
                        -82.644937,
                        27.775257
                    ],
                    [
                        -82.644937,
                        27.775227
                    ],
                    [
                        -82.644755,
                        27.77522
                    ],
                    [
                        -82.64473,
                        27.775237
                    ],
                    [
                        -82.644643,
                        27.775238
                    ],
                    [
                        -82.644645,
                        27.775239
                    ]
                ]
            },
            "bbox": [
                -82.647199,
                27.774578,
                -82.644643,
                27.775257
            ]
        },
        {
            "type": "Feature",
            "properties": {},
            "geometry": {
                "type": "Point",
                "coordinates": [
                    -82.644647,
                    27.775242
                ]
            },
            "bbox": [
                -82.644647,
                27.775242,
                -82.644647,
                27.775242
            ]
        },
        {
            "type": "Feature",
            "properties": {},
            "geometry": {
                "type": "LineString",
                "coordinates": [
                    [
                        -82.644654,
                        27.775248
                    ],
                    [
                        -82.644699,
                        27.775342
                    ],
                    [
                        -82.644712,
                        27.775371
                    ],
                    [
                        -82.644744,
                        27.775372
                    ],
                    [
                        -82.644599,
                        27.775737
                    ],
                    [
                        -82.644567,
                        27.775848
                    ],
                    [
                        -82.644568,
                        27.776374
                    ],
                    [
                        -82.644575,
                        27.777618
                    ],
                    [
                        -82.644699,
                        27.777625
                    ],
                    [
                        -82.644711,
                        27.777681
                    ],
                    [
                        -82.644739,
                        27.777781
                    ],
                    [
                        -82.644769,
                        27.777932
                    ],
                    [
                        -82.64484,
                        27.77808
                    ],
                    [
                        -82.644895,
                        27.778177
                    ],
                    [
                        -82.644975,
                        27.778274
                    ],
                    [
                        -82.645182,
                        27.778483
                    ],
                    [
                        -82.645324,
                        27.778605
                    ],
                    [
                        -82.64548,
                        27.778769
                    ],
                    [
                        -82.645535,
                        27.778847
                    ],
                    [
                        -82.646227,
                        27.778849
                    ],
                    [
                        -82.646224,
                        27.778691
                    ],
                    [
                        -82.646384,
                        27.778686
                    ],
                    [
                        -82.646384,
                        27.778686
                    ]
                ]
            },
            "bbox": [
                -82.646384,
                27.775248,
                -82.644567,
                27.778849
            ]
        },
        {
            "type": "Feature",
            "properties": {},
            "geometry": {
                "type": "Point",
                "coordinates": [
                    -82.64639,
                    27.778689
                ]
            },
            "bbox": [
                -82.64639,
                27.778689,
                -82.64639,
                27.778689
            ]
        },
        {
            "type": "Feature",
            "properties": {},
            "geometry": {
                "type": "LineString",
                "coordinates": [
                    [
                        -82.646401,
                        27.778693
                    ],
                    [
                        -82.646555,
                        27.778672
                    ],
                    [
                        -82.646547,
                        27.777757
                    ],
                    [
                        -82.646513,
                        27.777757
                    ],
                    [
                        -82.646513,
                        27.777757
                    ]
                ]
            },
            "bbox": [
                -82.646555,
                27.777757,
                -82.646401,
                27.778693
            ]
        },
        {
            "type": "Feature",
            "properties": {},
            "geometry": {
                "type": "Point",
                "coordinates": [
                    -82.646517,
                    27.777758
                ]
            },
            "bbox": [
                -82.646517,
                27.777758,
                -82.646517,
                27.777758
            ]
        },
        {
            "type": "Feature",
            "properties": {},
            "geometry": {
                "type": "LineString",
                "coordinates": [
                    [
                        -82.64652,
                        27.777764
                    ],
                    [
                        -82.646542,
                        27.777739
                    ],
                    [
                        -82.646542,
                        27.77737
                    ],
                    [
                        -82.646549,
                        27.776569
                    ],
                    [
                        -82.646544,
                        27.776482
                    ],
                    [
                        -82.646594,
                        27.776396
                    ],
                    [
                        -82.646599,
                        27.775234
                    ],
                    [
                        -82.647651,
                        27.775226
                    ],
                    [
                        -82.647677,
                        27.774442
                    ],
                    [
                        -82.647677,
                        27.774442
                    ]
                ]
            },
            "bbox": [
                -82.647677,
                27.774442,
                -82.64652,
                27.777764
            ]
        }
    ]
}