{
    "type": "FeatureCollection",
    "features": [
        {
            "type": "Feature",
            "properties": {},
            "geometry": {
                "type": "Point",
                "coordinates": [
                    -82.646803,
                    27.772306
                ]
            },
            "bbox": [
                -82.646803,
                27.772306,
                -82.646803,
                27.772306
            ]
        },
        {
            "type": "Feature",
            "properties": {},
            "geometry": {
                "type": "LineString",
                "coordinates": [
                    [
                        -82.646811,
                        27.772295
                    ],
                    [
                        -82.646809,
                        27.772144
                    ],
                    [
                        -82.647021,
                        27.772146
                    ],
                    [
                        -82.647021,
                        27.772279
                    ],
                    [
                        -82.647021,
                        27.772281
                    ]
                ]
            },
            "bbox": [
                -82.647021,
                27.772144,
                -82.646809,
                27.772295
            ]
        },
        {
            "type": "Feature",
            "properties": {},
            "geometry": {
                "type": "Point",
                "coordinates": [
                    -82.647028,
                    27.772291
                ]
            },
            "bbox": [
                -82.647028,
                27.772291,
                -82.647028,
                27.772291
            ]
        },
        {
            "type": "Feature",
            "properties": {},
            "geometry": {
                "type": "LineString",
                "coordinates": [
                    [
                        -82.647037,
                        27.772287
                    ],
                    [
                        -82.64703,
                        27.772145
                    ],
                    [
                        -82.64703,
                        27.772135
                    ],
                    [
                        -82.647513,
                        27.772131
                    ],
                    [
                        -82.647516,
                        27.772271
                    ],
                    [
                        -82.647516,
                        27.772271
                    ]
                ]
            },
            "bbox": [
                -82.647516,
                27.772131,
                -82.64703,
                27.772287
            ]
        },
        {
            "type": "Feature",
            "properties": {},
            "geometry": {
                "type": "Point",
                "coordinates": [
                    -82.647522,
                    27.772283
                ]
            },
            "bbox": [
                -82.647522,
                27.772283,
                -82.647522,
                27.772283
            ]
        },
        {
            "type": "Feature",
            "properties": {},
            "geometry": {
                "type": "LineString",
                "coordinates": [
                    [
                        -82.647536,
                        27.772275
                    ],
                    [
                        -82.647573,
                        27.772277
                    ],
                    [
                        -82.64757,
                        27.772137
                    ],
                    [
                        -82.648184,
                        27.772131
                    ],
                    [
                        -82.648181,
                        27.771894
                    ],
                    [
                        -82.649275,
                        27.771888
                    ]
                ]
            },
            "bbox": [
                -82.649275,
                27.771888,
                -82.647536,
                27.772277
            ]
        },
        {
            "type": "Feature",
            "properties": {},
            "geometry": {
                "type": "Point",
                "coordinates": [
                    -82.649287,
                    27.771894
                ]
            },
            "bbox": [
                -82.649287,
                27.771894,
                -82.649287,
                27.771894
            ]
        },
        {
            "type": "Feature",
            "properties": {},
            "geometry": {
                "type": "LineString",
                "coordinates": [
                    [
                        -82.649307,
                        27.771894
                    ],
                    [
                        -82.649602,
                        27.771888
                    ],
                    [
                        -82.649632,
                        27.771884
                    ],
                    [
                        -82.649632,
                        27.77156
                    ],
                    [
                        -82.649632,
                        27.771264
                    ],
                    [
                        -82.649623,
                        27.771236
                    ],
                    [
                        -82.649577,
                        27.771181
                    ],
                    [
                        -82.649575,
                        27.771102
                    ],
                    [
                        -82.649602,
                        27.771029
                    ],
                    [
                        -82.649669,
                        27.770979
                    ],
                    [
                        -82.649662,
                        27.770696
                    ],
                    [
                        -82.649662,
                        27.770696
                    ]
                ]
            },
            "bbox": [
                -82.649669,
                27.770696,
                -82.649307,
                27.771894
            ]
        },
        {
            "type": "Feature",
            "properties": {},
            "geometry": {
                "type": "Point",
                "coordinates": [
                    -82.649669,
                    27.77069
                ]
            },
            "bbox": [
                -82.649669,
                27.77069,
                -82.649669,
                27.77069
            ]
        },
        {
            "type": "Feature",
            "properties": {},
            "geometry": {
                "type": "LineString",
                "coordinates": [
                    [
                        -82.64968,
                        27.770691
                    ],
                    [
                        -82.650428,
                        27.770707
                    ],
                    [
                        -82.650437,
                        27.770851
                    ],
                    [
                        -82.650437,
                        27.770851
                    ]
                ]
            },
            "bbox": [
                -82.650437,
                27.770691,
                -82.64968,
                27.770851
            ]
        },
        {
            "type": "Feature",
            "properties": {},
            "geometry": {
                "type": "Point",
                "coordinates": [
                    -82.650443,
                    27.770858
                ]
            },
            "bbox": [
                -82.650443,
                27.770858,
                -82.650443,
                27.770858
            ]
        },
        {
            "type": "Feature",
            "properties": {},
            "geometry": {
                "type": "LineString",
                "coordinates": [
                    [
                        -82.650457,
                        27.770886
                    ],
                    [
                        -82.650492,
                        27.771039
                    ],
                    [
                        -82.651016,
                        27.771041
                    ],
                    [
                        -82.651031,
                        27.771315
                    ],
                    [
                        -82.651031,
                        27.771315
                    ]
                ]
            },
            "bbox": [
                -82.651031,
                27.770886,
                -82.650457,
                27.771315
            ]
        },
        {
            "type": "Feature",
            "properties": {},
            "geometry": {
                "type": "Point",
                "coordinates": [
                    -82.65104,
                    27.771325
                ]
            },
            "bbox": [
                -82.65104,
                27.771325,
                -82.65104,
                27.771325
            ]
        },
        {
            "type": "Feature",
            "properties": {},
            "geometry": {
                "type": "LineString",
                "coordinates": [
                    [
                        -82.651048,
                        27.771336
                    ],
                    [
                        -82.651054,
                        27.771525
                    ],
                    [
                        -82.6507,
                        27.771525
                    ],
                    [
                        -82.6507,
                        27.771525
                    ]
                ]
            },
            "bbox": [
                -82.651054,
                27.771336,
                -82.6507,
                27.771525
            ]
        },
        {
            "type": "Feature",
            "properties": {},
            "geometry": {
                "type": "Point",
                "coordinates": [
                    -82.650712,
                    27.771533
                ]
            },
            "bbox": [
                -82.650712,
                27.771533,
                -82.650712,
                27.771533
            ]
        },
        {
            "type": "Feature",
            "properties": {},
            "geometry": {
                "type": "LineString",
                "coordinates": [
                    [
                        -82.650697,
                        27.771528
                    ],
                    [
                        -82.649903,
                        27.771541
                    ],
                    [
                        -82.649891,
                        27.771544
                    ],
                    [
                        -82.649882,
                        27.771868
                    ],
                    [
                        -82.649879,
                        27.771873
                    ]
                ]
            },
            "bbox": [
                -82.650697,
                27.771528,
                -82.649879,
                27.771873
            ]
        },
        {
            "type": "Feature",
            "properties": {},
            "geometry": {
                "type": "Point",
                "coordinates": [
                    -82.649903,
                    27.771883
                ]
            },
            "bbox": [
                -82.649903,
                27.771883,
                -82.649903,
                27.771883
            ]
        },
        {
            "type": "Feature",
            "properties": {},
            "geometry": {
                "type": "LineString",
                "coordinates": [
                    [
                        -82.6499,
                        27.771897
                    ],
                    [
                        -82.649888,
                        27.77212
                    ],
                    [
                        -82.649882,
                        27.772283
                    ],
                    [
                        -82.649888,
                        27.77241
                    ],
                    [
                        -82.649898,
                        27.772436
                    ]
                ]
            },
            "bbox": [
                -82.6499,
                27.771897,
                -82.649882,
                27.772436
            ]
        },
        {
            "type": "Feature",
            "properties": {},
            "geometry": {
                "type": "Point",
                "coordinates": [
                    -82.649909,
                    27.772439
                ]
            },
            "bbox": [
                -82.649909,
                27.772439,
                -82.649909,
                27.772439
            ]
        },
        {
            "type": "Feature",
            "properties": {},
            "geometry": {
                "type": "LineString",
                "coordinates": [
                    [
                        -82.649909,
                        27.77245
                    ],
                    [
                        -82.649906,
                        27.772584
                    ],
                    [
                        -82.649425,
                        27.772597
                    ],
                    [
                        -82.649431,
                        27.772692
                    ]
                ]
            },
            "bbox": [
                -82.649909,
                27.77245,
                -82.649425,
                27.772692
            ]
        },
        {
            "type": "Feature",
            "properties": {},
            "geometry": {
                "type": "Point",
                "coordinates": [
                    -82.649439,
                    27.772697
                ]
            },
            "bbox": [
                -82.649439,
                27.772697,
                -82.649439,
                27.772697
            ]
        },
        {
            "type": "Feature",
            "properties": {},
            "geometry": {
                "type": "LineString",
                "coordinates": [
                    [
                        -82.649439,
                        27.772702
                    ],
                    [
                        -82.649359,
                        27.772702
                    ],
                    [
                        -82.649356,
                        27.772594
                    ],
                    [
                        -82.649035,
                        27.772436
                    ]
                ]
            },
            "bbox": [
                -82.649439,
                27.772436,
                -82.649035,
                27.772702
            ]
        },
        {
            "type": "Feature",
            "properties": {},
            "geometry": {
                "type": "Point",
                "coordinates": [
                    -82.649044,
                    27.772442
                ]
            },
            "bbox": [
                -82.649044,
                27.772442,
                -82.649044,
                27.772442
            ]
        },
        {
            "type": "Feature",
            "properties": {},
            "geometry": {
                "type": "LineString",
                "coordinates": [
                    [
                        -82.649047,
                        27.772445
                    ],
                    [
                        -82.64862,
                        27.772438
                    ],
                    [
                        -82.647947,
                        27.772438
                    ],
                    [
                        -82.646798,
                        27.772445
                    ],
                    [
                        -82.646798,
                        27.77231
                    ]
                ]
            },
            "bbox": [
                -82.649047,
                27.77231,
                -82.646798,
                27.772445
            ]
        }
    ]
}