{
    "type": "FeatureCollection",
    "features": [
        {
            "type": "Feature",
            "properties": {},
            "geometry": {
                "type": "Point",
                "coordinates": [
                    -82.654563,
                    27.77164
                ]
            },
            "bbox": [
                -82.654563,
                27.77164,
                -82.654563,
                27.77164
            ]
        },
        {
            "type": "Feature",
            "properties": {},
            "geometry": {
                "type": "LineString",
                "coordinates": [
                    [
                        -82.654582,
                        27.771645
                    ],
                    [
                        -82.654764,
                        27.771629
                    ],
                    [
                        -82.654757,
                        27.771206
                    ],
                    [
                        -82.654913,
                        27.771194
                    ],
                    [
                        -82.654974,
                        27.771214
                    ],
                    [
                        -82.654971,
                        27.771378
                    ]
                ]
            },
            "bbox": [
                -82.654974,
                27.771194,
                -82.654582,
                27.771645
            ]
        },
        {
            "type": "Feature",
            "properties": {},
            "geometry": {
                "type": "Point",
                "coordinates": [
                    -82.65499,
                    27.771378
                ]
            },
            "bbox": [
                -82.65499,
                27.771378,
                -82.65499,
                27.771378
            ]
        },
        {
            "type": "Feature",
            "properties": {},
            "geometry": {
                "type": "LineString",
                "coordinates": [
                    [
                        -82.655003,
                        27.77138
                    ],
                    [
                        -82.655006,
                        27.77133
                    ],
                    [
                        -82.655034,
                        27.771217
                    ],
                    [
                        -82.656313,
                        27.771208
                    ],
                    [
                        -82.656389,
                        27.771208
                    ],
                    [
                        -82.656341,
                        27.768479
                    ],
                    [
                        -82.656357,
                        27.768464
                    ],
                    [
                        -82.65812,
                        27.768456
                    ],
                    [
                        -82.65812,
                        27.768456
                    ]
                ]
            },
            "bbox": [
                -82.65812,
                27.768456,
                -82.655003,
                27.77138
            ]
        },
        {
            "type": "Feature",
            "properties": {},
            "geometry": {
                "type": "Point",
                "coordinates": [
                    -82.658126,
                    27.768462
                ]
            },
            "bbox": [
                -82.658126,
                27.768462,
                -82.658126,
                27.768462
            ]
        },
        {
            "type": "Feature",
            "properties": {},
            "geometry": {
                "type": "LineString",
                "coordinates": [
                    [
                        -82.658132,
                        27.76847
                    ],
                    [
                        -82.658132,
                        27.76847
                    ]
                ]
            },
            "bbox": [
                -82.658132,
                27.76847,
                -82.658132,
                27.76847
            ]
        },
        {
            "type": "Feature",
            "properties": {},
            "geometry": {
                "type": "LineString",
                "coordinates": [
                    [
                        -82.658136,
                        27.76847
                    ],
                    [
                        -82.658811,
                        27.768453
                    ],
                    [
                        -82.658811,
                        27.768332
                    ],
                    [
                        -82.658999,
                        27.768329
                    ],
                    [
                        -82.659207,
                        27.768304
                    ],
                    [
                        -82.659519,
                        27.768295
                    ],
                    [
                        -82.659519,
                        27.768295
                    ]
                ]
            },
            "bbox": [
                -82.659519,
                27.768295,
                -82.658136,
                27.76847
            ]
        },
        {
            "type": "Feature",
            "properties": {},
            "geometry": {
                "type": "Point",
                "coordinates": [
                    -82.659525,
                    27.768304
                ]
            },
            "bbox": [
                -82.659525,
                27.768304,
                -82.659525,
                27.768304
            ]
        },
        {
            "type": "Feature",
            "properties": {},
            "geometry": {
                "type": "LineString",
                "coordinates": [
                    [
                        -82.659532,
                        27.768304
                    ],
                    [
                        -82.659532,
                        27.768304
                    ]
                ]
            },
            "bbox": [
                -82.659532,
                27.768304,
                -82.659532,
                27.768304
            ]
        },
        {
            "type": "Feature",
            "properties": {},
            "geometry": {
                "type": "LineString",
                "coordinates": [
                    [
                        -82.659533,
                        27.768311
                    ],
                    [
                        -82.659716,
                        27.768298
                    ],
                    [
                        -82.659825,
                        27.76833
                    ],
                    [
                        -82.660184,
                        27.76832
                    ],
                    [
                        -82.660184,
                        27.768579
                    ],
                    [
                        -82.660513,
                        27.768369
                    ]
                ]
            },
            "bbox": [
                -82.660513,
                27.768298,
                -82.659533,
                27.768579
            ]
        },
        {
            "type": "Feature",
            "properties": {},
            "geometry": {
                "type": "Point",
                "coordinates": [
                    -82.660534,
                    27.768375
                ]
            },
            "bbox": [
                -82.660534,
                27.768375,
                -82.660534,
                27.768375
            ]
        },
        {
            "type": "Feature",
            "properties": {},
            "geometry": {
                "type": "LineString",
                "coordinates": [
                    [
                        -82.660545,
                        27.768388
                    ],
                    [
                        -82.660191,
                        27.768608
                    ],
                    [
                        -82.660195,
                        27.769061
                    ]
                ]
            },
            "bbox": [
                -82.660545,
                27.768388,
                -82.660191,
                27.769061
            ]
        },
        {
            "type": "Feature",
            "properties": {},
            "geometry": {
                "type": "Point",
                "coordinates": [
                    -82.660209,
                    27.769074
                ]
            },
            "bbox": [
                -82.660209,
                27.769074,
                -82.660209,
                27.769074
            ]
        },
        {
            "type": "Feature",
            "properties": {},
            "geometry": {
                "type": "LineString",
                "coordinates": [
                    [
                        -82.660226,
                        27.769092
                    ],
                    [
                        -82.660215,
                        27.769267
                    ],
                    [
                        -82.660193,
                        27.76973
                    ],
                    [
                        -82.66159,
                        27.769717
                    ],
                    [
                        -82.661582,
                        27.770063
                    ],
                    [
                        -82.66125,
                        27.770063
                    ],
                    [
                        -82.66125,
                        27.770063
                    ]
                ]
            },
            "bbox": [
                -82.66159,
                27.769092,
                -82.660193,
                27.770063
            ]
        },
        {
            "type": "Feature",
            "properties": {},
            "geometry": {
                "type": "Point",
                "coordinates": [
                    -82.661264,
                    27.770072
                ]
            },
            "bbox": [
                -82.661264,
                27.770072,
                -82.661264,
                27.770072
            ]
        },
        {
            "type": "Feature",
            "properties": {},
            "geometry": {
                "type": "LineString",
                "coordinates": [
                    [
                        -82.661275,
                        27.770072
                    ],
                    [
                        -82.660351,
                        27.770076
                    ],
                    [
                        -82.660347,
                        27.769988
                    ]
                ]
            },
            "bbox": [
                -82.661275,
                27.769988,
                -82.660347,
                27.770076
            ]
        },
        {
            "type": "Feature",
            "properties": {},
            "geometry": {
                "type": "Point",
                "coordinates": [
                    -82.660358,
                    27.769995
                ]
            },
            "bbox": [
                -82.660358,
                27.769995,
                -82.660358,
                27.769995
            ]
        },
        {
            "type": "Feature",
            "properties": {},
            "geometry": {
                "type": "LineString",
                "coordinates": [
                    [
                        -82.660362,
                        27.770001
                    ],
                    [
                        -82.660387,
                        27.770254
                    ],
                    [
                        -82.660351,
                        27.770321
                    ],
                    [
                        -82.660358,
                        27.770939
                    ],
                    [
                        -82.660175,
                        27.770929
                    ],
                    [
                        -82.660109,
                        27.770968
                    ],
                    [
                        -82.658998,
                        27.770972
                    ],
                    [
                        -82.658841,
                        27.770939
                    ],
                    [
                        -82.657839,
                        27.770962
                    ],
                    [
                        -82.657832,
                        27.771214
                    ],
                    [
                        -82.656366,
                        27.771214
                    ],
                    [
                        -82.656381,
                        27.771851
                    ],
                    [
                        -82.654714,
                        27.771864
                    ],
                    [
                        -82.654725,
                        27.771673
                    ],
                    [
                        -82.654557,
                        27.771641
                    ],
                    [
                        -82.654557,
                        27.771641
                    ]
                ]
            },
            "bbox": [
                -82.660387,
                27.770001,
                -82.654557,
                27.771864
            ]
        }
    ]
}