<?xml version='1.0' encoding='UTF-8'?>
<gpx version="1.1" creator="https://www.komoot.de" xmlns="http://www.topografix.com/GPX/1/1" xmlns:xsi="http://www.w3.org/2001/XMLSchema-instance" xsi:schemaLocation="http://www.topografix.com/GPX/1/1 http://www.topografix.com/GPX/1/1/gpx.xsd">
  <metadata>
    <name>Tropicana Field Murals</name>
    <author>
      <link href="https://www.komoot.de">
        <text>komoot</text>
        <type>text/html</type>
      </link>
    </author>
  </metadata>
  <trk>
    <name>Tropicana Field Murals</name>
    <trkseg>
      <trkpt lat="27.771443" lon="-82.654736">
        <ele>14.020918</ele>
        <time>2026-03-18T17:53:09.629Z</time>
      </trkpt>
      <trkpt lat="27.771403" lon="-82.654645">
        <ele>14.020918</ele>
        <time>2026-03-18T17:53:18.619Z</time>
      </trkpt>
      <trkpt lat="27.771331" lon="-82.654646">
        <ele>14.020918</ele>
        <time>2026-03-18T17:53:25.830Z</time>
      </trkpt>
      <trkpt lat="27.771289" lon="-82.654646">
        <ele>14.020918</ele>
        <time>2026-03-18T17:53:30.042Z</time>
      </trkpt>
      <trkpt lat="27.771290" lon="-82.654818">
        <ele>14.020918</ele>
        <time>2026-03-18T17:53:45.278Z</time>
      </trkpt>
      <trkpt lat="27.771199" lon="-82.654817">
        <ele>14.020918</ele>
        <time>2026-03-18T17:53:54.402Z</time>
      </trkpt>
      <trkpt lat="27.771201" lon="-82.654938">
        <ele>14.020918</ele>
        <time>2026-03-18T17:54:05.144Z</time>
      </trkpt>
      <trkpt lat="27.771211" lon="-82.655002">
        <ele>14.020918</ele>
        <time>2026-03-18T17:54:10.867Z</time>
      </trkpt>
      <trkpt lat="27.771210" lon="-82.656236">
        <ele>13.898107</ele>
        <time>2026-03-18T17:56:00.836Z</time>
      </trkpt>
      <trkpt lat="27.771149" lon="-82.656236">
        <ele>13.888792</ele>
        <time>2026-03-18T17:56:07.008Z</time>
      </trkpt>
      <trkpt lat="27.771092" lon="-82.656234">
        <ele>13.880084</ele>
        <time>2026-03-18T17:56:12.761Z</time>
      </trkpt>
      <trkpt lat="27.771047" lon="-82.656233">
        <ele>13.873211</ele>
        <time>2026-03-18T17:56:17.313Z</time>
      </trkpt>
      <trkpt lat="27.770995" lon="-82.656235">
        <ele>13.865266</ele>
        <time>2026-03-18T17:56:22.554Z</time>
      </trkpt>
      <trkpt lat="27.770975" lon="-82.656235">
        <ele>13.862211</ele>
        <time>2026-03-18T17:56:24.486Z</time>
      </trkpt>
      <trkpt lat="27.770975" lon="-82.656264">
        <ele>13.858293</ele>
        <time>2026-03-18T17:56:27.060Z</time>
      </trkpt>
      <trkpt lat="27.770971" lon="-82.656330">
        <ele>13.849355</ele>
        <time>2026-03-18T17:56:32.939Z</time>
      </trkpt>
      <trkpt lat="27.770971" lon="-82.656392">
        <ele>13.840977</ele>
        <time>2026-03-18T17:56:38.452Z</time>
      </trkpt>
      <trkpt lat="27.770963" lon="-82.657085">
        <ele>13.747334</ele>
        <time>2026-03-18T17:57:40.032Z</time>
      </trkpt>
      <trkpt lat="27.770957" lon="-82.657627">
        <ele>13.943493</ele>
        <time>2026-03-18T17:58:28.613Z</time>
      </trkpt>
      <trkpt lat="27.770956" lon="-82.657667">
        <ele>13.958272</ele>
        <time>2026-03-18T17:58:32.281Z</time>
      </trkpt>
      <trkpt lat="27.770662" lon="-82.657664">
        <ele>14.080989</ele>
        <time>2026-03-18T17:59:02.389Z</time>
      </trkpt>
      <trkpt lat="27.770326" lon="-82.657660">
        <ele>14.221240</ele>
        <time>2026-03-18T17:59:36.836Z</time>
      </trkpt>
      <trkpt lat="27.770283" lon="-82.657661">
        <ele>14.239192</ele>
        <time>2026-03-18T17:59:41.253Z</time>
      </trkpt>
      <trkpt lat="27.770221" lon="-82.657660">
        <ele>14.265073</ele>
        <time>2026-03-18T17:59:47.583Z</time>
      </trkpt>
      <trkpt lat="27.770127" lon="-82.657658">
        <ele>14.304314</ele>
        <time>2026-03-18T17:59:57.134Z</time>
      </trkpt>
      <trkpt lat="27.770085" lon="-82.657660">
        <ele>14.321860</ele>
        <time>2026-03-18T18:00:01.422Z</time>
      </trkpt>
      <trkpt lat="27.770085" lon="-82.657676">
        <ele>14.327769</ele>
        <time>2026-03-18T18:00:02.842Z</time>
      </trkpt>
      <trkpt lat="27.769490" lon="-82.657689">
        <ele>14.498575</ele>
        <time>2026-03-18T18:01:03.284Z</time>
      </trkpt>
      <trkpt lat="27.769490" lon="-82.657714">
        <ele>14.498760</ele>
        <time>2026-03-18T18:01:05.574Z</time>
      </trkpt>
      <trkpt lat="27.769421" lon="-82.657714">
        <ele>14.499336</ele>
        <time>2026-03-18T18:01:12.495Z</time>
      </trkpt>
      <trkpt lat="27.769285" lon="-82.657713">
        <ele>14.500471</ele>
        <time>2026-03-18T18:01:26.156Z</time>
      </trkpt>
      <trkpt lat="27.769283" lon="-82.657846">
        <ele>14.501453</ele>
        <time>2026-03-18T18:01:38.016Z</time>
      </trkpt>
      <trkpt lat="27.769270" lon="-82.658421">
        <ele>14.505702</ele>
        <time>2026-03-18T18:02:28.980Z</time>
      </trkpt>
      <trkpt lat="27.769218" lon="-82.658712">
        <ele>14.507894</ele>
        <time>2026-03-18T18:02:55.329Z</time>
      </trkpt>
      <trkpt lat="27.769187" lon="-82.658821">
        <ele>14.508740</ele>
        <time>2026-03-18T18:03:05.604Z</time>
      </trkpt>
      <trkpt lat="27.769182" lon="-82.658846">
        <ele>14.508929</ele>
        <time>2026-03-18T18:03:07.859Z</time>
      </trkpt>
      <trkpt lat="27.769160" lon="-82.658905">
        <ele>14.509402</ele>
        <time>2026-03-18T18:03:13.546Z</time>
      </trkpt>
      <trkpt lat="27.769136" lon="-82.658962">
        <ele>14.509869</ele>
        <time>2026-03-18T18:03:19.242Z</time>
      </trkpt>
      <trkpt lat="27.769103" lon="-82.659119">
        <ele>14.511060</ele>
        <time>2026-03-18T18:03:33.649Z</time>
      </trkpt>
      <trkpt lat="27.768822" lon="-82.659813">
        <ele>14.454638</ele>
        <time>2026-03-18T18:04:41.387Z</time>
      </trkpt>
      <trkpt lat="27.768671" lon="-82.660052">
        <ele>14.428117</ele>
        <time>2026-03-18T18:05:07.562Z</time>
      </trkpt>
      <trkpt lat="27.768588" lon="-82.660185">
        <ele>14.413419</ele>
        <time>2026-03-18T18:05:22.036Z</time>
      </trkpt>
      <trkpt lat="27.768499" lon="-82.660183">
        <ele>14.404334</ele>
        <time>2026-03-18T18:05:31.013Z</time>
      </trkpt>
      <trkpt lat="27.768378" lon="-82.660183">
        <ele>14.391984</ele>
        <time>2026-03-18T18:05:43.128Z</time>
      </trkpt>
      <trkpt lat="27.768378" lon="-82.660090">
        <ele>14.383586</ele>
        <time>2026-03-18T18:05:51.369Z</time>
      </trkpt>
      <trkpt lat="27.768381" lon="-82.659536">
        <ele>14.333553</ele>
        <time>2026-03-18T18:06:40.662Z</time>
      </trkpt>
      <trkpt lat="27.768378" lon="-82.660090">
        <ele>14.280704</ele>
        <time>2026-03-18T18:07:29.868Z</time>
      </trkpt>
      <trkpt lat="27.768378" lon="-82.660183">
        <ele>14.271778</ele>
        <time>2026-03-18T18:07:38.091Z</time>
      </trkpt>
      <trkpt lat="27.768499" lon="-82.660183">
        <ele>14.258654</ele>
        <time>2026-03-18T18:07:50.207Z</time>
      </trkpt>
      <trkpt lat="27.768486" lon="-82.660274">
        <ele>14.249807</ele>
        <time>2026-03-18T18:07:58.409Z</time>
      </trkpt>
      <trkpt lat="27.768531" lon="-82.660274">
        <ele>14.244926</ele>
        <time>2026-03-18T18:08:02.896Z</time>
      </trkpt>
      <trkpt lat="27.768484" lon="-82.660338">
        <ele>14.236943</ele>
        <time>2026-03-18T18:08:10.216Z</time>
      </trkpt>
      <trkpt lat="27.768477" lon="-82.660348">
        <ele>14.235720</ele>
        <time>2026-03-18T18:08:11.380Z</time>
      </trkpt>
      <trkpt lat="27.768367" lon="-82.660503">
        <ele>14.216650</ele>
        <time>2026-03-18T18:08:29.074Z</time>
      </trkpt>
      <trkpt lat="27.768477" lon="-82.660348">
        <ele>14.197580</ele>
        <time>2026-03-18T18:08:46.793Z</time>
      </trkpt>
      <trkpt lat="27.768541" lon="-82.660347">
        <ele>14.190638</ele>
        <time>2026-03-18T18:08:53.227Z</time>
      </trkpt>
      <trkpt lat="27.768683" lon="-82.660347">
        <ele>14.175236</ele>
        <time>2026-03-18T18:09:07.489Z</time>
      </trkpt>
      <trkpt lat="27.768815" lon="-82.660348">
        <ele>14.160918</ele>
        <time>2026-03-18T18:09:20.740Z</time>
      </trkpt>
      <trkpt lat="27.769288" lon="-82.660348">
        <ele>14.149495</ele>
        <time>2026-03-18T18:10:08.018Z</time>
      </trkpt>
      <trkpt lat="27.769287" lon="-82.660476">
        <ele>14.157860</ele>
        <time>2026-03-18T18:10:19.398Z</time>
      </trkpt>
      <trkpt lat="27.769281" lon="-82.661630">
        <ele>14.233275</ele>
        <time>2026-03-18T18:12:01.755Z</time>
      </trkpt>
      <trkpt lat="27.769483" lon="-82.661633">
        <ele>14.248195</ele>
        <time>2026-03-18T18:12:22.069Z</time>
      </trkpt>
      <trkpt lat="27.769716" lon="-82.661637">
        <ele>14.265406</ele>
        <time>2026-03-18T18:12:45.553Z</time>
      </trkpt>
      <trkpt lat="27.769715" lon="-82.661708">
        <ele>14.268407</ele>
        <time>2026-03-18T18:12:51.937Z</time>
      </trkpt>
      <trkpt lat="27.769710" lon="-82.662690">
        <ele>14.305367</ele>
        <time>2026-03-18T18:14:19.515Z</time>
      </trkpt>
      <trkpt lat="27.769709" lon="-82.662906">
        <ele>14.313497</ele>
        <time>2026-03-18T18:14:38.670Z</time>
      </trkpt>
      <trkpt lat="27.769709" lon="-82.662960">
        <ele>14.315529</ele>
        <time>2026-03-18T18:14:43.441Z</time>
      </trkpt>
      <trkpt lat="27.770048" lon="-82.662962">
        <ele>14.329949</ele>
        <time>2026-03-18T18:15:17.404Z</time>
      </trkpt>
      <trkpt lat="27.770050" lon="-82.662448">
        <ele>14.308492</ele>
        <time>2026-03-18T18:16:03.077Z</time>
      </trkpt>
      <trkpt lat="27.770100" lon="-82.662446">
        <ele>14.297478</ele>
        <time>2026-03-18T18:16:08.124Z</time>
      </trkpt>
      <trkpt lat="27.770050" lon="-82.662448">
        <ele>14.286464</ele>
        <time>2026-03-18T18:16:13.172Z</time>
      </trkpt>
      <trkpt lat="27.770052" lon="-82.661769">
        <ele>14.154204</ele>
        <time>2026-03-18T18:17:13.742Z</time>
      </trkpt>
      <trkpt lat="27.770053" lon="-82.661708">
        <ele>14.142320</ele>
        <time>2026-03-18T18:17:19.199Z</time>
      </trkpt>
      <trkpt lat="27.769715" lon="-82.661708">
        <ele>14.067912</ele>
        <time>2026-03-18T18:17:53.139Z</time>
      </trkpt>
      <trkpt lat="27.769716" lon="-82.661637">
        <ele>14.054081</ele>
        <time>2026-03-18T18:17:59.470Z</time>
      </trkpt>
      <trkpt lat="27.769716" lon="-82.661546">
        <ele>14.036355</ele>
        <time>2026-03-18T18:18:07.561Z</time>
      </trkpt>
      <trkpt lat="27.770053" lon="-82.661547">
        <ele>13.962168</ele>
        <time>2026-03-18T18:18:41.495Z</time>
      </trkpt>
      <trkpt lat="27.770056" lon="-82.661393">
        <ele>13.946711</ele>
        <time>2026-03-18T18:18:55.190Z</time>
      </trkpt>
      <trkpt lat="27.770056" lon="-82.661350">
        <ele>13.946698</ele>
        <time>2026-03-18T18:18:59.018Z</time>
      </trkpt>
      <trkpt lat="27.770059" lon="-82.661211">
        <ele>13.946657</ele>
        <time>2026-03-18T18:19:11.352Z</time>
      </trkpt>
      <trkpt lat="27.770072" lon="-82.660377">
        <ele>13.946409</ele>
        <time>2026-03-18T18:20:25.200Z</time>
      </trkpt>
      <trkpt lat="27.770073" lon="-82.660350">
        <ele>13.946401</ele>
        <time>2026-03-18T18:20:27.673Z</time>
      </trkpt>
      <trkpt lat="27.769989" lon="-82.660349">
        <ele>13.946373</ele>
        <time>2026-03-18T18:20:36.072Z</time>
      </trkpt>
      <trkpt lat="27.770073" lon="-82.660350">
        <ele>13.946345</ele>
        <time>2026-03-18T18:20:44.518Z</time>
      </trkpt>
      <trkpt lat="27.770075" lon="-82.660269">
        <ele>13.946321</ele>
        <time>2026-03-18T18:20:51.658Z</time>
      </trkpt>
      <trkpt lat="27.770077" lon="-82.660174">
        <ele>13.946293</ele>
        <time>2026-03-18T18:21:00.222Z</time>
      </trkpt>
      <trkpt lat="27.770084" lon="-82.658919">
        <ele>13.910241</ele>
        <time>2026-03-18T18:22:51.690Z</time>
      </trkpt>
      <trkpt lat="27.770214" lon="-82.658919">
        <ele>13.902774</ele>
        <time>2026-03-18T18:23:04.683Z</time>
      </trkpt>
      <trkpt lat="27.770318" lon="-82.658919">
        <ele>13.896801</ele>
        <time>2026-03-18T18:23:15.123Z</time>
      </trkpt>
      <trkpt lat="27.770321" lon="-82.658831">
        <ele>13.892326</ele>
        <time>2026-03-18T18:23:22.994Z</time>
      </trkpt>
      <trkpt lat="27.770930" lon="-82.658830">
        <ele>13.857348</ele>
        <time>2026-03-18T18:24:24.132Z</time>
      </trkpt>
      <trkpt lat="27.770956" lon="-82.658807">
        <ele>13.855451</ele>
        <time>2026-03-18T18:24:27.402Z</time>
      </trkpt>
      <trkpt lat="27.770956" lon="-82.657826">
        <ele>13.817162</ele>
        <time>2026-03-18T18:25:54.721Z</time>
      </trkpt>
      <trkpt lat="27.770957" lon="-82.657788">
        <ele>13.815830</ele>
        <time>2026-03-18T18:25:58.012Z</time>
      </trkpt>
      <trkpt lat="27.770957" lon="-82.657723">
        <ele>13.813553</ele>
        <time>2026-03-18T18:26:03.805Z</time>
      </trkpt>
      <trkpt lat="27.770956" lon="-82.657685">
        <ele>13.812221</ele>
        <time>2026-03-18T18:26:07.217Z</time>
      </trkpt>
      <trkpt lat="27.770956" lon="-82.657667">
        <ele>13.811591</ele>
        <time>2026-03-18T18:26:08.811Z</time>
      </trkpt>
      <trkpt lat="27.770957" lon="-82.657627">
        <ele>13.810189</ele>
        <time>2026-03-18T18:26:12.410Z</time>
      </trkpt>
      <trkpt lat="27.770963" lon="-82.657085">
        <ele>13.791200</ele>
        <time>2026-03-18T18:27:00.454Z</time>
      </trkpt>
      <trkpt lat="27.770971" lon="-82.656392">
        <ele>13.771611</ele>
        <time>2026-03-18T18:28:02.163Z</time>
      </trkpt>
      <trkpt lat="27.770971" lon="-82.656330">
        <ele>13.771611</ele>
        <time>2026-03-18T18:28:07.710Z</time>
      </trkpt>
      <trkpt lat="27.770975" lon="-82.656264">
        <ele>13.771611</ele>
        <time>2026-03-18T18:28:13.626Z</time>
      </trkpt>
      <trkpt lat="27.770975" lon="-82.656235">
        <ele>13.771611</ele>
        <time>2026-03-18T18:28:16.216Z</time>
      </trkpt>
      <trkpt lat="27.770995" lon="-82.656235">
        <ele>13.771611</ele>
        <time>2026-03-18T18:28:18.161Z</time>
      </trkpt>
      <trkpt lat="27.770996" lon="-82.655009">
        <ele>13.771611</ele>
        <time>2026-03-18T18:30:07.902Z</time>
      </trkpt>
      <trkpt lat="27.771057" lon="-82.655008">
        <ele>13.771611</ele>
        <time>2026-03-18T18:30:14.023Z</time>
      </trkpt>
      <trkpt lat="27.771098" lon="-82.655006">
        <ele>13.771611</ele>
        <time>2026-03-18T18:30:18.176Z</time>
      </trkpt>
      <trkpt lat="27.771154" lon="-82.655004">
        <ele>13.771611</ele>
        <time>2026-03-18T18:30:23.868Z</time>
      </trkpt>
      <trkpt lat="27.771211" lon="-82.655002">
        <ele>13.771611</ele>
        <time>2026-03-18T18:30:29.634Z</time>
      </trkpt>
      <trkpt lat="27.771201" lon="-82.654938">
        <ele>13.771611</ele>
        <time>2026-03-18T18:30:35.370Z</time>
      </trkpt>
      <trkpt lat="27.771199" lon="-82.654817">
        <ele>13.771611</ele>
        <time>2026-03-18T18:30:46.144Z</time>
      </trkpt>
      <trkpt lat="27.771290" lon="-82.654818">
        <ele>13.771611</ele>
        <time>2026-03-18T18:30:55.285Z</time>
      </trkpt>
      <trkpt lat="27.771289" lon="-82.654646">
        <ele>13.771611</ele>
        <time>2026-03-18T18:31:10.533Z</time>
      </trkpt>
      <trkpt lat="27.771331" lon="-82.654646">
        <ele>13.771611</ele>
        <time>2026-03-18T18:31:14.745Z</time>
      </trkpt>
      <trkpt lat="27.771403" lon="-82.654645">
        <ele>13.771611</ele>
        <time>2026-03-18T18:31:21.951Z</time>
      </trkpt>
      <trkpt lat="27.771443" lon="-82.654736">
        <ele>13.771611</ele>
        <time>2026-03-18T18:31:30.936Z</time>
      </trkpt>
    </trkseg>
  </trk>
</gpx>