<?xml version="1.0" encoding="UTF-8"?>
<kml xmlns="http://www.opengis.net/kml/2.2">
  <Document>
    <name>Tropicana Field</name>
    <description/>
    <Style id="icon-1899-DB4436-nodesc-normal">
      <IconStyle>
        <color>ff3644db</color>
        <scale>1</scale>
        <Icon>
          <href>https://www.gstatic.com/mapspro/images/stock/503-wht-blank_maps.png</href>
        </Icon>
        <hotSpot x="32" xunits="pixels" y="64" yunits="insetPixels"/>
      </IconStyle>
      <LabelStyle>
        <scale>0</scale>
      </LabelStyle>
      <BalloonStyle>
        <text><![CDATA[<h3>$[name]</h3>]]></text>
      </BalloonStyle>
    </Style>
    <Style id="icon-1899-DB4436-nodesc-highlight">
      <IconStyle>
        <color>ff3644db</color>
        <scale>1</scale>
        <Icon>
          <href>https://www.gstatic.com/mapspro/images/stock/503-wht-blank_maps.png</href>
        </Icon>
        <hotSpot x="32" xunits="pixels" y="64" yunits="insetPixels"/>
      </IconStyle>
      <LabelStyle>
        <scale>1</scale>
      </LabelStyle>
      <BalloonStyle>
        <text><![CDATA[<h3>$[name]</h3>]]></text>
      </BalloonStyle>
    </Style>
    <StyleMap id="icon-1899-DB4436-nodesc">
      <Pair>
        <key>normal</key>
        <styleUrl>#icon-1899-DB4436-nodesc-normal</styleUrl>
      </Pair>
      <Pair>
        <key>highlight</key>
        <styleUrl>#icon-1899-DB4436-nodesc-highlight</styleUrl>
      </Pair>
    </StyleMap>
    <Style id="line-1267FF-5000-nodesc-normal">
      <LineStyle>
        <color>ffff6712</color>
        <width>5</width>
      </LineStyle>
      <BalloonStyle>
        <text><![CDATA[<h3>$[name]</h3>]]></text>
      </BalloonStyle>
    </Style>
    <Style id="line-1267FF-5000-nodesc-highlight">
      <LineStyle>
        <color>ffff6712</color>
        <width>7.5</width>
      </LineStyle>
      <BalloonStyle>
        <text><![CDATA[<h3>$[name]</h3>]]></text>
      </BalloonStyle>
    </Style>
    <StyleMap id="line-1267FF-5000-nodesc">
      <Pair>
        <key>normal</key>
        <styleUrl>#line-1267FF-5000-nodesc-normal</styleUrl>
      </Pair>
      <Pair>
        <key>highlight</key>
        <styleUrl>#line-1267FF-5000-nodesc-highlight</styleUrl>
      </Pair>
    </StyleMap>
    <Folder>
      <name>Directions from 913 1st Ave N, St. Petersburg, FL 33705, USA to 1212 Arlington Ave N, St. Petersburg, FL 33705, USA</name>
      <Placemark>
        <name>Directions from 913 1st Ave N, St. Petersburg, FL 33705, USA to 1212 Arlington Ave N, St. Petersburg, FL 33705, USA</name>
        <styleUrl>#line-1267FF-5000-nodesc</styleUrl>
        <LineString>
          <tessellate>1</tessellate>
          <coordinates>
            -82.64676,27.77232,0
            -82.64676,27.77239,0
            -82.64676,27.7724,0
            -82.64676,27.77253,0
            -82.64689,27.77253,0
            -82.6469,27.77253,0
            -82.64695,27.77253,0
            -82.64703,27.77253,0
            -82.64709,27.77253,0
            -82.64712,27.77253,0
            -82.64718,27.77253,0
            -82.64718,27.77243,0
            -82.64718,27.77213,0
            -82.64718,27.7721,0
            -82.64702,27.77211,0
            -82.64702,27.77213,0
            -82.64702,27.77216,0
            -82.64703,27.77234,0
            -82.64703,27.77243,0
            -82.64703,27.77253,0
            -82.64709,27.77253,0
            -82.64712,27.77253,0
            -82.64718,27.77253,0
            -82.64724,27.77253,0
            -82.6474,27.77253,0
            -82.64746,27.77253,0
            -82.64746,27.77243,0
            -82.64746,27.77219,0
            -82.64746,27.77243,0
            -82.64746,27.77253,0
            -82.64751,27.77253,0
            -82.64763,27.77253,0
            -82.64769,27.77253,0
            -82.64799,27.77253,0
            -82.64799,27.7721,0
            -82.64799,27.77193,0
            -82.64814,27.77193,0
            -82.6484,27.77193,0
            -82.64865,27.77193,0
            -82.64879,27.77193,0
            -82.64929,27.77192,0
            -82.64952,27.77192,0
            -82.64967,27.77195,0
            -82.64982,27.77193,0
            -82.64992,27.77193,0
            -82.65006,27.77193,0
            -82.65015,27.77193,0
            -82.65015,27.7719,0
            -82.65015,27.77188,0
            -82.65014,27.77187,0
            -82.65014,27.77186,0
            -82.65013,27.77185,0
            -82.65013,27.77184,0
            -82.65012,27.77183,0
            -82.65011,27.77183,0
            -82.6501,27.77183,0
            -82.65008,27.77183,0
            -82.65005,27.77183,0
            -82.65008,27.77183,0
            -82.6501,27.77183,0
            -82.65011,27.77183,0
            -82.65012,27.77183,0
            -82.65013,27.77184,0
            -82.65013,27.77185,0
            -82.65014,27.77186,0
            -82.65014,27.77187,0
            -82.65015,27.77188,0
            -82.65015,27.7719,0
            -82.65015,27.77193,0
            -82.65006,27.77193,0
            -82.64992,27.77193,0
            -82.64977,27.77193,0
            -82.64977,27.7721,0
            -82.64992,27.7721,0
            -82.65006,27.7721,0
            -82.65011,27.7721,0
            -82.6502,27.77209,0
            -82.65024,27.77209,0
            -82.65061,27.77209,0
            -82.65067,27.77209,0
            -82.65073,27.77209,0
            -82.65075,27.77213,0
            -82.65079,27.77218,0
            -82.6508,27.7722,0
            -82.6508,27.77223,0
            -82.65077,27.77232,0
            -82.65077,27.77236,0
            -82.65078,27.77241,0
            -82.6508,27.77251,0
            -82.65089,27.77251,0
            -82.65095,27.77251,0
          </coordinates>
        </LineString>
      </Placemark>
      <Placemark>
        <name>913 1st Ave N, St. Petersburg, FL 33705, USA</name>
        <styleUrl>#icon-1899-DB4436-nodesc</styleUrl>
        <Point>
          <coordinates>
            -82.6467574,27.7723154,0
          </coordinates>
        </Point>
      </Placemark>
      <Placemark>
        <name>1212 Arlington Ave N, St. Petersburg, FL 33705, USA</name>
        <styleUrl>#icon-1899-DB4436-nodesc</styleUrl>
        <Point>
          <coordinates>
            -82.6509462,27.772508,0
          </coordinates>
        </Point>
      </Placemark>
    </Folder>
    <Folder>
      <name>Directions from 1510 1st Ave S, St. Petersburg, FL 33705, USA to 2010 1st Ave S, St. Petersburg, FL 33712, USA</name>
      <Placemark>
        <name>Directions from 1510 1st Ave S, St. Petersburg, FL 33705, USA to 2010 1st Ave S, St. Petersburg, FL 33712, USA</name>
        <styleUrl>#line-1267FF-5000-nodesc</styleUrl>
        <LineString>
          <tessellate>1</tessellate>
          <coordinates>
            -82.65454,27.77162,0
            -82.65468,27.77162,0
            -82.65475,27.77162,0
            -82.65475,27.77154,0
            -82.65493,27.77154,0
            -82.65493,27.77149,0
            -82.65494,27.7714,0
            -82.65494,27.77136,0
            -82.65493,27.77131,0
            -82.65493,27.77128,0
            -82.65493,27.77125,0
            -82.65493,27.77115,0
            -82.65501,27.77115,0
            -82.65504,27.77114,0
            -82.65523,27.77114,0
            -82.65539,27.77119,0
            -82.65553,27.77119,0
            -82.65603,27.77119,0
            -82.65619,27.77115,0
            -82.65624,27.77115,0
            -82.65641,27.77113,0
            -82.65644,27.77113,0
            -82.65646,27.77113,0
            -82.65661,27.77118,0
            -82.65701,27.77117,0
            -82.6571,27.77117,0
            -82.65719,27.77117,0
            -82.65745,27.77117,0
            -82.65759,27.77113,0
            -82.65762,27.77113,0
            -82.65766,27.77113,0
            -82.65764,27.77101,0
            -82.65774,27.77101,0
            -82.65774,27.77097,0
            -82.65774,27.77089,0
            -82.65774,27.77084,0
            -82.65774,27.77064,0
            -82.65774,27.77045,0
            -82.65774,27.77039,0
            -82.65773,27.77034,0
            -82.65773,27.77028,0
            -82.65773,27.77014,0
            -82.65773,27.77009,0
            -82.65773,27.76997,0
            -82.65773,27.76979,0
            -82.65773,27.76965,0
            -82.65773,27.76962,0
            -82.65772,27.76946,0
            -82.6577,27.76932,0
            -82.65767,27.76913,0
            -82.65763,27.76877,0
            -82.65767,27.76913,0
            -82.6577,27.76932,0
            -82.65776,27.76932,0
            -82.65781,27.76933,0
            -82.65784,27.76933,0
            -82.65785,27.76934,0
            -82.6579,27.76934,0
            -82.65802,27.76935,0
            -82.65804,27.76935,0
            -82.65807,27.76934,0
            -82.65822,27.76933,0
            -82.65824,27.76933,0
            -82.65831,27.76932,0
            -82.65838,27.76931,0
            -82.6584,27.76931,0
            -82.65845,27.7693,0
            -82.65851,27.76928,0
            -82.65868,27.76924,0
            -82.65891,27.76917,0
            -82.65891,27.76882,0
            -82.65891,27.76874,0
            -82.6589,27.76847,0
            -82.6589,27.76838,0
            -82.6589,27.7683,0
            -82.6589,27.76828,0
            -82.6589,27.76784,0
            -82.6589,27.76757,0
            -82.6589,27.76748,0
            -82.65899,27.76748,0
            -82.65903,27.76748,0
            -82.65935,27.76748,0
            -82.65937,27.76748,0
            -82.65955,27.76748,0
            -82.65996,27.76748,0
            -82.66013,27.76747,0
            -82.66021,27.76747,0
            -82.66035,27.76747,0
            -82.66035,27.76758,0
            -82.66034,27.76827,0
            -82.66034,27.76834,0
            -82.66034,27.76841,0
            -82.66034,27.76849,0
            -82.66041,27.76843,0
            -82.6605,27.76836,0
            -82.66054,27.76834,0
            -82.66057,27.76832,0
            -82.66096,27.76804,0
            -82.66099,27.76802,0
            -82.66112,27.76793,0
            -82.66131,27.76779,0
            -82.66153,27.7676,0
            -82.6616,27.76755,0
            -82.6616,27.76754,0
            -82.66177,27.76739,0
            -82.66193,27.76728,0
            -82.66228,27.76703,0
            -82.66235,27.76698,0
            -82.66252,27.76687,0
            -82.66258,27.76684,0
            -82.66263,27.76681,0
            -82.66267,27.7668,0
            -82.66276,27.76675,0
            -82.66285,27.76669,0
            -82.66291,27.76664,0
            -82.66295,27.7666,0
            -82.66295,27.76663,0
            -82.66308,27.76663,0
            -82.66308,27.76667,0
            -82.66308,27.76671,0
            -82.66308,27.76676,0
            -82.66308,27.76686,0
            -82.66308,27.76696,0
            -82.66308,27.76698,0
            -82.66308,27.76701,0
            -82.66308,27.76708,0
            -82.66309,27.76717,0
            -82.6631,27.76737,0
            -82.66302,27.76755,0
            -82.66303,27.76828,0
            -82.66303,27.76836,0
            -82.66303,27.76844,0
            -82.66303,27.76874,0
            -82.66303,27.76882,0
            -82.66294,27.76884,0
            -82.66291,27.76884,0
            -82.66288,27.76885,0
            -82.66287,27.76877,0
            -82.66287,27.76876,0
            -82.66287,27.76875,0
            -82.66286,27.76874,0
            -82.66285,27.76873,0
            -82.66284,27.76873,0
            -82.66282,27.76872,0
            -82.66216,27.76873,0
            -82.66216,27.76878,0
            -82.66213,27.76878,0
            -82.66211,27.76878,0
            -82.66207,27.76878,0
            -82.66172,27.76878,0
            -82.66168,27.76878,0
            -82.66163,27.76879,0
            -82.66159,27.76879,0
            -82.66155,27.76881,0
            -82.66154,27.76881,0
            -82.66151,27.76881,0
            -82.66039,27.76882,0
            -82.66036,27.76882,0
            -82.66034,27.76882,0
            -82.66034,27.76887,0
            -82.66034,27.76894,0
            -82.66034,27.7692,0
            -82.66034,27.76928,0
            -82.6602,27.76928,0
            -82.6602,27.7696,0
            -82.6602,27.76973,0
            -82.6602,27.76978,0
            -82.6602,27.77005,0
            -82.6602,27.77008,0
            -82.66034,27.77007,0
            -82.66034,27.77012,0
            -82.66045,27.77012,0
            -82.66055,27.77012,0
          </coordinates>
        </LineString>
      </Placemark>
      <Placemark>
        <name>1510 1st Ave S, St. Petersburg, FL 33705, USA</name>
        <styleUrl>#icon-1899-DB4436-nodesc</styleUrl>
        <Point>
          <coordinates>
            -82.6545382,27.7716205,0
          </coordinates>
        </Point>
      </Placemark>
      <Placemark>
        <name>2010 1st Ave S, St. Petersburg, FL 33712, USA</name>
        <styleUrl>#icon-1899-DB4436-nodesc</styleUrl>
        <Point>
          <coordinates>
            -82.6605478,27.7701226,0
          </coordinates>
        </Point>
      </Placemark>
    </Folder>
  </Document>
</kml>
